{
  "type": "FeatureCollection",
  "crs": {
    "type": "name",
    "properties": {
      "name": "LOCAL-LAKE-VIEW-DEMO-M"
    }
  },
  "features": [
    {
      "type": "Feature",
      "id": "P01",
      "properties": {
        "landUse": "residential",
        "parcel_id": "P01",
        "name": "Plot 01",
        "classification": "synthetic",
        "source_revision": "source-showcase-1",
        "geometry_status": "authored_synthetic",
        "geometry_note": "Author-provided fictional geometry; not AI extraction or survey evidence.",
        "geometry_id": "P01-shape-v1",
        "geometry_revision": 1,
        "base_elevation_m": 0,
        "height_m": 0,
        "vertical_reference": "DEMO-BM-01 fictional zero datum; not national MSL",
        "parcel_2d_demo_id": "DEMO-2D-ANCHOR-P01"
      },
      "geometry": {
        "type": "Polygon",
        "coordinates": [
          [
            [
              66,
              64
            ],
            [
              93,
              64
            ],
            [
              93,
              95
            ],
            [
              66,
              95
            ],
            [
              66,
              64
            ]
          ]
        ]
      }
    },
    {
      "type": "Feature",
      "id": "P02",
      "properties": {
        "landUse": "residential",
        "parcel_id": "P02",
        "name": "Plot 02",
        "classification": "synthetic",
        "source_revision": "source-showcase-1",
        "geometry_status": "authored_synthetic",
        "geometry_note": "Author-provided fictional geometry; not AI extraction or survey evidence.",
        "geometry_id": "P02-shape-v1",
        "geometry_revision": 1,
        "base_elevation_m": 0,
        "height_m": 0,
        "vertical_reference": "DEMO-BM-01 fictional zero datum; not national MSL",
        "parcel_2d_demo_id": "DEMO-2D-ANCHOR-P02"
      },
      "geometry": {
        "type": "Polygon",
        "coordinates": [
          [
            [
              49,
              65
            ],
            [
              65,
              65
            ],
            [
              65,
              95
            ],
            [
              49,
              95
            ],
            [
              49,
              65
            ]
          ]
        ]
      }
    },
    {
      "type": "Feature",
      "id": "P03",
      "properties": {
        "landUse": "residential",
        "parcel_id": "P03",
        "name": "Plot 03",
        "classification": "synthetic",
        "source_revision": "source-showcase-1",
        "geometry_status": "authored_synthetic",
        "geometry_note": "Author-provided fictional geometry; not AI extraction or survey evidence.",
        "geometry_id": "P03-shape-v1",
        "geometry_revision": 1,
        "base_elevation_m": 0,
        "height_m": 0,
        "vertical_reference": "DEMO-BM-01 fictional zero datum; not national MSL",
        "parcel_2d_demo_id": "DEMO-2D-ANCHOR-P03"
      },
      "geometry": {
        "type": "Polygon",
        "coordinates": [
          [
            [
              105,
              65
            ],
            [
              127,
              65
            ],
            [
              127,
              95
            ],
            [
              105,
              95
            ],
            [
              105,
              65
            ]
          ]
        ]
      }
    },
    {
      "type": "Feature",
      "id": "P04",
      "properties": {
        "landUse": "residential",
        "parcel_id": "P04",
        "name": "Plot 04",
        "classification": "synthetic",
        "source_revision": "source-showcase-1",
        "geometry_status": "authored_synthetic",
        "geometry_note": "Author-provided fictional geometry; not AI extraction or survey evidence.",
        "geometry_id": "P04-shape-v1",
        "geometry_revision": 1,
        "base_elevation_m": 0,
        "height_m": 0,
        "vertical_reference": "DEMO-BM-01 fictional zero datum; not national MSL",
        "parcel_2d_demo_id": "DEMO-2D-ANCHOR-P04"
      },
      "geometry": {
        "type": "Polygon",
        "coordinates": [
          [
            [
              130,
              65
            ],
            [
              153,
              65
            ],
            [
              153,
              95
            ],
            [
              130,
              95
            ],
            [
              130,
              65
            ]
          ]
        ]
      }
    },
    {
      "type": "Feature",
      "id": "P05",
      "properties": {
        "landUse": "residential",
        "parcel_id": "P05",
        "name": "Plot 05",
        "classification": "synthetic",
        "source_revision": "source-showcase-1",
        "geometry_status": "authored_synthetic",
        "geometry_note": "Author-provided fictional geometry; not AI extraction or survey evidence.",
        "geometry_id": "P05-shape-v1",
        "geometry_revision": 1,
        "base_elevation_m": 0,
        "height_m": 0,
        "vertical_reference": "DEMO-BM-01 fictional zero datum; not national MSL",
        "parcel_2d_demo_id": "DEMO-2D-ANCHOR-P05"
      },
      "geometry": {
        "type": "Polygon",
        "coordinates": [
          [
            [
              7,
              107
            ],
            [
              25,
              107
            ],
            [
              25,
              136
            ],
            [
              7,
              136
            ],
            [
              7,
              107
            ]
          ]
        ]
      }
    },
    {
      "type": "Feature",
      "id": "P06",
      "properties": {
        "landUse": "residential",
        "parcel_id": "P06",
        "name": "Plot 06",
        "classification": "synthetic",
        "source_revision": "source-showcase-1",
        "geometry_status": "authored_synthetic",
        "geometry_note": "Author-provided fictional geometry; not AI extraction or survey evidence.",
        "geometry_id": "P06-shape-v1",
        "geometry_revision": 1,
        "base_elevation_m": 0,
        "height_m": 0,
        "vertical_reference": "DEMO-BM-01 fictional zero datum; not national MSL",
        "parcel_2d_demo_id": "DEMO-2D-ANCHOR-P06"
      },
      "geometry": {
        "type": "Polygon",
        "coordinates": [
          [
            [
              28,
              107
            ],
            [
              46,
              107
            ],
            [
              46,
              136
            ],
            [
              28,
              136
            ],
            [
              28,
              107
            ]
          ]
        ]
      }
    },
    {
      "type": "Feature",
      "id": "P07",
      "properties": {
        "landUse": "residential",
        "parcel_id": "P07",
        "name": "Plot 07",
        "classification": "synthetic",
        "source_revision": "source-showcase-1",
        "geometry_status": "authored_synthetic",
        "geometry_note": "Author-provided fictional geometry; not AI extraction or survey evidence.",
        "geometry_id": "P07-shape-v1",
        "geometry_revision": 1,
        "base_elevation_m": 0,
        "height_m": 0,
        "vertical_reference": "DEMO-BM-01 fictional zero datum; not national MSL",
        "parcel_2d_demo_id": "DEMO-2D-ANCHOR-P07"
      },
      "geometry": {
        "type": "Polygon",
        "coordinates": [
          [
            [
              49,
              107
            ],
            [
              65,
              107
            ],
            [
              65,
              136
            ],
            [
              49,
              136
            ],
            [
              49,
              107
            ]
          ]
        ]
      }
    },
    {
      "type": "Feature",
      "id": "P08",
      "properties": {
        "landUse": "residential",
        "parcel_id": "P08",
        "name": "Plot 08",
        "classification": "synthetic",
        "source_revision": "source-showcase-1",
        "geometry_status": "authored_synthetic",
        "geometry_note": "Author-provided fictional geometry; not AI extraction or survey evidence.",
        "geometry_id": "P08-shape-v1",
        "geometry_revision": 1,
        "base_elevation_m": 0,
        "height_m": 0,
        "vertical_reference": "DEMO-BM-01 fictional zero datum; not national MSL",
        "parcel_2d_demo_id": "DEMO-2D-ANCHOR-P08"
      },
      "geometry": {
        "type": "Polygon",
        "coordinates": [
          [
            [
              69,
              107
            ],
            [
              92,
              107
            ],
            [
              92,
              136
            ],
            [
              69,
              136
            ],
            [
              69,
              107
            ]
          ]
        ]
      }
    },
    {
      "type": "Feature",
      "id": "P09",
      "properties": {
        "landUse": "residential",
        "parcel_id": "P09",
        "name": "Plot 09",
        "classification": "synthetic",
        "source_revision": "source-showcase-1",
        "geometry_status": "authored_synthetic",
        "geometry_note": "Author-provided fictional geometry; not AI extraction or survey evidence.",
        "geometry_id": "P09-shape-v1",
        "geometry_revision": 1,
        "base_elevation_m": 0,
        "height_m": 0,
        "vertical_reference": "DEMO-BM-01 fictional zero datum; not national MSL",
        "parcel_2d_demo_id": "DEMO-2D-ANCHOR-P09"
      },
      "geometry": {
        "type": "Polygon",
        "coordinates": [
          [
            [
              105,
              107
            ],
            [
              127,
              107
            ],
            [
              127,
              136
            ],
            [
              105,
              136
            ],
            [
              105,
              107
            ]
          ]
        ]
      }
    },
    {
      "type": "Feature",
      "id": "P10",
      "properties": {
        "landUse": "residential",
        "parcel_id": "P10",
        "name": "Plot 10",
        "classification": "synthetic",
        "source_revision": "source-showcase-1",
        "geometry_status": "authored_synthetic",
        "geometry_note": "Author-provided fictional geometry; not AI extraction or survey evidence.",
        "geometry_id": "P10-shape-v1",
        "geometry_revision": 1,
        "base_elevation_m": 0,
        "height_m": 0,
        "vertical_reference": "DEMO-BM-01 fictional zero datum; not national MSL",
        "parcel_2d_demo_id": "DEMO-2D-ANCHOR-P10"
      },
      "geometry": {
        "type": "Polygon",
        "coordinates": [
          [
            [
              130,
              107
            ],
            [
              153,
              107
            ],
            [
              153,
              136
            ],
            [
              130,
              136
            ],
            [
              130,
              107
            ]
          ]
        ]
      }
    },
    {
      "type": "Feature",
      "id": "P11",
      "properties": {
        "landUse": "residential",
        "parcel_id": "P11",
        "name": "Plot 11",
        "classification": "synthetic",
        "source_revision": "source-showcase-1",
        "geometry_status": "authored_synthetic",
        "geometry_note": "Author-provided fictional geometry; not AI extraction or survey evidence.",
        "geometry_id": "P11-shape-v1",
        "geometry_revision": 1,
        "base_elevation_m": 0,
        "height_m": 0,
        "vertical_reference": "DEMO-BM-01 fictional zero datum; not national MSL",
        "parcel_2d_demo_id": "DEMO-2D-ANCHOR-P11"
      },
      "geometry": {
        "type": "Polygon",
        "coordinates": [
          [
            [
              7,
              0
            ],
            [
              25,
              0
            ],
            [
              25,
              16
            ],
            [
              7,
              16
            ],
            [
              7,
              0
            ]
          ]
        ]
      }
    },
    {
      "type": "Feature",
      "id": "P12",
      "properties": {
        "landUse": "residential",
        "parcel_id": "P12",
        "name": "Plot 12",
        "classification": "synthetic",
        "source_revision": "source-showcase-1",
        "geometry_status": "authored_synthetic",
        "geometry_note": "Author-provided fictional geometry; not AI extraction or survey evidence.",
        "geometry_id": "P12-shape-v1",
        "geometry_revision": 1,
        "base_elevation_m": 0,
        "height_m": 0,
        "vertical_reference": "DEMO-BM-01 fictional zero datum; not national MSL",
        "parcel_2d_demo_id": "DEMO-2D-ANCHOR-P12"
      },
      "geometry": {
        "type": "Polygon",
        "coordinates": [
          [
            [
              28,
              0
            ],
            [
              46,
              0
            ],
            [
              46,
              16
            ],
            [
              28,
              16
            ],
            [
              28,
              0
            ]
          ]
        ]
      }
    },
    {
      "type": "Feature",
      "id": "P13",
      "properties": {
        "landUse": "residential",
        "parcel_id": "P13",
        "name": "Plot 13",
        "classification": "synthetic",
        "source_revision": "source-showcase-1",
        "geometry_status": "authored_synthetic",
        "geometry_note": "Author-provided fictional geometry; not AI extraction or survey evidence.",
        "geometry_id": "P13-shape-v1",
        "geometry_revision": 1,
        "base_elevation_m": 0,
        "height_m": 0,
        "vertical_reference": "DEMO-BM-01 fictional zero datum; not national MSL",
        "parcel_2d_demo_id": "DEMO-2D-ANCHOR-P13"
      },
      "geometry": {
        "type": "Polygon",
        "coordinates": [
          [
            [
              49,
              0
            ],
            [
              65,
              0
            ],
            [
              65,
              16
            ],
            [
              49,
              16
            ],
            [
              49,
              0
            ]
          ]
        ]
      }
    },
    {
      "type": "Feature",
      "id": "P14",
      "properties": {
        "landUse": "residential",
        "parcel_id": "P14",
        "name": "Plot 14",
        "classification": "synthetic",
        "source_revision": "source-showcase-1",
        "geometry_status": "authored_synthetic",
        "geometry_note": "Author-provided fictional geometry; not AI extraction or survey evidence.",
        "geometry_id": "P14-shape-v1",
        "geometry_revision": 1,
        "base_elevation_m": 0,
        "height_m": 0,
        "vertical_reference": "DEMO-BM-01 fictional zero datum; not national MSL",
        "parcel_2d_demo_id": "DEMO-2D-ANCHOR-P14"
      },
      "geometry": {
        "type": "Polygon",
        "coordinates": [
          [
            [
              69,
              0
            ],
            [
              92,
              0
            ],
            [
              92,
              16
            ],
            [
              69,
              16
            ],
            [
              69,
              0
            ]
          ]
        ]
      }
    },
    {
      "type": "Feature",
      "id": "P15",
      "properties": {
        "landUse": "residential",
        "parcel_id": "P15",
        "name": "Plot 15",
        "classification": "synthetic",
        "source_revision": "source-showcase-1",
        "geometry_status": "authored_synthetic",
        "geometry_note": "Author-provided fictional geometry; not AI extraction or survey evidence.",
        "geometry_id": "P15-shape-v1",
        "geometry_revision": 1,
        "base_elevation_m": 0,
        "height_m": 0,
        "vertical_reference": "DEMO-BM-01 fictional zero datum; not national MSL",
        "parcel_2d_demo_id": "DEMO-2D-ANCHOR-P15"
      },
      "geometry": {
        "type": "Polygon",
        "coordinates": [
          [
            [
              105,
              0
            ],
            [
              127,
              0
            ],
            [
              127,
              16
            ],
            [
              105,
              16
            ],
            [
              105,
              0
            ]
          ]
        ]
      }
    },
    {
      "type": "Feature",
      "id": "P16",
      "properties": {
        "landUse": "residential",
        "parcel_id": "P16",
        "name": "Plot 16",
        "classification": "synthetic",
        "source_revision": "source-showcase-1",
        "geometry_status": "authored_synthetic",
        "geometry_note": "Author-provided fictional geometry; not AI extraction or survey evidence.",
        "geometry_id": "P16-shape-v1",
        "geometry_revision": 1,
        "base_elevation_m": 0,
        "height_m": 0,
        "vertical_reference": "DEMO-BM-01 fictional zero datum; not national MSL",
        "parcel_2d_demo_id": "DEMO-2D-ANCHOR-P16"
      },
      "geometry": {
        "type": "Polygon",
        "coordinates": [
          [
            [
              130,
              0
            ],
            [
              153,
              0
            ],
            [
              153,
              16
            ],
            [
              130,
              16
            ],
            [
              130,
              0
            ]
          ]
        ]
      }
    },
    {
      "type": "Feature",
      "id": "P17",
      "properties": {
        "landUse": "residential",
        "parcel_id": "P17",
        "name": "Plot 17",
        "classification": "synthetic",
        "source_revision": "source-showcase-1",
        "geometry_status": "authored_synthetic",
        "geometry_note": "Author-provided fictional geometry; not AI extraction or survey evidence.",
        "geometry_id": "P17-shape-v1",
        "geometry_revision": 1,
        "base_elevation_m": 0,
        "height_m": 0,
        "vertical_reference": "DEMO-BM-01 fictional zero datum; not national MSL",
        "parcel_2d_demo_id": "DEMO-2D-ANCHOR-P17"
      },
      "geometry": {
        "type": "Polygon",
        "coordinates": [
          [
            [
              7,
              146
            ],
            [
              25,
              146
            ],
            [
              25,
              158
            ],
            [
              7,
              158
            ],
            [
              7,
              146
            ]
          ]
        ]
      }
    },
    {
      "type": "Feature",
      "id": "P18",
      "properties": {
        "landUse": "residential",
        "parcel_id": "P18",
        "name": "Plot 18",
        "classification": "synthetic",
        "source_revision": "source-showcase-1",
        "geometry_status": "authored_synthetic",
        "geometry_note": "Author-provided fictional geometry; not AI extraction or survey evidence.",
        "geometry_id": "P18-shape-v1",
        "geometry_revision": 1,
        "base_elevation_m": 0,
        "height_m": 0,
        "vertical_reference": "DEMO-BM-01 fictional zero datum; not national MSL",
        "parcel_2d_demo_id": "DEMO-2D-ANCHOR-P18"
      },
      "geometry": {
        "type": "Polygon",
        "coordinates": [
          [
            [
              28,
              146
            ],
            [
              46,
              146
            ],
            [
              46,
              158
            ],
            [
              28,
              158
            ],
            [
              28,
              146
            ]
          ]
        ]
      }
    },
    {
      "type": "Feature",
      "id": "P19",
      "properties": {
        "landUse": "residential",
        "parcel_id": "P19",
        "name": "Plot 19",
        "classification": "synthetic",
        "source_revision": "source-showcase-1",
        "geometry_status": "authored_synthetic",
        "geometry_note": "Author-provided fictional geometry; not AI extraction or survey evidence.",
        "geometry_id": "P19-shape-v1",
        "geometry_revision": 1,
        "base_elevation_m": 0,
        "height_m": 0,
        "vertical_reference": "DEMO-BM-01 fictional zero datum; not national MSL",
        "parcel_2d_demo_id": "DEMO-2D-ANCHOR-P19"
      },
      "geometry": {
        "type": "Polygon",
        "coordinates": [
          [
            [
              49,
              146
            ],
            [
              65,
              146
            ],
            [
              65,
              158
            ],
            [
              49,
              158
            ],
            [
              49,
              146
            ]
          ]
        ]
      }
    },
    {
      "type": "Feature",
      "id": "P20",
      "properties": {
        "landUse": "residential",
        "parcel_id": "P20",
        "name": "Plot 20",
        "classification": "synthetic",
        "source_revision": "source-showcase-1",
        "geometry_status": "authored_synthetic",
        "geometry_note": "Author-provided fictional geometry; not AI extraction or survey evidence.",
        "geometry_id": "P20-shape-v1",
        "geometry_revision": 1,
        "base_elevation_m": 0,
        "height_m": 0,
        "vertical_reference": "DEMO-BM-01 fictional zero datum; not national MSL",
        "parcel_2d_demo_id": "DEMO-2D-ANCHOR-P20"
      },
      "geometry": {
        "type": "Polygon",
        "coordinates": [
          [
            [
              69,
              146
            ],
            [
              92,
              146
            ],
            [
              92,
              158
            ],
            [
              69,
              158
            ],
            [
              69,
              146
            ]
          ]
        ]
      }
    },
    {
      "type": "Feature",
      "id": "P21",
      "properties": {
        "landUse": "residential",
        "parcel_id": "P21",
        "name": "Plot 21",
        "classification": "synthetic",
        "source_revision": "source-showcase-1",
        "geometry_status": "authored_synthetic",
        "geometry_note": "Author-provided fictional geometry; not AI extraction or survey evidence.",
        "geometry_id": "P21-shape-v1",
        "geometry_revision": 1,
        "base_elevation_m": 0,
        "height_m": 0,
        "vertical_reference": "DEMO-BM-01 fictional zero datum; not national MSL",
        "parcel_2d_demo_id": "DEMO-2D-ANCHOR-P21"
      },
      "geometry": {
        "type": "Polygon",
        "coordinates": [
          [
            [
              105,
              146
            ],
            [
              127,
              146
            ],
            [
              127,
              158
            ],
            [
              105,
              158
            ],
            [
              105,
              146
            ]
          ]
        ]
      }
    },
    {
      "type": "Feature",
      "id": "P22",
      "properties": {
        "landUse": "residential",
        "parcel_id": "P22",
        "name": "Plot 22",
        "classification": "synthetic",
        "source_revision": "source-showcase-1",
        "geometry_status": "authored_synthetic",
        "geometry_note": "Author-provided fictional geometry; not AI extraction or survey evidence.",
        "geometry_id": "P22-shape-v1",
        "geometry_revision": 1,
        "base_elevation_m": 0,
        "height_m": 0,
        "vertical_reference": "DEMO-BM-01 fictional zero datum; not national MSL",
        "parcel_2d_demo_id": "DEMO-2D-ANCHOR-P22"
      },
      "geometry": {
        "type": "Polygon",
        "coordinates": [
          [
            [
              130,
              146
            ],
            [
              153,
              146
            ],
            [
              153,
              158
            ],
            [
              130,
              158
            ],
            [
              130,
              146
            ]
          ]
        ]
      }
    },
    {
      "type": "Feature",
      "id": "P23",
      "properties": {
        "landUse": "residential",
        "parcel_id": "P23",
        "name": "Plot 23",
        "classification": "synthetic",
        "source_revision": "source-showcase-1",
        "geometry_status": "authored_synthetic",
        "geometry_note": "Author-provided fictional geometry; not AI extraction or survey evidence.",
        "geometry_id": "P23-shape-v1",
        "geometry_revision": 1,
        "base_elevation_m": 0,
        "height_m": 0,
        "vertical_reference": "DEMO-BM-01 fictional zero datum; not national MSL",
        "parcel_2d_demo_id": "DEMO-2D-ANCHOR-P23"
      },
      "geometry": {
        "type": "Polygon",
        "coordinates": [
          [
            [
              65,
              28
            ],
            [
              92,
              28
            ],
            [
              92,
              55
            ],
            [
              65,
              55
            ],
            [
              65,
              28
            ]
          ]
        ]
      }
    },
    {
      "type": "Feature",
      "id": "P24",
      "properties": {
        "landUse": "residential",
        "parcel_id": "P24",
        "name": "Plot 24",
        "classification": "synthetic",
        "source_revision": "source-showcase-1",
        "geometry_status": "authored_synthetic",
        "geometry_note": "Author-provided fictional geometry; not AI extraction or survey evidence.",
        "geometry_id": "P24-shape-v1",
        "geometry_revision": 1,
        "base_elevation_m": 0,
        "height_m": 0,
        "vertical_reference": "DEMO-BM-01 fictional zero datum; not national MSL",
        "parcel_2d_demo_id": "DEMO-2D-ANCHOR-P24"
      },
      "geometry": {
        "type": "Polygon",
        "coordinates": [
          [
            [
              105,
              28
            ],
            [
              127,
              28
            ],
            [
              127,
              55
            ],
            [
              105,
              55
            ],
            [
              105,
              28
            ]
          ]
        ]
      }
    },
    {
      "type": "Feature",
      "id": "P25",
      "properties": {
        "landUse": "residential",
        "parcel_id": "P25",
        "name": "Plot 25",
        "classification": "synthetic",
        "source_revision": "source-showcase-1",
        "geometry_status": "authored_synthetic",
        "geometry_note": "Author-provided fictional geometry; not AI extraction or survey evidence.",
        "geometry_id": "P25-shape-v1",
        "geometry_revision": 1,
        "base_elevation_m": 0,
        "height_m": 0,
        "vertical_reference": "DEMO-BM-01 fictional zero datum; not national MSL",
        "parcel_2d_demo_id": "DEMO-2D-ANCHOR-P25"
      },
      "geometry": {
        "type": "Polygon",
        "coordinates": [
          [
            [
              130,
              28
            ],
            [
              153,
              28
            ],
            [
              153,
              55
            ],
            [
              130,
              55
            ],
            [
              130,
              28
            ]
          ]
        ]
      }
    },
    {
      "type": "Feature",
      "id": "P26",
      "properties": {
        "landUse": "residential",
        "parcel_id": "P26",
        "name": "Plot 26",
        "classification": "synthetic",
        "source_revision": "source-showcase-1",
        "geometry_status": "authored_synthetic",
        "geometry_note": "Author-provided fictional geometry; not AI extraction or survey evidence.",
        "geometry_id": "P26-shape-v1",
        "geometry_revision": 1,
        "base_elevation_m": 0,
        "height_m": 0,
        "vertical_reference": "DEMO-BM-01 fictional zero datum; not national MSL",
        "parcel_2d_demo_id": "DEMO-2D-ANCHOR-P26"
      },
      "geometry": {
        "type": "Polygon",
        "coordinates": [
          [
            [
              -24,
              28
            ],
            [
              -1,
              28
            ],
            [
              -1,
              55
            ],
            [
              -24,
              55
            ],
            [
              -24,
              28
            ]
          ]
        ]
      }
    },
    {
      "type": "Feature",
      "id": "P27",
      "properties": {
        "landUse": "residential",
        "parcel_id": "P27",
        "name": "Plot 27",
        "classification": "synthetic",
        "source_revision": "source-showcase-1",
        "geometry_status": "authored_synthetic",
        "geometry_note": "Author-provided fictional geometry; not AI extraction or survey evidence.",
        "geometry_id": "P27-shape-v1",
        "geometry_revision": 1,
        "base_elevation_m": 0,
        "height_m": 0,
        "vertical_reference": "DEMO-BM-01 fictional zero datum; not national MSL",
        "parcel_2d_demo_id": "DEMO-2D-ANCHOR-P27"
      },
      "geometry": {
        "type": "Polygon",
        "coordinates": [
          [
            [
              -24,
              65
            ],
            [
              -1,
              65
            ],
            [
              -1,
              92
            ],
            [
              -24,
              92
            ],
            [
              -24,
              65
            ]
          ]
        ]
      }
    },
    {
      "type": "Feature",
      "id": "P28",
      "properties": {
        "landUse": "residential",
        "parcel_id": "P28",
        "name": "Plot 28",
        "classification": "synthetic",
        "source_revision": "source-showcase-1",
        "geometry_status": "authored_synthetic",
        "geometry_note": "Author-provided fictional geometry; not AI extraction or survey evidence.",
        "geometry_id": "P28-shape-v1",
        "geometry_revision": 1,
        "base_elevation_m": 0,
        "height_m": 0,
        "vertical_reference": "DEMO-BM-01 fictional zero datum; not national MSL",
        "parcel_2d_demo_id": "DEMO-2D-ANCHOR-P28"
      },
      "geometry": {
        "type": "Polygon",
        "coordinates": [
          [
            [
              -24,
              107
            ],
            [
              -1,
              107
            ],
            [
              -1,
              134
            ],
            [
              -24,
              134
            ],
            [
              -24,
              107
            ]
          ]
        ]
      }
    },
    {
      "type": "Feature",
      "id": "P29",
      "properties": {
        "landUse": "residential",
        "parcel_id": "P29",
        "name": "Plot 29",
        "classification": "synthetic",
        "source_revision": "source-showcase-1",
        "geometry_status": "authored_synthetic",
        "geometry_note": "Author-provided fictional geometry; not AI extraction or survey evidence.",
        "geometry_id": "P29-shape-v1",
        "geometry_revision": 1,
        "base_elevation_m": 0,
        "height_m": 0,
        "vertical_reference": "DEMO-BM-01 fictional zero datum; not national MSL",
        "parcel_2d_demo_id": "DEMO-2D-ANCHOR-P29"
      },
      "geometry": {
        "type": "Polygon",
        "coordinates": [
          [
            [
              -24,
              146
            ],
            [
              -1,
              146
            ],
            [
              -1,
              173
            ],
            [
              -24,
              173
            ],
            [
              -24,
              146
            ]
          ]
        ]
      }
    },
    {
      "type": "Feature",
      "id": "P30",
      "properties": {
        "landUse": "residential",
        "parcel_id": "P30",
        "name": "Plot 30",
        "classification": "synthetic",
        "source_revision": "source-showcase-1",
        "geometry_status": "authored_synthetic",
        "geometry_note": "Author-provided fictional geometry; not AI extraction or survey evidence.",
        "geometry_id": "P30-shape-v1",
        "geometry_revision": 1,
        "base_elevation_m": 0,
        "height_m": 0,
        "vertical_reference": "DEMO-BM-01 fictional zero datum; not national MSL",
        "parcel_2d_demo_id": "DEMO-2D-ANCHOR-P30"
      },
      "geometry": {
        "type": "Polygon",
        "coordinates": [
          [
            [
              -24,
              177
            ],
            [
              -1,
              177
            ],
            [
              -1,
              204
            ],
            [
              -24,
              204
            ],
            [
              -24,
              177
            ]
          ]
        ]
      }
    },
    {
      "type": "Feature",
      "id": "P31",
      "properties": {
        "landUse": "residential",
        "parcel_id": "P31",
        "name": "Plot 31",
        "classification": "synthetic",
        "source_revision": "source-showcase-1",
        "geometry_status": "authored_synthetic",
        "geometry_note": "Author-provided fictional geometry; not AI extraction or survey evidence.",
        "geometry_id": "P31-shape-v1",
        "geometry_revision": 1,
        "base_elevation_m": 0,
        "height_m": 0,
        "vertical_reference": "DEMO-BM-01 fictional zero datum; not national MSL",
        "parcel_2d_demo_id": "DEMO-2D-ANCHOR-P31"
      },
      "geometry": {
        "type": "Polygon",
        "coordinates": [
          [
            [
              166,
              28
            ],
            [
              189,
              28
            ],
            [
              189,
              55
            ],
            [
              166,
              55
            ],
            [
              166,
              28
            ]
          ]
        ]
      }
    },
    {
      "type": "Feature",
      "id": "P32",
      "properties": {
        "landUse": "residential",
        "parcel_id": "P32",
        "name": "Plot 32",
        "classification": "synthetic",
        "source_revision": "source-showcase-1",
        "geometry_status": "authored_synthetic",
        "geometry_note": "Author-provided fictional geometry; not AI extraction or survey evidence.",
        "geometry_id": "P32-shape-v1",
        "geometry_revision": 1,
        "base_elevation_m": 0,
        "height_m": 0,
        "vertical_reference": "DEMO-BM-01 fictional zero datum; not national MSL",
        "parcel_2d_demo_id": "DEMO-2D-ANCHOR-P32"
      },
      "geometry": {
        "type": "Polygon",
        "coordinates": [
          [
            [
              166,
              65
            ],
            [
              189,
              65
            ],
            [
              189,
              92
            ],
            [
              166,
              92
            ],
            [
              166,
              65
            ]
          ]
        ]
      }
    },
    {
      "type": "Feature",
      "id": "P33",
      "properties": {
        "landUse": "residential",
        "parcel_id": "P33",
        "name": "Plot 33",
        "classification": "synthetic",
        "source_revision": "source-showcase-1",
        "geometry_status": "authored_synthetic",
        "geometry_note": "Author-provided fictional geometry; not AI extraction or survey evidence.",
        "geometry_id": "P33-shape-v1",
        "geometry_revision": 1,
        "base_elevation_m": 0,
        "height_m": 0,
        "vertical_reference": "DEMO-BM-01 fictional zero datum; not national MSL",
        "parcel_2d_demo_id": "DEMO-2D-ANCHOR-P33"
      },
      "geometry": {
        "type": "Polygon",
        "coordinates": [
          [
            [
              166,
              107
            ],
            [
              189,
              107
            ],
            [
              189,
              134
            ],
            [
              166,
              134
            ],
            [
              166,
              107
            ]
          ]
        ]
      }
    },
    {
      "type": "Feature",
      "id": "P34",
      "properties": {
        "landUse": "residential",
        "parcel_id": "P34",
        "name": "Plot 34",
        "classification": "synthetic",
        "source_revision": "source-showcase-1",
        "geometry_status": "authored_synthetic",
        "geometry_note": "Author-provided fictional geometry; not AI extraction or survey evidence.",
        "geometry_id": "P34-shape-v1",
        "geometry_revision": 1,
        "base_elevation_m": 0,
        "height_m": 0,
        "vertical_reference": "DEMO-BM-01 fictional zero datum; not national MSL",
        "parcel_2d_demo_id": "DEMO-2D-ANCHOR-P34"
      },
      "geometry": {
        "type": "Polygon",
        "coordinates": [
          [
            [
              166,
              146
            ],
            [
              189,
              146
            ],
            [
              189,
              173
            ],
            [
              166,
              173
            ],
            [
              166,
              146
            ]
          ]
        ]
      }
    },
    {
      "type": "Feature",
      "id": "P35",
      "properties": {
        "landUse": "residential",
        "parcel_id": "P35",
        "name": "Plot 35",
        "classification": "synthetic",
        "source_revision": "source-showcase-1",
        "geometry_status": "authored_synthetic",
        "geometry_note": "Author-provided fictional geometry; not AI extraction or survey evidence.",
        "geometry_id": "P35-shape-v1",
        "geometry_revision": 1,
        "base_elevation_m": 0,
        "height_m": 0,
        "vertical_reference": "DEMO-BM-01 fictional zero datum; not national MSL",
        "parcel_2d_demo_id": "DEMO-2D-ANCHOR-P35"
      },
      "geometry": {
        "type": "Polygon",
        "coordinates": [
          [
            [
              166,
              177
            ],
            [
              189,
              177
            ],
            [
              189,
              204
            ],
            [
              166,
              204
            ],
            [
              166,
              177
            ]
          ]
        ]
      }
    },
    {
      "type": "Feature",
      "id": "P36",
      "properties": {
        "landUse": "residential",
        "parcel_id": "P36",
        "name": "Plot 36",
        "classification": "synthetic",
        "source_revision": "source-showcase-1",
        "geometry_status": "authored_synthetic",
        "geometry_note": "Author-provided fictional geometry; not AI extraction or survey evidence.",
        "geometry_id": "P36-shape-v1",
        "geometry_revision": 1,
        "base_elevation_m": 0,
        "height_m": 0,
        "vertical_reference": "DEMO-BM-01 fictional zero datum; not national MSL",
        "parcel_2d_demo_id": "DEMO-2D-ANCHOR-P36"
      },
      "geometry": {
        "type": "Polygon",
        "coordinates": [
          [
            [
              7,
              -24
            ],
            [
              27,
              -24
            ],
            [
              27,
              0
            ],
            [
              7,
              0
            ],
            [
              7,
              -24
            ]
          ]
        ]
      }
    },
    {
      "type": "Feature",
      "id": "P37",
      "properties": {
        "landUse": "residential",
        "parcel_id": "P37",
        "name": "Plot 37",
        "classification": "synthetic",
        "source_revision": "source-showcase-1",
        "geometry_status": "authored_synthetic",
        "geometry_note": "Author-provided fictional geometry; not AI extraction or survey evidence.",
        "geometry_id": "P37-shape-v1",
        "geometry_revision": 1,
        "base_elevation_m": 0,
        "height_m": 0,
        "vertical_reference": "DEMO-BM-01 fictional zero datum; not national MSL",
        "parcel_2d_demo_id": "DEMO-2D-ANCHOR-P37"
      },
      "geometry": {
        "type": "Polygon",
        "coordinates": [
          [
            [
              29,
              -24
            ],
            [
              49,
              -24
            ],
            [
              49,
              0
            ],
            [
              29,
              0
            ],
            [
              29,
              -24
            ]
          ]
        ]
      }
    },
    {
      "type": "Feature",
      "id": "P38",
      "properties": {
        "landUse": "residential",
        "parcel_id": "P38",
        "name": "Plot 38",
        "classification": "synthetic",
        "source_revision": "source-showcase-1",
        "geometry_status": "authored_synthetic",
        "geometry_note": "Author-provided fictional geometry; not AI extraction or survey evidence.",
        "geometry_id": "P38-shape-v1",
        "geometry_revision": 1,
        "base_elevation_m": 0,
        "height_m": 0,
        "vertical_reference": "DEMO-BM-01 fictional zero datum; not national MSL",
        "parcel_2d_demo_id": "DEMO-2D-ANCHOR-P38"
      },
      "geometry": {
        "type": "Polygon",
        "coordinates": [
          [
            [
              51,
              -24
            ],
            [
              71,
              -24
            ],
            [
              71,
              0
            ],
            [
              51,
              0
            ],
            [
              51,
              -24
            ]
          ]
        ]
      }
    },
    {
      "type": "Feature",
      "id": "P39",
      "properties": {
        "landUse": "residential",
        "parcel_id": "P39",
        "name": "Plot 39",
        "classification": "synthetic",
        "source_revision": "source-showcase-1",
        "geometry_status": "authored_synthetic",
        "geometry_note": "Author-provided fictional geometry; not AI extraction or survey evidence.",
        "geometry_id": "P39-shape-v1",
        "geometry_revision": 1,
        "base_elevation_m": 0,
        "height_m": 0,
        "vertical_reference": "DEMO-BM-01 fictional zero datum; not national MSL",
        "parcel_2d_demo_id": "DEMO-2D-ANCHOR-P39"
      },
      "geometry": {
        "type": "Polygon",
        "coordinates": [
          [
            [
              73,
              -24
            ],
            [
              93,
              -24
            ],
            [
              93,
              0
            ],
            [
              73,
              0
            ],
            [
              73,
              -24
            ]
          ]
        ]
      }
    },
    {
      "type": "Feature",
      "id": "P40",
      "properties": {
        "landUse": "residential",
        "parcel_id": "P40",
        "name": "Plot 40",
        "classification": "synthetic",
        "source_revision": "source-showcase-1",
        "geometry_status": "authored_synthetic",
        "geometry_note": "Author-provided fictional geometry; not AI extraction or survey evidence.",
        "geometry_id": "P40-shape-v1",
        "geometry_revision": 1,
        "base_elevation_m": 0,
        "height_m": 0,
        "vertical_reference": "DEMO-BM-01 fictional zero datum; not national MSL",
        "parcel_2d_demo_id": "DEMO-2D-ANCHOR-P40"
      },
      "geometry": {
        "type": "Polygon",
        "coordinates": [
          [
            [
              106,
              -24
            ],
            [
              126,
              -24
            ],
            [
              126,
              0
            ],
            [
              106,
              0
            ],
            [
              106,
              -24
            ]
          ]
        ]
      }
    },
    {
      "type": "Feature",
      "id": "P41",
      "properties": {
        "landUse": "residential",
        "parcel_id": "P41",
        "name": "Plot 41",
        "classification": "synthetic",
        "source_revision": "source-showcase-1",
        "geometry_status": "authored_synthetic",
        "geometry_note": "Author-provided fictional geometry; not AI extraction or survey evidence.",
        "geometry_id": "P41-shape-v1",
        "geometry_revision": 1,
        "base_elevation_m": 0,
        "height_m": 0,
        "vertical_reference": "DEMO-BM-01 fictional zero datum; not national MSL",
        "parcel_2d_demo_id": "DEMO-2D-ANCHOR-P41"
      },
      "geometry": {
        "type": "Polygon",
        "coordinates": [
          [
            [
              133,
              -24
            ],
            [
              153,
              -24
            ],
            [
              153,
              0
            ],
            [
              133,
              0
            ],
            [
              133,
              -24
            ]
          ]
        ]
      }
    },
    {
      "type": "Feature",
      "id": "P42",
      "properties": {
        "landUse": "residential",
        "parcel_id": "P42",
        "name": "Plot 42",
        "classification": "synthetic",
        "source_revision": "source-showcase-1",
        "geometry_status": "authored_synthetic",
        "geometry_note": "Author-provided fictional geometry; not AI extraction or survey evidence.",
        "geometry_id": "P42-shape-v1",
        "geometry_revision": 1,
        "base_elevation_m": 0,
        "height_m": 0,
        "vertical_reference": "DEMO-BM-01 fictional zero datum; not national MSL",
        "parcel_2d_demo_id": "DEMO-2D-ANCHOR-P42"
      },
      "geometry": {
        "type": "Polygon",
        "coordinates": [
          [
            [
              7,
              177
            ],
            [
              27,
              177
            ],
            [
              27,
              201
            ],
            [
              7,
              201
            ],
            [
              7,
              177
            ]
          ]
        ]
      }
    },
    {
      "type": "Feature",
      "id": "P43",
      "properties": {
        "landUse": "residential",
        "parcel_id": "P43",
        "name": "Plot 43",
        "classification": "synthetic",
        "source_revision": "source-showcase-1",
        "geometry_status": "authored_synthetic",
        "geometry_note": "Author-provided fictional geometry; not AI extraction or survey evidence.",
        "geometry_id": "P43-shape-v1",
        "geometry_revision": 1,
        "base_elevation_m": 0,
        "height_m": 0,
        "vertical_reference": "DEMO-BM-01 fictional zero datum; not national MSL",
        "parcel_2d_demo_id": "DEMO-2D-ANCHOR-P43"
      },
      "geometry": {
        "type": "Polygon",
        "coordinates": [
          [
            [
              29,
              177
            ],
            [
              49,
              177
            ],
            [
              49,
              201
            ],
            [
              29,
              201
            ],
            [
              29,
              177
            ]
          ]
        ]
      }
    },
    {
      "type": "Feature",
      "id": "P44",
      "properties": {
        "landUse": "residential",
        "parcel_id": "P44",
        "name": "Plot 44",
        "classification": "synthetic",
        "source_revision": "source-showcase-1",
        "geometry_status": "authored_synthetic",
        "geometry_note": "Author-provided fictional geometry; not AI extraction or survey evidence.",
        "geometry_id": "P44-shape-v1",
        "geometry_revision": 1,
        "base_elevation_m": 0,
        "height_m": 0,
        "vertical_reference": "DEMO-BM-01 fictional zero datum; not national MSL",
        "parcel_2d_demo_id": "DEMO-2D-ANCHOR-P44"
      },
      "geometry": {
        "type": "Polygon",
        "coordinates": [
          [
            [
              51,
              177
            ],
            [
              71,
              177
            ],
            [
              71,
              201
            ],
            [
              51,
              201
            ],
            [
              51,
              177
            ]
          ]
        ]
      }
    },
    {
      "type": "Feature",
      "id": "P45",
      "properties": {
        "landUse": "residential",
        "parcel_id": "P45",
        "name": "Plot 45",
        "classification": "synthetic",
        "source_revision": "source-showcase-1",
        "geometry_status": "authored_synthetic",
        "geometry_note": "Author-provided fictional geometry; not AI extraction or survey evidence.",
        "geometry_id": "P45-shape-v1",
        "geometry_revision": 1,
        "base_elevation_m": 0,
        "height_m": 0,
        "vertical_reference": "DEMO-BM-01 fictional zero datum; not national MSL",
        "parcel_2d_demo_id": "DEMO-2D-ANCHOR-P45"
      },
      "geometry": {
        "type": "Polygon",
        "coordinates": [
          [
            [
              73,
              177
            ],
            [
              93,
              177
            ],
            [
              93,
              201
            ],
            [
              73,
              201
            ],
            [
              73,
              177
            ]
          ]
        ]
      }
    },
    {
      "type": "Feature",
      "id": "P46",
      "properties": {
        "landUse": "residential",
        "parcel_id": "P46",
        "name": "Plot 46",
        "classification": "synthetic",
        "source_revision": "source-showcase-1",
        "geometry_status": "authored_synthetic",
        "geometry_note": "Author-provided fictional geometry; not AI extraction or survey evidence.",
        "geometry_id": "P46-shape-v1",
        "geometry_revision": 1,
        "base_elevation_m": 0,
        "height_m": 0,
        "vertical_reference": "DEMO-BM-01 fictional zero datum; not national MSL",
        "parcel_2d_demo_id": "DEMO-2D-ANCHOR-P46"
      },
      "geometry": {
        "type": "Polygon",
        "coordinates": [
          [
            [
              106,
              177
            ],
            [
              126,
              177
            ],
            [
              126,
              201
            ],
            [
              106,
              201
            ],
            [
              106,
              177
            ]
          ]
        ]
      }
    },
    {
      "type": "Feature",
      "id": "P47",
      "properties": {
        "landUse": "residential",
        "parcel_id": "P47",
        "name": "Plot 47",
        "classification": "synthetic",
        "source_revision": "source-showcase-1",
        "geometry_status": "authored_synthetic",
        "geometry_note": "Author-provided fictional geometry; not AI extraction or survey evidence.",
        "geometry_id": "P47-shape-v1",
        "geometry_revision": 1,
        "base_elevation_m": 0,
        "height_m": 0,
        "vertical_reference": "DEMO-BM-01 fictional zero datum; not national MSL",
        "parcel_2d_demo_id": "DEMO-2D-ANCHOR-P47"
      },
      "geometry": {
        "type": "Polygon",
        "coordinates": [
          [
            [
              133,
              177
            ],
            [
              153,
              177
            ],
            [
              153,
              201
            ],
            [
              133,
              201
            ],
            [
              133,
              177
            ]
          ]
        ]
      }
    },
    {
      "type": "Feature",
      "id": "P48",
      "properties": {
        "landUse": "residential",
        "parcel_id": "P48",
        "name": "Plot 48",
        "classification": "synthetic",
        "source_revision": "source-showcase-1",
        "geometry_status": "authored_synthetic",
        "geometry_note": "Author-provided fictional geometry; not AI extraction or survey evidence.",
        "geometry_id": "P48-shape-v1",
        "geometry_revision": 1,
        "base_elevation_m": 0,
        "height_m": 0,
        "vertical_reference": "DEMO-BM-01 fictional zero datum; not national MSL",
        "parcel_2d_demo_id": "DEMO-2D-ANCHOR-P48"
      },
      "geometry": {
        "type": "Polygon",
        "coordinates": [
          [
            [
              -24,
              -24
            ],
            [
              -1,
              -24
            ],
            [
              -1,
              0
            ],
            [
              -24,
              0
            ],
            [
              -24,
              -24
            ]
          ]
        ]
      }
    },
    {
      "type": "Feature",
      "id": "P49",
      "properties": {
        "landUse": "residential",
        "parcel_id": "P49",
        "name": "Plot 49",
        "classification": "synthetic",
        "source_revision": "source-showcase-1",
        "geometry_status": "authored_synthetic",
        "geometry_note": "Author-provided fictional geometry; not AI extraction or survey evidence.",
        "geometry_id": "P49-shape-v1",
        "geometry_revision": 1,
        "base_elevation_m": 0,
        "height_m": 0,
        "vertical_reference": "DEMO-BM-01 fictional zero datum; not national MSL",
        "parcel_2d_demo_id": "DEMO-2D-ANCHOR-P49"
      },
      "geometry": {
        "type": "Polygon",
        "coordinates": [
          [
            [
              166,
              -24
            ],
            [
              189,
              -24
            ],
            [
              189,
              0
            ],
            [
              166,
              0
            ],
            [
              166,
              -24
            ]
          ]
        ]
      }
    }
  ]
}
