{
  "type": "FeatureCollection",
  "crs": {
    "type": "name",
    "properties": {
      "name": "LOCAL-LAKE-VIEW-DEMO-M"
    }
  },
  "features": [
    {
      "type": "Feature",
      "id": "UT01",
      "properties": {
        "use": "water",
        "diameterM": 0.28,
        "utility_id": "UT01",
        "name": "Water pipeline · demo",
        "classification": "synthetic",
        "source_revision": "source-showcase-1",
        "geometry_status": "authored_synthetic",
        "geometry_note": "Author-provided fictional geometry; not AI extraction or survey evidence.",
        "geometry_id": "UT01-shape-v1",
        "geometry_revision": 1,
        "base_elevation_m": null,
        "height_m": null,
        "vertical_reference": "DEMO-BM-01 fictional zero datum; not national MSL"
      },
      "geometry": {
        "type": "LineString",
        "coordinates": [
          [
            3,
            60,
            -1.8
          ],
          [
            98.5,
            60,
            -1.8
          ],
          [
            98.5,
            154,
            -1.8
          ]
        ]
      }
    }
  ]
}
