{ "type": "FeatureCollection", "features": [{"type":"Feature","geometry":{"type":"MultiPolygon","coordinates":[[[[-73.870589678167,40.900228785468],[-73.87058556457,40.900205730251],[-73.870578607448,40.900206444641],[-73.870559575066,40.900099775306],[-73.870555312399,40.900075881569],[-73.870654789195,40.900065663603],[-73.870655155474,40.900067717118],[-73.870662530401,40.90010904772],[-73.870678084436,40.900196226654],[-73.870672219372,40.900196829712],[-73.870676332998,40.900219884926],[-73.87059965151,40.900227761089],[-73.870589678167,40.900228785468]]]]},"properties":{"base_bbl":"2033800005","ground_elevation":"199","feature_code":"2100","height_roof":"25.68","bin":"2019269","last_edited_date":"2017-08-22T17:28:52.000Z","geom_source":"Photogrammetric","doitt_id":"7491"}},{"type":"Feature","geometry":{"type":"MultiPolygon","coordinates":[[[[-73.869755435358,40.899842895539],[-73.869815518457,40.899836129528],[-73.869841264136,40.899967759892],[-73.869781179735,40.899974525014],[-73.869755435358,40.899842895539]]]]},"properties":{"base_bbl":"2033790024","ground_elevation":"192","feature_code":"2100","height_roof":"26.76406216","bin":"2019235","last_edited_date":"2017-08-22T18:38:13.000Z","geom_source":"Photogrammetric","doitt_id":"92261"}},{"type":"Feature","geometry":{"type":"MultiPolygon","coordinates":[[[[-73.870354529592,40.900190168204],[-73.870368932089,40.900267597239],[-73.87037812114,40.900316999138],[-73.870297579808,40.900325623572],[-73.87028545231,40.900260425666],[-73.87027398841,40.900198792621],[-73.870354529592,40.900190168204]]]]},"properties":{"base_bbl":"2033800090","ground_elevation":"196","feature_code":"2100","height_roof":"24","bin":"2019301","last_edited_date":"2017-08-22T17:59:45.000Z","geom_source":"Other (Manual)","doitt_id":"111132"}},{"type":"Feature","geometry":{"type":"MultiPolygon","coordinates":[[[[-73.868968531283,40.899594503275],[-73.869041869426,40.89958706474],[-73.869041917544,40.899587338542],[-73.86906543159,40.899720805346],[-73.868992094489,40.899728243897],[-73.868977731456,40.89964671842],[-73.868968531283,40.899594503275]]]]},"properties":{"base_bbl":"2033790078","ground_elevation":"188","feature_code":"2100","height_roof":"34.01","bin":"2019258","last_edited_date":"2017-08-22T18:01:06.000Z","geom_source":"Photogrammetric","doitt_id":"117421"}},{"type":"Feature","geometry":{"type":"MultiPolygon","coordinates":[[[[-73.870690117185,40.899837553679],[-73.870928872866,40.899813037713],[-73.870930049204,40.899819635078],[-73.870960001079,40.899816559186],[-73.870968828368,40.899866049786],[-73.870936908403,40.89986932789],[-73.87093797205,40.899875287586],[-73.870701183031,40.899899601364],[-73.870690117185,40.899837553679]]]]},"properties":{"base_bbl":"2033790010","ground_elevation":"193","feature_code":"2100","height_roof":"39.08","bin":"2019228","last_edited_date":"2017-08-22T18:15:59.000Z","geom_source":"Photogrammetric","doitt_id":"133118"}},{"type":"Feature","geometry":{"type":"MultiPolygon","coordinates":[[[[-73.869646611106,40.900718159041],[-73.869643865558,40.900701469962],[-73.869583566546,40.900707181172],[-73.869565298998,40.900596137992],[-73.869682284741,40.900585059069],[-73.869703296858,40.900712790407],[-73.869646611106,40.900718159041]]]]},"properties":{"base_bbl":"2033800025","ground_elevation":"195","feature_code":"2100","height_roof":"33.06","bin":"2019273","last_edited_date":"2017-08-22T18:06:47.000Z","geom_source":"Photogrammetric","doitt_id":"134955"}},{"type":"Feature","geometry":{"type":"MultiPolygon","coordinates":[[[[-73.870040889985,40.899586438601],[-73.870038535549,40.899574845811],[-73.870034953054,40.899575265006],[-73.870028813655,40.899545037827],[-73.870015338354,40.899546613812],[-73.870002858593,40.899485165088],[-73.870005646951,40.899484839551],[-73.87000211238,40.899467432803],[-73.870103572285,40.899455568756],[-73.870108102503,40.899477874358],[-73.870118174543,40.899476696149],[-73.870129689352,40.899533394619],[-73.870103050951,40.899536510043],[-73.870111514267,40.899578180492],[-73.870040889985,40.899586438601]]]]},"properties":{"base_bbl":"2033790096","ground_elevation":"189","feature_code":"2100","height_roof":"28.49","bin":"2019264","last_edited_date":"2017-08-22T17:56:40.000Z","geom_source":"Photogrammetric","doitt_id":"219333"}},{"type":"Feature","geometry":{"type":"MultiPolygon","coordinates":[[[[-73.870094276734,40.900237459967],[-73.870092804258,40.90022818692],[-73.870068779484,40.90023038228],[-73.870059319811,40.900170802774],[-73.870174407154,40.900160282217],[-73.870185088528,40.900227556829],[-73.870196439337,40.900299050962],[-73.870101108123,40.900307764886],[-73.870092628491,40.900254360209],[-73.870096898114,40.9002539697],[-73.870094276734,40.900237459967]]]]},"properties":{"base_bbl":"2033800086","ground_elevation":"197","feature_code":"2100","height_roof":"28.2","bin":"2019300","last_edited_date":"2017-08-22T17:33:26.000Z","geom_source":"Photogrammetric","doitt_id":"224583"}},{"type":"Feature","geometry":{"type":"MultiPolygon","coordinates":[[[[-73.868923704876,40.900066148798],[-73.868892888275,40.899913669852],[-73.868909676716,40.899911716855],[-73.86890665853,40.89989678159],[-73.868944515903,40.899892376177],[-73.868947457707,40.899906931349],[-73.86895231274,40.899906365953],[-73.868982532639,40.899902850541],[-73.868988904022,40.899934373836],[-73.868997552866,40.899933367903],[-73.869006343055,40.899976862283],[-73.868999179205,40.899977696108],[-73.86901491202,40.900055536547],[-73.868996710953,40.900057654546],[-73.868923704876,40.900066148798]]]]},"properties":{"base_bbl":"2033790036","ground_elevation":"188","feature_code":"2100","height_roof":"37.97","bin":"2019239","last_edited_date":"2017-08-22T17:30:02.000Z","geom_source":"Photogrammetric","doitt_id":"232758"}},{"type":"Feature","geometry":{"type":"MultiPolygon","coordinates":[[[[-73.869742526147,40.900497255065],[-73.869840153601,40.900486984386],[-73.869870667709,40.900653974027],[-73.869874440442,40.900674621888],[-73.869776812717,40.900684892596],[-73.86976053361,40.900595807304],[-73.869742526147,40.900497255065]]]]},"properties":{"base_bbl":"2033800022","ground_elevation":"194","feature_code":"2100","height_roof":"43.1","bin":"2019272","last_edited_date":"2017-08-22T18:08:00.000Z","geom_source":"Photogrammetric","doitt_id":"241511"}},{"type":"Feature","geometry":{"type":"MultiPolygon","coordinates":[[[[-73.870243289046,40.899962149475],[-73.87023968477,40.899940280755],[-73.870232391857,40.899940973135],[-73.87022282701,40.899882932449],[-73.870227846818,40.899882456333],[-73.870221159051,40.899841876576],[-73.87022742995,40.899841281201],[-73.87022877689,40.899839483547],[-73.870243367131,40.899820020661],[-73.870317935355,40.899812945593],[-73.870322019372,40.899837719813],[-73.870332788981,40.899836698153],[-73.870348090559,40.899929540001],[-73.870339906213,40.899930316933],[-73.870343584415,40.899952633273],[-73.870248901173,40.899961616392],[-73.870243289046,40.899962149475]]]]},"properties":{"base_bbl":"2033790017","ground_elevation":"193","feature_code":"2100","height_roof":"38.9","bin":"2019231","last_edited_date":"2017-08-22T17:28:04.000Z","geom_source":"Photogrammetric","doitt_id":"243008"}},{"type":"Feature","geometry":{"type":"MultiPolygon","coordinates":[[[[-73.871196089267,40.89960864607],[-73.871384010361,40.899589349277],[-73.871394463974,40.899647957264],[-73.871396577243,40.899659803693],[-73.871208654767,40.899679100505],[-73.871204835689,40.89965768632],[-73.871196089267,40.89960864607]]]]},"properties":{"base_bbl":"2033730020","ground_elevation":"193","feature_code":"2100","height_roof":"30.94","bin":"2018993","last_edited_date":"2017-08-22T19:11:56.000Z","geom_source":"Photogrammetric","doitt_id":"245963"}},{"type":"Feature","geometry":{"type":"MultiPolygon","coordinates":[[[[-73.869896318773,40.899471807947],[-73.869946303624,40.899466698185],[-73.869946588863,40.899468305872],[-73.86996465774,40.899570055789],[-73.86985877301,40.89958088187],[-73.869840417871,40.899477523348],[-73.869896318773,40.899471807947]]]]},"properties":{"base_bbl":"2033790094","ground_elevation":"188","feature_code":"2100","height_roof":"30.43","bin":"2019263","last_edited_date":"2017-08-22T18:57:39.000Z","geom_source":"Photogrammetric","doitt_id":"302170"}},{"type":"Feature","geometry":{"type":"MultiPolygon","coordinates":[[[[-73.869386497308,40.900994133715],[-73.869369256046,40.90090087804],[-73.869500919276,40.900886864119],[-73.86950363783,40.900901571204],[-73.869532746492,40.900898473117],[-73.869547506181,40.900896902242],[-73.869542878727,40.900917532516],[-73.8695323092,40.900964656435],[-73.869483684315,40.90096983239],[-73.869486214982,40.900983520814],[-73.869386497308,40.900994133715]]]]},"properties":{"base_bbl":"2033810001","ground_elevation":"191","feature_code":"2100","height_roof":"31.3","bin":"2019304","last_edited_date":"2017-08-22T18:24:08.000Z","geom_source":"Photogrammetric","doitt_id":"305312"}},{"type":"Feature","geometry":{"type":"MultiPolygon","coordinates":[[[[-73.870800534625,40.899692335467],[-73.870798428501,40.899680530457],[-73.870753376725,40.899685156247],[-73.870744467442,40.89963520539],[-73.870904649539,40.899618758067],[-73.870915663898,40.899680513919],[-73.870800534625,40.899692335467]]]]},"properties":{"base_bbl":"2033790006","ground_elevation":"192","feature_code":"2100","height_roof":"30.36","bin":"2019226","last_edited_date":"2017-08-22T17:47:24.000Z","geom_source":"Photogrammetric","doitt_id":"319211"}},{"type":"Feature","geometry":{"type":"MultiPolygon","coordinates":[[[[-73.870176573319,40.899574402297],[-73.870163914104,40.899507535172],[-73.870163533071,40.899507576166],[-73.870157107715,40.899508277621],[-73.870153913849,40.899491405248],[-73.870156003007,40.899491177974],[-73.870149050263,40.899454453789],[-73.870153458861,40.899453973386],[-73.870253180536,40.899443103189],[-73.870275987731,40.899563565953],[-73.870176573319,40.899574402297]]]]},"properties":{"base_bbl":"2033790098","ground_elevation":"190","feature_code":"2100","height_roof":"20.48","bin":"2019265","last_edited_date":"2017-08-22T19:04:13.000Z","geom_source":"Photogrammetric","doitt_id":"320307"}},{"type":"Feature","geometry":{"type":"MultiPolygon","coordinates":[[[[-73.870042388336,40.900560309046],[-73.870019290842,40.900440257453],[-73.870106165805,40.900430635398],[-73.870113926896,40.900470969631],[-73.870118187196,40.900470498068],[-73.870132756586,40.900546222699],[-73.870100518809,40.900549792872],[-73.87010128598,40.900553784683],[-73.870042388336,40.900560309046]]]]},"properties":{"base_bbl":"2033800013","ground_elevation":"196","feature_code":"2100","height_roof":"39.18","bin":"2019270","last_edited_date":"2017-08-22T18:27:13.000Z","geom_source":"Photogrammetric","doitt_id":"322914"}},{"type":"Feature","geometry":{"type":"MultiPolygon","coordinates":[[[[-73.870779787714,40.900060910345],[-73.870899888853,40.900048578399],[-73.870910869226,40.900110146907],[-73.870852872742,40.900116101784],[-73.870800636842,40.900121466058],[-73.870806099401,40.900152094051],[-73.870750070947,40.900157846669],[-73.87074863228,40.900157994539],[-73.870737276371,40.900094322063],[-73.870732189527,40.900065798018],[-73.870779787714,40.900060910345]]]]},"properties":{"base_bbl":"2033800001","ground_elevation":"197","feature_code":"2100","height_roof":"20.2","bin":"2019268","last_edited_date":"2017-08-22T19:34:39.000Z","geom_source":"Photogrammetric","doitt_id":"324539"}},{"type":"Feature","geometry":{"type":"MultiPolygon","coordinates":[[[[-73.869234730649,40.900329536673],[-73.869232710517,40.900319395828],[-73.869222990934,40.900320510424],[-73.869208123807,40.900245866819],[-73.869207598506,40.900243228704],[-73.869209044334,40.900243062852],[-73.869293137381,40.900233419347],[-73.86929362979,40.900235887233],[-73.869297130654,40.900253463253],[-73.869304007239,40.90025267501],[-73.869320269424,40.900334319649],[-73.869295384059,40.900337173029],[-73.869302077902,40.90037077949],[-73.869280052133,40.900373305626],[-73.869219196664,40.900380283898],[-73.869209661289,40.900332411438],[-73.869234730649,40.900329536673]]]]},"properties":{"base_bbl":"2033800073","ground_elevation":"192","feature_code":"2100","height_roof":"32.71","bin":"2019294","last_edited_date":"2017-08-22T19:39:39.000Z","geom_source":"Photogrammetric","doitt_id":"331192"}},{"type":"Feature","geometry":{"type":"MultiPolygon","coordinates":[[[[-73.869456813128,40.899678411602],[-73.869454043235,40.89966449598],[-73.869438167764,40.899666315017],[-73.869425237306,40.899601361035],[-73.869469613562,40.899596274852],[-73.869457129643,40.899533569888],[-73.86945656556,40.899530735425],[-73.86952884189,40.899522451625],[-73.869531972577,40.899538177627],[-73.869538122618,40.899537473194],[-73.869539329532,40.899543535721],[-73.869539506985,40.899544426501],[-73.869540654852,40.899544294526],[-73.869620819049,40.89953510649],[-73.869632234861,40.899592451445],[-73.869609792716,40.899595023099],[-73.869612973957,40.899611003993],[-73.869611731128,40.899611146667],[-73.869554105145,40.89961775146],[-73.869560970584,40.899652239678],[-73.86953022626,40.899655763654],[-73.869532996167,40.899669680173],[-73.869456813128,40.899678411602]]]]},"properties":{"base_bbl":"2033790086","ground_elevation":"191","feature_code":"2100","height_roof":"32.23","bin":"2019261","last_edited_date":"2017-08-22T18:38:15.000Z","geom_source":"Photogrammetric","doitt_id":"340708"}},{"type":"Feature","geometry":{"type":"MultiPolygon","coordinates":[[[[-73.869005749436,40.900645995535],[-73.869016557385,40.900644866883],[-73.869018284395,40.900654386064],[-73.869034711512,40.900744952926],[-73.868956234163,40.900753148334],[-73.868938080152,40.900653062279],[-73.869005749436,40.900645995535]]]]},"properties":{"base_bbl":"2033800036","ground_elevation":"187","feature_code":"2100","height_roof":"30.17","bin":"2019279","last_edited_date":"2017-08-22T18:38:26.000Z","geom_source":"Photogrammetric","doitt_id":"340983"}},{"type":"Feature","geometry":{"type":"MultiPolygon","coordinates":[[[[-73.869474681788,40.900712126049],[-73.869464743207,40.900657333834],[-73.869450855037,40.90058077424],[-73.869524201768,40.900573114789],[-73.869548027474,40.900704466582],[-73.869522443318,40.900707138224],[-73.869522305237,40.900707348781],[-73.869516627326,40.900715965404],[-73.869490365366,40.900718708312],[-73.869481088215,40.900711457028],[-73.869474681788,40.900712126049]]]]},"properties":{"base_bbl":"2033800028","ground_elevation":"194","feature_code":"2100","height_roof":"26.27","bin":"2019274","last_edited_date":"2017-08-22T17:43:11.000Z","geom_source":"Photogrammetric","doitt_id":"341946"}},{"type":"Feature","geometry":{"type":"MultiPolygon","coordinates":[[[[-73.869957915648,40.900305259723],[-73.869953578094,40.900283350548],[-73.869946517529,40.900284155732],[-73.869936282361,40.900270382996],[-73.869932735696,40.900252472864],[-73.869937813044,40.900240195073],[-73.869944873605,40.900239389889],[-73.869941725318,40.900223493689],[-73.869936990244,40.900223397406],[-73.869932338203,40.900222715901],[-73.869927896147,40.900221466427],[-73.869923782686,40.900219684235],[-73.869920108102,40.900217414476],[-73.869916971961,40.900214720294],[-73.869914457196,40.900211674723],[-73.86991263367,40.900208357084],[-73.869911863559,40.900205875381],[-73.869911547493,40.900204857477],[-73.86991123052,40.90020127139],[-73.869911689687,40.900197693382],[-73.869912912936,40.90019422069],[-73.869914866852,40.900190946929],[-73.869917500237,40.900187958486],[-73.869920741721,40.900185337225],[-73.869924504535,40.900183152387],[-73.869928686498,40.900181464187],[-73.869933175966,40.900180316625],[-73.870020952121,40.900170310242],[-73.870024917164,40.900190335181],[-73.870030597182,40.900189687824],[-73.870040713107,40.900240778302],[-73.87005137199,40.900294605963],[-73.869957915648,40.900305259723]]]]},"properties":{"base_bbl":"2033800084","ground_elevation":"197","feature_code":"2100","height_roof":"33.49","bin":"2019299","last_edited_date":"2017-08-22T18:57:18.000Z","geom_source":"Photogrammetric","doitt_id":"353927"}},{"type":"Feature","geometry":{"type":"MultiPolygon","coordinates":[[[[-73.869925017561,40.900520762657],[-73.869977051144,40.900515883013],[-73.869983835237,40.900557534463],[-73.869995555281,40.90062948017],[-73.869976157202,40.900631298915],[-73.869979171059,40.900649800964],[-73.869908936974,40.900656387231],[-73.86988741915,40.90052428891],[-73.869925017561,40.900520762657]]]]},"properties":{"base_bbl":"2033800015","ground_elevation":"195","feature_code":"2100","height_roof":"38.66","bin":"2019271","last_edited_date":"2017-08-22T18:04:25.000Z","geom_source":"Photogrammetric","doitt_id":"381994"}},{"type":"Feature","geometry":{"type":"MultiPolygon","coordinates":[[[[-73.869775092506,40.900178781388],[-73.869859247298,40.900169643613],[-73.869871729651,40.900235827996],[-73.86988946482,40.900329857679],[-73.869783238059,40.900341391987],[-73.869764546936,40.900242289679],[-73.869759469233,40.900215363963],[-73.869781539776,40.900212967456],[-73.869775092506,40.900178781388]]]]},"properties":{"base_bbl":"2033800081","ground_elevation":"195","feature_code":"2100","height_roof":"21.28","bin":"2019298","last_edited_date":"2017-08-22T17:44:04.000Z","geom_source":"Photogrammetric","doitt_id":"400881"}},{"type":"Feature","geometry":{"type":"MultiPolygon","coordinates":[[[[-73.869209591686,40.900624709562],[-73.869232500248,40.900622317711],[-73.869236556613,40.900644679537],[-73.869250654695,40.90072240372],[-73.869172424303,40.90073057254],[-73.869154269973,40.900630486519],[-73.869209591686,40.900624709562]]]]},"properties":{"base_bbl":"2033800032","ground_elevation":"190","feature_code":"2100","height_roof":"29.04","bin":"2019277","last_edited_date":"2017-08-22T17:35:33.000Z","geom_source":"Photogrammetric","doitt_id":"424054"}},{"type":"Feature","geometry":{"type":"MultiPolygon","coordinates":[[[[-73.869489376172,40.900230651743],[-73.8694864716,40.900212177719],[-73.869537259481,40.900207582318],[-73.869586834249,40.900203096284],[-73.869589679053,40.900221198339],[-73.869600499684,40.900220219127],[-73.869609733907,40.90027896817],[-73.8696046144,40.90027943154],[-73.869609743734,40.900312071797],[-73.869604145865,40.900312578751],[-73.869591688353,40.900313705594],[-73.869592260362,40.900317345999],[-73.86949811977,40.900325864465],[-73.869494367746,40.900301991978],[-73.869483458632,40.900232587399],[-73.869489593016,40.900232032432],[-73.869489376172,40.900230651743]]]]},"properties":{"base_bbl":"2033800077","ground_elevation":"194","feature_code":"2100","height_roof":"28.26","bin":"2019296","last_edited_date":"2017-08-22T17:32:45.000Z","geom_source":"Photogrammetric","doitt_id":"426618"}},{"type":"Feature","geometry":{"type":"MultiPolygon","coordinates":[[[[-73.869278391604,40.900633494268],[-73.869371939348,40.900623725438],[-73.869387250394,40.900708138876],[-73.869316361848,40.900715541683],[-73.869293702533,40.900717907719],[-73.869286789663,40.900679792286],[-73.869278391604,40.900633494268]]]]},"properties":{"base_bbl":"2033800030","ground_elevation":"191","feature_code":"2100","height_roof":"33.61","bin":"2019276","last_edited_date":"2017-08-22T18:09:01.000Z","geom_source":"Photogrammetric","doitt_id":"431881"}},{"type":"Feature","geometry":{"type":"MultiPolygon","coordinates":[[[[-73.870354529592,40.900190168204],[-73.870434711083,40.900181582047],[-73.870449498887,40.900261088922],[-73.870458301595,40.900308412963],[-73.87037812114,40.900316999138],[-73.870368932089,40.900267597239],[-73.870354529592,40.900190168204]]]]},"properties":{"base_bbl":"2033800091","ground_elevation":"198","feature_code":"2100","height_roof":"22","bin":"2116601","last_edited_date":"2017-08-22T17:39:32.000Z","geom_source":"Other (Manual)","doitt_id":"454507"}},{"type":"Feature","geometry":{"type":"MultiPolygon","coordinates":[[[[-73.868814939787,40.89970851482],[-73.868824371904,40.899707493582],[-73.868832224088,40.899706643441],[-73.868831023801,40.899700261242],[-73.868810928946,40.899593440017],[-73.868807417351,40.899574769878],[-73.868810672172,40.899574417885],[-73.868895942089,40.899565183026],[-73.868899188287,40.8995824391],[-73.86890395188,40.89960776524],[-73.868908303255,40.899630892829],[-73.868912741534,40.899654486967],[-73.868919748361,40.89969173537],[-73.868930642674,40.899749645305],[-73.868929387987,40.899749780755],[-73.868925974095,40.89975015058],[-73.868923279541,40.89975044288],[-73.868909755735,40.899751907021],[-73.868824833379,40.899761104465],[-73.868816382013,40.899716181385],[-73.868814939787,40.89970851482]]]]},"properties":{"base_bbl":"2033790076","ground_elevation":"178","feature_code":"2100","height_roof":"27.56","bin":"2019257","last_edited_date":"2017-08-22T17:44:26.000Z","geom_source":"Photogrammetric","doitt_id":"471664"}},{"type":"Feature","geometry":{"type":"MultiPolygon","coordinates":[[[[-73.869175547203,40.90104749891],[-73.86930681378,40.901032579773],[-73.869321925508,40.901109119152],[-73.869258838998,40.901116289424],[-73.869261963559,40.901132118977],[-73.869193783327,40.90113986786],[-73.869175547203,40.90104749891]]]]},"properties":{"base_bbl":"2033810006","ground_elevation":"187","feature_code":"2100","height_roof":"33.54","bin":"2019305","last_edited_date":"2017-08-22T19:36:56.000Z","geom_source":"Photogrammetric","doitt_id":"488837"}},{"type":"Feature","geometry":{"type":"MultiPolygon","coordinates":[[[[-73.87050407233,40.899917936727],[-73.87050064354,40.8998997611],[-73.870495944097,40.899900270906],[-73.870478329157,40.899806890693],[-73.870501828719,40.899804338067],[-73.870497120749,40.899779381255],[-73.870584709004,40.899769868599],[-73.870589602598,40.899795810745],[-73.870611459358,40.899804384445],[-73.870616194387,40.899829485359],[-73.870601479163,40.899844927488],[-73.870585037654,40.899846712729],[-73.870593199135,40.899889980262],[-73.870586714403,40.899890684376],[-73.8705900927,40.899908595201],[-73.87050407233,40.899917936727]]]]},"properties":{"base_bbl":"2033790013","ground_elevation":"193","feature_code":"2100","height_roof":"38.32","bin":"2019229","last_edited_date":"2017-08-22T17:58:11.000Z","geom_source":"Photogrammetric","doitt_id":"498774"}},{"type":"Feature","geometry":{"type":"MultiPolygon","coordinates":[[[[-73.871147049298,40.899402438873],[-73.871320114472,40.899384668132],[-73.871326786462,40.8994220727],[-73.871330289748,40.899441717978],[-73.871157224428,40.899459488734],[-73.871157102331,40.899458804229],[-73.871147049298,40.899402438873]]]]},"properties":{"base_bbl":"2033730023","ground_elevation":"189","feature_code":"2100","height_roof":"29.87","bin":"2018996","last_edited_date":"2017-08-22T18:27:39.000Z","geom_source":"Photogrammetric","doitt_id":"500865"}},{"type":"Feature","geometry":{"type":"MultiPolygon","coordinates":[[[[-73.86921208047,40.899569799994],[-73.869279752971,40.899562935701],[-73.869303315605,40.899696676259],[-73.869214876226,40.899705646688],[-73.869208661667,40.899670374864],[-73.869222371628,40.899668984739],[-73.869207795896,40.899586251499],[-73.869214852661,40.899585535503],[-73.86921208047,40.899569799994]]]]},"properties":{"base_bbl":"2033790083","ground_elevation":"192","feature_code":"2100","height_roof":"31.41","bin":"2019259","last_edited_date":"2017-08-22T17:26:54.000Z","geom_source":"Photogrammetric","doitt_id":"511565"}},{"type":"Feature","geometry":{"type":"MultiPolygon","coordinates":[[[[-73.871205618028,40.899526487469],[-73.87132832004,40.899513887834],[-73.871336723719,40.899561012362],[-73.871336802384,40.899561450986],[-73.87118878142,40.899576650898],[-73.871185498879,40.89955824493],[-73.871183358652,40.899546245384],[-73.871208678693,40.899543645118],[-73.871205618028,40.899526487469]]]]},"properties":{"base_bbl":"2033730021","ground_elevation":"190","feature_code":"2100","height_roof":"29.51","bin":"2018994","last_edited_date":"2017-08-22T17:47:34.000Z","geom_source":"Photogrammetric","doitt_id":"523013"}},{"type":"Feature","geometry":{"type":"MultiPolygon","coordinates":[[[[-73.869374182708,40.90038261332],[-73.86936449862,40.900330642598],[-73.86935646358,40.900331505175],[-73.869348380206,40.900288128688],[-73.869361735527,40.900286695822],[-73.869355297479,40.900252150448],[-73.869351503016,40.900231783495],[-73.869443228616,40.900221942307],[-73.869445706606,40.900235240765],[-73.869453294122,40.900234426302],[-73.869463179097,40.900287470622],[-73.869478816334,40.900371388255],[-73.869374182708,40.90038261332]]]]},"properties":{"base_bbl":"2033800075","ground_elevation":"193","feature_code":"2100","height_roof":"31.01","bin":"2019295","last_edited_date":"2017-08-22T19:33:59.000Z","geom_source":"Photogrammetric","doitt_id":"584692"}},{"type":"Feature","geometry":{"type":"MultiPolygon","coordinates":[[[[-73.868831123553,40.900664231086],[-73.868909048841,40.900656093668],[-73.868914847354,40.90068806025],[-73.868927202809,40.900756179727],[-73.868849276219,40.900764317156],[-73.868835260792,40.900687039658],[-73.868831123553,40.900664231086]]]]},"properties":{"base_bbl":"2033800037","ground_elevation":"188","feature_code":"2100","height_roof":"27.81","bin":"2019280","last_edited_date":"2017-08-22T19:11:03.000Z","geom_source":"Photogrammetric","doitt_id":"608958"}},{"type":"Feature","geometry":{"type":"MultiPolygon","coordinates":[[[[-73.871256564349,40.899825763656],[-73.87125357998,40.899809029323],[-73.871247959481,40.899809606569],[-73.8712114114,40.899813359546],[-73.871199369478,40.899745843978],[-73.871241536829,40.899741513758],[-73.871238726231,40.89972574944],[-73.871343580731,40.899714982179],[-73.871399833105,40.89970920611],[-73.871417671461,40.899809220302],[-73.871256564349,40.899825763656]]]]},"properties":{"base_bbl":"2033730017","ground_elevation":"195","feature_code":"2100","height_roof":"36.29","bin":"2018992","last_edited_date":"2017-08-22T17:55:07.000Z","geom_source":"Photogrammetric","doitt_id":"612203"}},{"type":"Feature","geometry":{"type":"MultiPolygon","coordinates":[[[[-73.868956795365,40.901099345652],[-73.868952795367,40.901076720041],[-73.868930964585,40.901078941968],[-73.868926804973,40.901055412988],[-73.868943726168,40.901053690661],[-73.868939683927,40.901030823671],[-73.868921276569,40.901032697393],[-73.86891126369,40.90097606896],[-73.869003917648,40.900966637996],[-73.869026133725,40.901092287094],[-73.868956795365,40.901099345652]]]]},"properties":{"base_bbl":"2033810041","ground_elevation":"185","feature_code":"2100","height_roof":"32.72","bin":"2019320","last_edited_date":"2017-08-22T18:46:13.000Z","geom_source":"Photogrammetric","doitt_id":"645690"}},{"type":"Feature","geometry":{"type":"MultiPolygon","coordinates":[[[[-73.869047298015,40.90064165731],[-73.869123796436,40.900633668509],[-73.869141950721,40.900733754535],[-73.869132009297,40.900734792331],[-73.869065452187,40.900741743347],[-73.869054001777,40.900678614497],[-73.869047298015,40.90064165731]]]]},"properties":{"base_bbl":"2033800034","ground_elevation":"189","feature_code":"2100","height_roof":"28.89","bin":"2019278","last_edited_date":"2017-08-22T19:34:26.000Z","geom_source":"Photogrammetric","doitt_id":"660984"}},{"type":"Feature","geometry":{"type":"MultiPolygon","coordinates":[[[[-73.87047995424,40.899556380368],[-73.870472988062,40.89951731943],[-73.870427335749,40.899522006552],[-73.870415792436,40.899457276657],[-73.870412351629,40.899437984412],[-73.870497229686,40.899429269311],[-73.870491024227,40.899394473021],[-73.870517657064,40.899391738406],[-73.870582733431,40.899385056839],[-73.870585577921,40.89940100311],[-73.870588938937,40.899419853123],[-73.87066082755,40.899412471367],[-73.870713411883,40.899407071527],[-73.870707206312,40.899372275249],[-73.870830579978,40.899359607558],[-73.870836785611,40.899394403829],[-73.870908697909,40.899387019243],[-73.870917013243,40.899433641234],[-73.870922971216,40.899467049576],[-73.870880625966,40.899471398391],[-73.870881201219,40.89947462277],[-73.87089067174,40.899527724141],[-73.870892347019,40.899537115369],[-73.870746296443,40.899552111607],[-73.870746237747,40.899551781064],[-73.870743835792,40.899538319729],[-73.870685241539,40.899544335987],[-73.870683504074,40.899534593497],[-73.870655648568,40.899537453749],[-73.870658583473,40.899553908893],[-73.870569594668,40.899563046334],[-73.870569858798,40.89956453243],[-73.870570549085,40.899568401686],[-73.87053656741,40.899571890783],[-73.870542416027,40.899604686692],[-73.870489538334,40.89961011584],[-73.87047995424,40.899556380368]]]]},"properties":{"base_bbl":"2033790001","ground_elevation":"188","feature_code":"2100","height_roof":"59.55","bin":"2019225","last_edited_date":"2017-08-22T19:04:48.000Z","geom_source":"Photogrammetric","doitt_id":"666682"}},{"type":"Feature","geometry":{"type":"MultiPolygon","coordinates":[[[[-73.87132832004,40.899513887834],[-73.871205618028,40.899526487469],[-73.871202632515,40.899509745028],[-73.871175711216,40.899512509195],[-73.871169338683,40.899476778953],[-73.871188187142,40.899474844132],[-73.871188836376,40.899478481914],[-73.87131960875,40.899465053842],[-73.87132832004,40.899513887834]]]]},"properties":{"base_bbl":"2033730022","ground_elevation":"190","feature_code":"2100","height_roof":"29.69","bin":"2018995","last_edited_date":"2017-08-22T19:27:21.000Z","geom_source":"Photogrammetric","doitt_id":"666782"}},{"type":"Feature","geometry":{"type":"MultiPolygon","coordinates":[[[[-73.869450855037,40.90058077424],[-73.869464743207,40.900657333834],[-73.869474681788,40.900712126049],[-73.869449460859,40.900714759365],[-73.86944493279,40.900723452025],[-73.869415998808,40.900726473745],[-73.869405050319,40.90071939706],[-73.869388409024,40.900627651274],[-73.869413644167,40.900625016187],[-73.869412020428,40.900616062633],[-73.869406460018,40.900585410152],[-73.869450855037,40.90058077424]]]]},"properties":{"base_bbl":"2033800029","ground_elevation":"193","feature_code":"2100","height_roof":"27.27","bin":"2019275","last_edited_date":"2017-08-22T17:57:25.000Z","geom_source":"Photogrammetric","doitt_id":"670377"}},{"type":"Feature","geometry":{"type":"MultiPolygon","coordinates":[[[[-73.870380956265,40.899870365535],[-73.870372695072,40.899826573793],[-73.870352481189,40.899828768989],[-73.870342965523,40.899778323955],[-73.870443569534,40.899767398755],[-73.870450973265,40.899806652888],[-73.870473687014,40.899804186732],[-73.870491812912,40.899900277978],[-73.870483129802,40.89990122095],[-73.87048497164,40.899910986071],[-73.870473983321,40.899912178592],[-73.870475651309,40.899921023223],[-73.870392219816,40.899930083917],[-73.870390508377,40.899921008712],[-73.870380956265,40.899870365535]]]]},"properties":{"base_bbl":"2033790015","ground_elevation":"193","feature_code":"2100","height_roof":"34.94","bin":"2019230","last_edited_date":"2017-08-22T19:12:29.000Z","geom_source":"Photogrammetric","doitt_id":"673301"}},{"type":"Feature","geometry":{"type":"MultiPolygon","coordinates":[[[[-73.86992977656,40.899878539671],[-73.87004559238,40.899866661232],[-73.870062015166,40.899958846126],[-73.869946199188,40.899970724581],[-73.86992977656,40.899878539671]]]]},"properties":{"base_bbl":"2033790021","ground_elevation":"193","feature_code":"2100","height_roof":"28.8","bin":"2019233","last_edited_date":"2017-08-22T17:45:43.000Z","geom_source":"Photogrammetric","doitt_id":"682087"}},{"type":"Feature","geometry":{"type":"MultiPolygon","coordinates":[[[[-73.86895088499,40.900304265997],[-73.86894801992,40.900288102197],[-73.868946536267,40.900279763376],[-73.868949280664,40.900279482839],[-73.869022335978,40.90027201698],[-73.869026685917,40.900296518699],[-73.869030793016,40.90029609923],[-73.86904212563,40.900359940237],[-73.86905050509,40.900407144141],[-73.869022126882,40.900410044828],[-73.868967744512,40.900415602143],[-73.868948032574,40.900304557218],[-73.86895088499,40.900304265997]]]]},"properties":{"base_bbl":"2033800069","ground_elevation":"187","feature_code":"2100","height_roof":"33.27","bin":"2019292","last_edited_date":"2017-08-22T19:17:31.000Z","geom_source":"Photogrammetric","doitt_id":"704660"}},{"type":"Feature","geometry":{"type":"MultiPolygon","coordinates":[[[[-73.870529378703,40.90013263525],[-73.870531672069,40.900132375781],[-73.870536076527,40.900154758664],[-73.870539533813,40.900172330095],[-73.870553701435,40.900244328021],[-73.87054233192,40.900245615573],[-73.870478515189,40.900252845125],[-73.870456487133,40.900140892871],[-73.870529378703,40.90013263525]]]]},"properties":{"base_bbl":"2033800092","ground_elevation":"196","feature_code":"2100","height_roof":"27.02","bin":"2019302","last_edited_date":"2017-08-22T19:34:39.000Z","geom_source":"Photogrammetric","doitt_id":"750607"}},{"type":"Feature","geometry":{"type":"MultiPolygon","coordinates":[[[[-73.869777913742,40.899641354594],[-73.869775720419,40.899629325246],[-73.869768062978,40.899630128846],[-73.869760860727,40.899590623659],[-73.869748061138,40.89959196715],[-73.86974216691,40.899559633998],[-73.86975496649,40.899558291408],[-73.869746698136,40.899512933667],[-73.86975306528,40.899512265487],[-73.869749144797,40.899490760189],[-73.869816887663,40.899483649829],[-73.869820808167,40.899505155125],[-73.869825851789,40.899504625924],[-73.869847217956,40.899621820189],[-73.869840529122,40.89962252223],[-73.869844693864,40.899645368621],[-73.869845612058,40.899650405167],[-73.86978080333,40.899657207286],[-73.869777913742,40.899641354594]]]]},"properties":{"base_bbl":"2033790090","ground_elevation":"189","feature_code":"2100","height_roof":"31.08","bin":"2019262","last_edited_date":"2017-08-22T18:53:06.000Z","geom_source":"Photogrammetric","doitt_id":"756073"}},{"type":"Feature","geometry":{"type":"MultiPolygon","coordinates":[[[[-73.869152854945,40.900936925212],[-73.869293728953,40.900925957499],[-73.86930077224,40.90097803599],[-73.869140932585,40.900990479722],[-73.869138079524,40.900969383539],[-73.869157045058,40.900967906628],[-73.869152854945,40.900936925212]]]]},"properties":{"base_bbl":"2033810044","ground_elevation":"187","feature_code":"2100","height_roof":"34.78","bin":"2019321","last_edited_date":"2017-08-22T17:58:10.000Z","geom_source":"Photogrammetric","doitt_id":"766802"}},{"type":"Feature","geometry":{"type":"MultiPolygon","coordinates":[[[[-73.870077529194,40.899965892769],[-73.87007465631,40.899949950957],[-73.870065718061,40.899950878302],[-73.870042708155,40.899823142062],[-73.870116870545,40.899815450736],[-73.870119375944,40.899829359739],[-73.870157327224,40.899825423187],[-73.870162736047,40.899855448728],[-73.870154114747,40.899856342218],[-73.870164703462,40.899915121559],[-73.870173029204,40.899914258352],[-73.870180409274,40.899955223396],[-73.870077529194,40.899965892769]]]]},"properties":{"base_bbl":"2033790019","ground_elevation":"194","feature_code":"2100","height_roof":"35.17","bin":"2019232","last_edited_date":"2017-08-22T18:12:26.000Z","geom_source":"Photogrammetric","doitt_id":"768753"}},{"type":"Feature","geometry":{"type":"MultiPolygon","coordinates":[[[[-73.869458629269,40.899949533394],[-73.869455876827,40.899934582236],[-73.869506497484,40.899929218546],[-73.869509248749,40.899944170602],[-73.869554547979,40.899939370883],[-73.869581873279,40.89993647608],[-73.869594323956,40.900004125549],[-73.869566998626,40.900007021256],[-73.869445250134,40.900019920859],[-73.869432800795,40.899952270475],[-73.869458629269,40.899949533394]]]]},"properties":{"base_bbl":"2033790027","ground_elevation":"193","feature_code":"2100","height_roof":"32.48","bin":"2019237","last_edited_date":"2017-08-22T17:58:46.000Z","geom_source":"Photogrammetric","doitt_id":"774451"}},{"type":"Feature","geometry":{"type":"MultiPolygon","coordinates":[[[[-73.870342044639,40.899436386355],[-73.870403449663,40.899430078969],[-73.870408091424,40.899456093781],[-73.870425886032,40.899555833436],[-73.870426233515,40.899557783375],[-73.870357738373,40.899564818508],[-73.870358247856,40.899567677219],[-73.870312902931,40.899572334925],[-73.870289609813,40.899441771785],[-73.870312859711,40.899439383705],[-73.870342044639,40.899436386355]]]]},"properties":{"base_bbl":"2033790100","ground_elevation":"191","feature_code":"2100","height_roof":"32.32","bin":"2019266","last_edited_date":"2017-08-22T17:30:03.000Z","geom_source":"Photogrammetric","doitt_id":"787168"}},{"type":"Feature","geometry":{"type":"MultiPolygon","coordinates":[[[[-73.869096689614,40.900262744374],[-73.86916480698,40.900255129649],[-73.869177967928,40.900322905132],[-73.869187905028,40.900374082829],[-73.869147420803,40.900378608711],[-73.869087321812,40.90038532663],[-73.869070696266,40.900299707708],[-73.869064223939,40.900266373431],[-73.869096689614,40.900262744374]]]]},"properties":{"base_bbl":"2033800071","ground_elevation":"189","feature_code":"2100","height_roof":"34.21","bin":"2019293","last_edited_date":"2017-08-22T17:37:31.000Z","geom_source":"Photogrammetric","doitt_id":"788505"}},{"type":"Feature","geometry":{"type":"MultiPolygon","coordinates":[[[[-73.870769166394,40.899742100765],[-73.870943500281,40.899724200538],[-73.870953053063,40.899777764843],[-73.870778720223,40.899795665986],[-73.870769166394,40.899742100765]]]]},"properties":{"base_bbl":"2033790008","ground_elevation":"193","feature_code":"2100","height_roof":"36.06","bin":"2019227","last_edited_date":"2017-08-22T18:10:03.000Z","geom_source":"Photogrammetric","doitt_id":"803045"}},{"type":"Feature","geometry":{"type":"MultiPolygon","coordinates":[[[[-73.869651898753,40.900348761019],[-73.869648247039,40.900330595022],[-73.869642326012,40.900331280809],[-73.869621942533,40.900229868625],[-73.869718523459,40.900218692781],[-73.869738907084,40.900320104047],[-73.869732000806,40.900320903089],[-73.869735652543,40.900339069084],[-73.869651898753,40.900348761019]]]]},"properties":{"base_bbl":"2033800079","ground_elevation":"195","feature_code":"2100","height_roof":"33.8","bin":"2019297","last_edited_date":"2017-08-22T19:04:48.000Z","geom_source":"Photogrammetric","doitt_id":"812313"}},{"type":"Feature","geometry":{"type":"MultiPolygon","coordinates":[[[[-73.869302193396,40.899882323421],[-73.869372937544,40.89987547966],[-73.869399210559,40.900031832626],[-73.869337176492,40.900037833502],[-73.869328465061,40.900038676401],[-73.869328208161,40.900037147988],[-73.869302193396,40.899882323421]]]]},"properties":{"base_bbl":"2033790028","ground_elevation":"190","feature_code":"2100","height_roof":"25.3","bin":"2103633","last_edited_date":"2017-08-22T18:34:19.000Z","geom_source":"Photogrammetric","doitt_id":"925754"}},{"type":"Feature","geometry":{"type":"MultiPolygon","coordinates":[[[[-73.869125026124,40.899899462451],[-73.869192682915,40.899892916963],[-73.869197545156,40.899921855046],[-73.869203657868,40.899958232548],[-73.869218954326,40.900049269969],[-73.869151297378,40.900055815471],[-73.869125026124,40.899899462451]]]]},"properties":{"base_bbl":"2033790031","ground_elevation":"189","feature_code":"2100","height_roof":"25.07","bin":"2103635","last_edited_date":"2017-08-22T18:02:55.000Z","geom_source":"Photogrammetric","doitt_id":"929610"}},{"type":"Feature","geometry":{"type":"MultiPolygon","coordinates":[[[[-73.869302193396,40.899882323421],[-73.869328208161,40.900037147988],[-73.869328465061,40.900038676401],[-73.86926320826,40.90004498966],[-73.869258531322,40.900017154885],[-73.869236936749,40.899888635764],[-73.869302193396,40.899882323421]]]]},"properties":{"base_bbl":"2033790029","ground_elevation":"189","feature_code":"2100","height_roof":"25.98","bin":"2103634","last_edited_date":"2017-08-22T17:41:12.000Z","geom_source":"Photogrammetric","doitt_id":"929683"}},{"type":"Feature","geometry":{"type":"MultiPolygon","coordinates":[[[[-73.869125026124,40.899899462451],[-73.869151297378,40.900055815471],[-73.869084810807,40.900062247],[-73.86905853852,40.899905893963],[-73.869125026124,40.899899462451]]]]},"properties":{"base_bbl":"2033790032","ground_elevation":"188","feature_code":"2100","height_roof":"26.05","bin":"2103636","last_edited_date":"2017-08-22T18:14:10.000Z","geom_source":"Photogrammetric","doitt_id":"929699"}},{"type":"Feature","geometry":{"type":"MultiPolygon","coordinates":[[[[-73.869595474555,40.899851984557],[-73.869660348566,40.899844678344],[-73.869664187282,40.899864302439],[-73.869688396933,40.899988087881],[-73.869623522789,40.899995392308],[-73.869599313254,40.899871607753],[-73.869595474555,40.899851984557]]]]},"properties":{"base_bbl":"2033790026","ground_elevation":"192","feature_code":"2100","height_roof":"33.58","bin":"2113632","last_edited_date":"2017-08-22T18:15:22.000Z","geom_source":"Photogrammetric","doitt_id":"993662"}},{"type":"Feature","geometry":{"type":"MultiPolygon","coordinates":[[[[-73.869664187282,40.899864302439],[-73.869660348566,40.899844678344],[-73.869728416879,40.899837013705],[-73.869732254427,40.899856637796],[-73.869753615989,40.899965860074],[-73.869756464202,40.899980423224],[-73.869688396933,40.899988087881],[-73.869664187282,40.899864302439]]]]},"properties":{"base_bbl":"2033790025","ground_elevation":"192","feature_code":"2100","height_roof":"33.36","bin":"2113631","last_edited_date":"2017-08-22T19:19:06.000Z","geom_source":"Photogrammetric","doitt_id":"993663"}},{"type":"Feature","geometry":{"type":"MultiPolygon","coordinates":[[[[-73.87030577382,40.899678725196],[-73.870292891372,40.899621573166],[-73.870338097462,40.899615707762],[-73.870350979947,40.899672859787],[-73.87030577382,40.899678725196]]]]},"properties":{"base_bbl":"2033790100","ground_elevation":"192","feature_code":"2100","height_roof":"12","bin":"2118678","last_edited_date":"2026-06-11T15:05:28.000Z","geom_source":"Other (Manual)","doitt_id":"1305580"}}], "crs" : { "type": "name", "properties": { "name": "urn:ogc:def:crs:OGC:1.3:CRS84" } } }