{"type":"FeatureCollection","name":"lake_view_survey","crs":{"type":"name","properties":{"name":"urn:ogc:def:crs:EPSG::32643"}},"features":[{"type":"Feature","properties":{"fid":1,"name":"Parcel MH2507A1B3C4D5","kind":"parcel","ulpin":"MH2507A1B3C4D5","height_m":null,"floors":null},"geometry":{"type":"Polygon","coordinates":[[[373398,2046157],[373442,2046157],[373442,2046192.5],[373398,2046192.5],[373398,2046157]]]}},{"type":"Feature","properties":{"fid":2,"name":"Parcel MH2507A1B3C4D5","kind":"parcel","ulpin":"MH2507A1B3C4D5","height_m":null,"floors":null},"geometry":{"type":"Polygon","coordinates":[[[373387,2046111],[373413,2046111],[373413,2046133],[373387,2046133],[373387,2046111]]]}},{"type":"Feature","properties":{"fid":3,"name":"Building 301","kind":"building","height_m":15,"floors":5},"geometry":{"type":"Polygon","coordinates":[[[373391,2046115],[373409,2046115],[373409,2046129],[373391,2046129],[373391,2046115]]]}},{"type":"Feature","properties":{"fid":4,"name":"Parcel MH2507A1B3C55E","kind":"parcel","ulpin":"MH2507A1B3C55E","height_m":null,"floors":null},"geometry":{"type":"Polygon","coordinates":[[[373414,2046112],[373436,2046112],[373436,2046136],[373414,2046136],[373414,2046112]]]}},{"type":"Feature","properties":{"fid":5,"name":"Building 302","kind":"building","height_m":24,"floors":8},"geometry":{"type":"Polygon","coordinates":[[[373418,2046116],[373432,2046116],[373432,2046132],[373418,2046132],[373418,2046116]]]}},{"type":"Feature","properties":{"fid":6,"name":"Parcel MH2507A1B3C6E6","kind":"parcel","ulpin":"MH2507A1B3C6E6","height_m":null,"floors":null},"geometry":{"type":"Polygon","coordinates":[[[373435,2046110],[373455,2046110],[373455,2046130],[373435,2046130],[373435,2046110]]]}},{"type":"Feature","properties":{"fid":7,"name":"Building 303","kind":"building","height_m":9,"floors":3},"geometry":{"type":"Polygon","coordinates":[[[373439,2046114],[373451,2046114],[373451,2046126],[373439,2046126],[373439,2046114]]]}},{"type":"Feature","properties":{"fid":8,"name":"Parcel MH2507A1B3C76F","kind":"parcel","ulpin":"MH2507A1B3C76F","height_m":null,"floors":null},"geometry":{"type":"Polygon","coordinates":[[[373382,2046078],[373410,2046078],[373410,2046102],[373382,2046102],[373382,2046078]]]}},{"type":"Feature","properties":{"fid":9,"name":"Building 304","kind":"building","height_m":30,"floors":10},"geometry":{"type":"Polygon","coordinates":[[[373386,2046082],[373406,2046082],[373406,2046098],[373386,2046098],[373386,2046082]]]}},{"type":"Feature","properties":{"fid":10,"name":"Parcel MH2507A1B3C8F7","kind":"parcel","ulpin":"MH2507A1B3C8F7","height_m":null,"floors":null},"geometry":{"type":"Polygon","coordinates":[[[373414,2046082],[373438,2046082],[373438,2046102],[373414,2046102],[373414,2046082]]]}},{"type":"Feature","properties":{"fid":11,"name":"Building 305","kind":"building","height_m":12,"floors":4},"geometry":{"type":"Polygon","coordinates":[[[373418,2046086],[373434,2046086],[373434,2046098],[373418,2046098],[373418,2046086]]]}},{"type":"Feature","properties":{"fid":12,"name":"Parcel MH2507A1B3C97G","kind":"parcel","ulpin":"MH2507A1B3C97G","height_m":null,"floors":null},"geometry":{"type":"Polygon","coordinates":[[[373435,2046077],[373453,2046077],[373453,2046099],[373435,2046099],[373435,2046077]]]}},{"type":"Feature","properties":{"fid":13,"name":"Building 306","kind":"building","height_m":18,"floors":6},"geometry":{"type":"Polygon","coordinates":[[[373439,2046081],[373449,2046081],[373449,2046095],[373439,2046095],[373439,2046081]]]}},{"type":"Feature","properties":{"fid":14,"name":"Parcel MH2507A1B3C0G8","kind":"parcel","ulpin":"MH2507A1B3C0G8","height_m":null,"floors":null},"geometry":{"type":"Polygon","coordinates":[[[373469,2046167],[373495,2046167],[373495,2046197],[373469,2046197],[373469,2046167]]]}},{"type":"Feature","properties":{"fid":15,"name":"Building 307","kind":"building","height_m":21,"floors":7},"geometry":{"type":"Polygon","coordinates":[[[373473,2046171],[373491,2046171],[373491,2046193],[373473,2046193],[373473,2046171]]]}},{"type":"Feature","properties":{"fid":16,"name":"Parcel MH2507A1B3CA8H","kind":"parcel","ulpin":"MH2507A1B3CA8H","height_m":null,"floors":null},"geometry":{"type":"Polygon","coordinates":[[[373474,2046111],[373498,2046111],[373498,2046133],[373474,2046133],[373474,2046111]]]}},{"type":"Feature","properties":{"fid":17,"name":"Building 308","kind":"building","height_m":12,"floors":4},"geometry":{"type":"Polygon","coordinates":[[[373478,2046115],[373494,2046115],[373494,2046129],[373478,2046129],[373478,2046115]]]}},{"type":"Feature","properties":{"fid":18,"name":"Parcel MH2507A1B3CBH9","kind":"parcel","ulpin":"MH2507A1B3CBH9","height_m":null,"floors":null},"geometry":{"type":"Polygon","coordinates":[[[373470,2046077],[373498,2046077],[373498,2046099],[373470,2046099],[373470,2046077]]]}},{"type":"Feature","properties":{"fid":19,"name":"Building 309","kind":"building","height_m":27,"floors":9},"geometry":{"type":"Polygon","coordinates":[[[373474,2046081],[373494,2046081],[373494,2046095],[373474,2046095],[373474,2046081]]]}},{"type":"Feature","properties":{"fid":20,"name":"Parcel MH2507A1B3CC9J","kind":"parcel","ulpin":"MH2507A1B3CC9J","height_m":null,"floors":null},"geometry":{"type":"Polygon","coordinates":[[[373499,2046147],[373521,2046147],[373521,2046173],[373499,2046173],[373499,2046147]]]}},{"type":"Feature","properties":{"fid":21,"name":"Building 310","kind":"building","height_m":9,"floors":3},"geometry":{"type":"Polygon","coordinates":[[[373503,2046151],[373517,2046151],[373517,2046169],[373503,2046169],[373503,2046151]]]}},{"type":"Feature","properties":{"fid":22,"name":"Parcel MH2507A1B3CDJ2","kind":"parcel","ulpin":"MH2507A1B3CDJ2","height_m":null,"floors":null},"geometry":{"type":"Polygon","coordinates":[[[373500,2046199],[373524,2046199],[373524,2046221],[373500,2046221],[373500,2046199]]]}},{"type":"Feature","properties":{"fid":23,"name":"Building 311","kind":"building","height_m":15,"floors":5},"geometry":{"type":"Polygon","coordinates":[[[373504,2046203],[373520,2046203],[373520,2046217],[373504,2046217],[373504,2046203]]]}},{"type":"Feature","properties":{"fid":24,"name":"Parcel MH2507A1B3CE2K","kind":"parcel","ulpin":"MH2507A1B3CE2K","height_m":null,"floors":null},"geometry":{"type":"Polygon","coordinates":[[[373469,2046212],[373495,2046212],[373495,2046236],[373469,2046236],[373469,2046212]]]}},{"type":"Feature","properties":{"fid":25,"name":"Building 312","kind":"building","height_m":33,"floors":11},"geometry":{"type":"Polygon","coordinates":[[[373473,2046216],[373491,2046216],[373491,2046232],[373473,2046232],[373473,2046216]]]}},{"type":"Feature","properties":{"fid":26,"name":"Parcel MH2507A1B3CFK3","kind":"parcel","ulpin":"MH2507A1B3CFK3","height_m":null,"floors":null},"geometry":{"type":"Polygon","coordinates":[[[373386,2046205],[373410,2046205],[373410,2046227],[373386,2046227],[373386,2046205]]]}},{"type":"Feature","properties":{"fid":27,"name":"Building 313","kind":"building","height_m":18,"floors":6},"geometry":{"type":"Polygon","coordinates":[[[373390,2046209],[373406,2046209],[373406,2046223],[373390,2046223],[373390,2046209]]]}},{"type":"Feature","properties":{"fid":28,"name":"Parcel MH2507A1B3CG3L","kind":"parcel","ulpin":"MH2507A1B3CG3L","height_m":null,"floors":null},"geometry":{"type":"Polygon","coordinates":[[[373411,2046207],[373437,2046207],[373437,2046229],[373411,2046229],[373411,2046207]]]}},{"type":"Feature","properties":{"fid":29,"name":"Building 314","kind":"building","height_m":12,"floors":4},"geometry":{"type":"Polygon","coordinates":[[[373415,2046211],[373433,2046211],[373433,2046225],[373415,2046225],[373415,2046211]]]}},{"type":"Feature","properties":{"fid":30,"name":"Parcel MH2507A1B3CHL4","kind":"parcel","ulpin":"MH2507A1B3CHL4","height_m":null,"floors":null},"geometry":{"type":"Polygon","coordinates":[[[373434,2046204],[373454,2046204],[373454,2046224],[373434,2046224],[373434,2046204]]]}},{"type":"Feature","properties":{"fid":31,"name":"Building 315","kind":"building","height_m":24,"floors":8},"geometry":{"type":"Polygon","coordinates":[[[373438,2046208],[373450,2046208],[373450,2046220],[373438,2046220],[373438,2046208]]]}},{"type":"Feature","properties":{"fid":32,"name":"Parcel MH2507A1B3CJ4M","kind":"parcel","ulpin":"MH2507A1B3CJ4M","height_m":null,"floors":null},"geometry":{"type":"Polygon","coordinates":[[[373388,2046239],[373416,2046239],[373416,2046265],[373388,2046265],[373388,2046239]]]}},{"type":"Feature","properties":{"fid":33,"name":"Building 316","kind":"building","height_m":9,"floors":3},"geometry":{"type":"Polygon","coordinates":[[[373392,2046243],[373412,2046243],[373412,2046261],[373392,2046261],[373392,2046243]]]}},{"type":"Feature","properties":{"fid":34,"name":"Parcel MH2507A1B3CKM5","kind":"parcel","ulpin":"MH2507A1B3CKM5","height_m":null,"floors":null},"geometry":{"type":"Polygon","coordinates":[[[373418,2046242],[373442,2046242],[373442,2046266],[373418,2046266],[373418,2046242]]]}},{"type":"Feature","properties":{"fid":35,"name":"Building 317","kind":"building","height_m":21,"floors":7},"geometry":{"type":"Polygon","coordinates":[[[373422,2046246],[373438,2046246],[373438,2046262],[373422,2046262],[373422,2046246]]]}},{"type":"Feature","properties":{"fid":36,"name":"Parcel MH2507A1B3CL5N","kind":"parcel","ulpin":"MH2507A1B3CL5N","height_m":null,"floors":null},"geometry":{"type":"Polygon","coordinates":[[[373343,2046172],[373369,2046172],[373369,2046200],[373343,2046200],[373343,2046172]]]}},{"type":"Feature","properties":{"fid":37,"name":"Building 318","kind":"building","height_m":12,"floors":4},"geometry":{"type":"Polygon","coordinates":[[[373347,2046176],[373365,2046176],[373365,2046196],[373347,2046196],[373347,2046176]]]}},{"type":"Feature","properties":{"fid":38,"name":"Parcel MH2507A1B3CMN6","kind":"parcel","ulpin":"MH2507A1B3CMN6","height_m":null,"floors":null},"geometry":{"type":"Polygon","coordinates":[[[373346,2046213],[373370,2046213],[373370,2046235],[373346,2046235],[373346,2046213]]]}},{"type":"Feature","properties":{"fid":39,"name":"Building 319","kind":"building","height_m":27,"floors":9},"geometry":{"type":"Polygon","coordinates":[[[373350,2046217],[373366,2046217],[373366,2046231],[373350,2046231],[373350,2046217]]]}},{"type":"Feature","properties":{"fid":40,"name":"Parcel MH2507A1B3CN6P","kind":"parcel","ulpin":"MH2507A1B3CN6P","height_m":null,"floors":null},"geometry":{"type":"Polygon","coordinates":[[[373319,2046209],[373341,2046209],[373341,2046231],[373319,2046231],[373319,2046209]]]}},{"type":"Feature","properties":{"fid":41,"name":"Building 320","kind":"building","height_m":15,"floors":5},"geometry":{"type":"Polygon","coordinates":[[[373323,2046213],[373337,2046213],[373337,2046227],[373323,2046227],[373323,2046213]]]}},{"type":"Feature","properties":{"fid":42,"name":"Parcel MH2507A1B3CPD5","kind":"parcel","ulpin":"MH2507A1B3CPD5","height_m":null,"floors":null},"geometry":{"type":"Polygon","coordinates":[[[373343,2046148],[373365,2046148],[373365,2046168],[373343,2046168],[373343,2046148]]]}},{"type":"Feature","properties":{"fid":43,"name":"Building 321","kind":"building","height_m":9,"floors":3},"geometry":{"type":"Polygon","coordinates":[[[373347,2046152],[373361,2046152],[373361,2046164],[373347,2046164],[373347,2046152]]]}},{"type":"Feature","properties":{"fid":44,"name":"Lake View Residence","kind":"building","height_m":28.4,"floors":9,"depth_top_m":28.4,"depth_bottom_m":-6.6},"geometry":{"type":"Polygon","coordinates":[[[373405,2046170],[373435,2046170],[373435,2046190],[373405,2046190],[373405,2046170]]]}},{"type":"Feature","properties":{"fid":45,"name":"Lake View Road","kind":"road","height_m":null,"floors":null},"geometry":{"type":"Polygon","coordinates":[[[373020,2046144],[373820,2046144],[373820,2046156],[373020,2046156],[373020,2046144]]]}},{"type":"Feature","properties":{"fid":46,"name":"Service lane","kind":"road","height_m":null,"floors":null},"geometry":{"type":"Polygon","coordinates":[[[373380,2046191],[373460,2046191],[373460,2046197],[373380,2046197],[373380,2046191]]]}},{"type":"Feature","properties":{"fid":47,"name":"Link Road 2","kind":"road","height_m":null,"floors":null},"geometry":{"type":"Polygon","coordinates":[[[373375,2045780],[373385,2045780],[373385,2046580],[373375,2046580],[373375,2045780]]]}},{"type":"Feature","properties":{"fid":48,"name":"Link Road 3","kind":"road","height_m":null,"floors":null},"geometry":{"type":"Polygon","coordinates":[[[373455,2045780],[373465,2045780],[373465,2046580],[373455,2046580],[373455,2045780]]]}},{"type":"Feature","properties":{"fid":49,"name":"Garden reserve","kind":"public_land","height_m":null,"floors":null,"land_cover":"open"},"geometry":{"type":"Polygon","coordinates":[[[373387,2046160],[373401,2046160],[373401,2046184],[373387,2046184],[373387,2046160]]]}},{"type":"Feature","properties":{"fid":50,"name":"Municipal school ground","kind":"public_land","height_m":null,"floors":null,"land_cover":"open"},"geometry":{"type":"Polygon","coordinates":[[[373498,2046240],[373548,2046240],[373548,2046280],[373498,2046280],[373498,2046240]]]}},{"type":"Feature","properties":{"fid":51,"name":"Lake park","kind":"public_land","height_m":null,"floors":null,"land_cover":"open"},"geometry":{"type":"Polygon","coordinates":[[[373270,2046060],[373360,2046060],[373360,2046140],[373270,2046140],[373270,2046060]]]}},{"type":"Feature","properties":{"fid":52,"name":"Lake View lake","kind":"public_land","height_m":null,"floors":null,"land_cover":"water"},"geometry":{"type":"Polygon","coordinates":[[[373355,2046100],[373354.666,2046103.328],[373353.671,2046106.6],[373352.031,2046109.758],[373349.775,2046112.75],[373346.941,2046115.523],[373343.577,2046118.031],[373339.742,2046120.231],[373335.5,2046122.084],[373330.925,2046123.559],[373326.094,2046124.631],[373321.091,2046125.282],[373316,2046125.5],[373310.909,2046125.282],[373305.906,2046124.631],[373301.075,2046123.559],[373296.5,2046122.084],[373292.258,2046120.231],[373288.423,2046118.031],[373285.059,2046115.523],[373282.225,2046112.75],[373279.969,2046109.758],[373278.329,2046106.6],[373277.334,2046103.328],[373277,2046100],[373277.334,2046096.672],[373278.329,2046093.4],[373279.969,2046090.242],[373282.225,2046087.25],[373285.059,2046084.477],[373288.423,2046081.969],[373292.258,2046079.769],[373296.5,2046077.916],[373301.075,2046076.441],[373305.906,2046075.369],[373310.909,2046074.718],[373316,2046074.5],[373321.091,2046074.718],[373326.094,2046075.369],[373330.925,2046076.441],[373335.5,2046077.916],[373339.742,2046079.769],[373343.577,2046081.969],[373346.941,2046084.477],[373349.775,2046087.25],[373352.031,2046090.242],[373353.671,2046093.4],[373354.666,2046096.672],[373355,2046100]]]}},{"type":"Feature","properties":{"fid":53,"name":"Water main DN300","kind":"utility","height_m":null,"floors":null,"depth_top_m":-0.9,"depth_bottom_m":-1.2},"geometry":{"type":"Polygon","coordinates":[[[373375,2046193.85],[373465,2046193.85],[373465,2046194.15],[373375,2046194.15],[373375,2046193.85]]]}},{"type":"Feature","properties":{"fid":54,"name":"Metro corridor","kind":"utility","height_m":null,"floors":null,"depth_top_m":-14.4,"depth_bottom_m":-18.4},"geometry":{"type":"Polygon","coordinates":[[[373375,2046192],[373465,2046192],[373465,2046196],[373375,2046196],[373375,2046192]]]}}]}