{
  "type": "FeatureCollection",
  "crs": {
    "type": "name",
    "properties": {
      "name": "LOCAL-LAKE-VIEW-DEMO-M"
    }
  },
  "features": [
    {
      "type": "Feature",
      "id": "PARK01",
      "properties": {
        "use": "park",
        "ownership": "not asserted",
        "open_area_id": "PARK01",
        "name": "Public Park · demo",
        "classification": "synthetic",
        "source_revision": "source-showcase-1",
        "geometry_status": "authored_synthetic",
        "geometry_note": "Author-provided fictional geometry; not AI extraction or survey evidence.",
        "geometry_id": "PARK01-shape-v1",
        "geometry_revision": 1,
        "base_elevation_m": 0,
        "height_m": 0,
        "vertical_reference": "DEMO-BM-01 fictional zero datum; not national MSL"
      },
      "geometry": {
        "type": "Polygon",
        "coordinates": [
          [
            [
              9,
              28
            ],
            [
              46,
              28
            ],
            [
              46,
              95
            ],
            [
              9,
              95
            ],
            [
              9,
              28
            ]
          ]
        ]
      }
    }
  ]
}
