{"type":"FeatureCollection","name":"SYNTHETIC_Lake_View_buildings","properties":{"synthetic":true,"disclaimer":"Reference-neighbourhood/2: authored synthetic local-metre geometry and fictional records. Approximate display near Delhi is not a surveyed location or issued property identity.","notOfficialULPIN":true,"geometryRole":"authored_building_footprint"},"features":[{"type":"Feature","id":"BLD-0001","geometry":{"type":"Polygon","coordinates":[[[77.04866290814256,28.618986037517764],[77.04866290814256,28.618806375282766],[77.04881641036035,28.618806375282766],[77.04881641036035,28.618986037517764],[77.04866290814256,28.618986037517764]]]},"properties":{"synthetic":true,"ulpin_demo":"11007510000001","building_id":"BLD-0001","parcel_id":"PAR-REF-A1-1","owner_fictional":"Meera Arora","floors":3,"height_m":9.600000000000001,"parcel_area_m2":900,"footprint_m2":300}},{"type":"Feature","id":"BLD-0002","geometry":{"type":"Polygon","coordinates":[[[77.04897262205317,28.618978523775745],[77.04897262205317,28.618807844652494],[77.04912612427096,28.618807844652494],[77.04912612427096,28.618978523775745],[77.04897262205317,28.618978523775745]]]},"properties":{"synthetic":true,"ulpin_demo":"11007510000002","building_id":"BLD-0002","parcel_id":"PAR-REF-A1-2","owner_fictional":"Ananya Rao","floors":3,"height_m":9.600000000000001,"parcel_area_m2":900,"footprint_m2":285}},{"type":"Feature","id":"BLD-0003","geometry":{"type":"Polygon","coordinates":[[[77.04865565803918,28.61924538082496],[77.04865565803918,28.61908368481346],[77.04881939373816,28.61908368481346],[77.04881939373816,28.61924538082496],[77.04865565803918,28.61924538082496]]]},"properties":{"synthetic":true,"ulpin_demo":"11007510000003","building_id":"BLD-0003","parcel_id":"PAR-REF-A1-3","owner_fictional":"Kavya Sethi","floors":3,"height_m":9.600000000000001,"parcel_area_m2":900,"footprint_m2":288}},{"type":"Feature","id":"BLD-0004","geometry":{"type":"Polygon","coordinates":[[[77.04894751501007,28.61925271730695],[77.04894751501007,28.619082038183702],[77.0491419511526,28.619082038183702],[77.0491419511526,28.61925271730695],[77.04894751501007,28.61925271730695]]]},"properties":{"synthetic":true,"ulpin_demo":"11007510000004","building_id":"BLD-0004","parcel_id":"PAR-REF-A1-4","owner_fictional":"Aarav Mehta","floors":4,"height_m":12.8,"parcel_area_m2":900,"footprint_m2":361}},{"type":"Feature","id":"BLD-0005","geometry":{"type":"Polygon","coordinates":[[[77.04940432299925,28.618980130891643],[77.04940432299925,28.618818434880144],[77.04954759173584,28.618818434880144],[77.04954759173584,28.618980130891643],[77.04940432299925,28.618980130891643]]]},"properties":{"synthetic":true,"ulpin_demo":"11007510000005","building_id":"BLD-0005","parcel_id":"PAR-REF-A2-5","owner_fictional":"Diya Malhotra","floors":3,"height_m":9.600000000000001,"parcel_area_m2":900,"footprint_m2":252}},{"type":"Feature","id":"BLD-0006","geometry":{"type":"Polygon","coordinates":[[[77.04971874267386,28.618967923950397],[77.04971874267386,28.618824194162396],[77.04986201141045,28.618824194162396],[77.04986201141045,28.618967923950397],[77.04971874267386,28.618967923950397]]]},"properties":{"synthetic":true,"ulpin_demo":"11007510000006","building_id":"BLD-0006","parcel_id":"PAR-REF-A2-6","owner_fictional":"Rohan Batra","floors":4,"height_m":12.8,"parcel_area_m2":900,"footprint_m2":224}},{"type":"Feature","id":"BLD-0007","geometry":{"type":"Polygon","coordinates":[[[77.0493831266941,28.61923601759669],[77.0493831266941,28.61909228780869],[77.04956732935544,28.61909228780869],[77.04956732935544,28.61923601759669],[77.0493831266941,28.61923601759669]]]},"properties":{"synthetic":true,"ulpin_demo":"11007510000007","building_id":"BLD-0007","parcel_id":"PAR-REF-A2-7","owner_fictional":"Meera Arora","floors":5,"height_m":16,"parcel_area_m2":900,"footprint_m2":288}},{"type":"Feature","id":"BLD-0008","geometry":{"type":"Polygon","coordinates":[[[77.0497128883586,28.61925832951261],[77.0497128883586,28.619078667277613],[77.04986639057638,28.619078667277613],[77.04986639057638,28.61925832951261],[77.0497128883586,28.61925832951261]]]},"properties":{"synthetic":true,"ulpin_demo":"11007510000008","building_id":"BLD-0008","parcel_id":"PAR-REF-A2-8","owner_fictional":"Diya Malhotra","floors":3,"height_m":9.600000000000001,"parcel_area_m2":900,"footprint_m2":300}},{"type":"Feature","id":"BLD-0009","geometry":{"type":"Polygon","coordinates":[[[77.05012789961091,28.61897995193525],[77.05012789961091,28.618809272812],[77.05030186879108,28.618809272812],[77.05030186879108,28.61897995193525],[77.05012789961091,28.61897995193525]]]},"properties":{"synthetic":true,"ulpin_demo":"11007510000009","building_id":"BLD-0009","parcel_id":"PAR-REF-A3-9","owner_fictional":"Arjun Sinha","floors":5,"height_m":16,"parcel_area_m2":900,"footprint_m2":323}},{"type":"Feature","id":"BLD-0010","geometry":{"type":"Polygon","coordinates":[[[77.05045435225504,28.618981603924617],[77.05045435225504,28.61881092480137],[77.05059762099164,28.61881092480137],[77.05059762099164,28.618981603924617],[77.05045435225504,28.618981603924617]]]},"properties":{"synthetic":true,"ulpin_demo":"11007510000010","building_id":"BLD-0010","parcel_id":"PAR-REF-A3-10","owner_fictional":"Vihaan Joshi","floors":4,"height_m":12.8,"parcel_area_m2":900,"footprint_m2":266}},{"type":"Feature","id":"BLD-0011","geometry":{"type":"Polygon","coordinates":[[[77.05012758502689,28.61923410114943],[77.05012758502689,28.619090371361434],[77.05029132072586,28.619090371361434],[77.05029132072586,28.61923410114943],[77.05012758502689,28.61923410114943]]]},"properties":{"synthetic":true,"ulpin_demo":"11007510000011","building_id":"BLD-0011","parcel_id":"PAR-REF-A3-11","owner_fictional":"Ananya Rao","floors":4,"height_m":12.8,"parcel_area_m2":900,"footprint_m2":256}},{"type":"Feature","id":"BLD-0012","geometry":{"type":"Polygon","coordinates":[[[77.05043399103658,28.619249821791705],[77.05043399103658,28.619079142668458],[77.05060796021675,28.619079142668458],[77.05060796021675,28.619249821791705],[77.05043399103658,28.619249821791705]]]},"properties":{"synthetic":true,"ulpin_demo":"11007510000012","building_id":"BLD-0012","parcel_id":"PAR-REF-A3-12","owner_fictional":"Aarav Mehta","floors":3,"height_m":9.600000000000001,"parcel_area_m2":900,"footprint_m2":323}},{"type":"Feature","id":"BLD-0013","geometry":{"type":"Polygon","coordinates":[[[77.05087411983843,28.61897232073841],[77.05087411983843,28.618810624726912],[77.05102762205622,28.618810624726912],[77.05102762205622,28.61897232073841],[77.05087411983843,28.61897232073841]]]},"properties":{"synthetic":true,"ulpin_demo":"11007510000013","building_id":"BLD-0013","parcel_id":"PAR-REF-A4-13","owner_fictional":"Vihaan Joshi","floors":4,"height_m":12.8,"parcel_area_m2":900,"footprint_m2":270}},{"type":"Feature","id":"BLD-0014","geometry":{"type":"Polygon","coordinates":[[[77.05118359724828,28.61897119808724],[77.05118359724828,28.61882746829924],[77.05133709946607,28.61882746829924],[77.05133709946607,28.61897119808724],[77.05118359724828,28.61897119808724]]]},"properties":{"synthetic":true,"ulpin_demo":"11007510000014","building_id":"BLD-0014","parcel_id":"PAR-REF-A4-14","owner_fictional":"Arjun Sinha","floors":4,"height_m":12.8,"parcel_area_m2":900,"footprint_m2":240}},{"type":"Feature","id":"BLD-0015","geometry":{"type":"Polygon","coordinates":[[[77.05087151718502,28.61923810199592],[77.05087151718502,28.61908538909617],[77.05103525288399,28.61908538909617],[77.05103525288399,28.61923810199592],[77.05087151718502,28.61923810199592]]]},"properties":{"synthetic":true,"ulpin_demo":"11007510000015","building_id":"BLD-0015","parcel_id":"PAR-REF-A4-15","owner_fictional":"Ishaan Verma","floors":3,"height_m":9.600000000000001,"parcel_area_m2":900,"footprint_m2":272}},{"type":"Feature","id":"BLD-0016","geometry":{"type":"Polygon","coordinates":[[[77.05117981083909,28.619244371516096],[77.05117981083909,28.619082675504597],[77.05134354653806,28.619082675504597],[77.05134354653806,28.619244371516096],[77.05117981083909,28.619244371516096]]]},"properties":{"synthetic":true,"ulpin_demo":"11007510000016","building_id":"BLD-0016","parcel_id":"PAR-REF-A4-16","owner_fictional":"Aarav Mehta","floors":4,"height_m":12.8,"parcel_area_m2":900,"footprint_m2":288}},{"type":"Feature","id":"BLD-0017","geometry":{"type":"Polygon","coordinates":[[[77.04866989222161,28.619618390861042],[77.04866989222161,28.619465677961294],[77.0488233944394,28.619465677961294],[77.0488233944394,28.619618390861042],[77.04866989222161,28.619618390861042]]]},"properties":{"synthetic":true,"ulpin_demo":"11007510000017","building_id":"BLD-0017","parcel_id":"PAR-REF-B1-17","owner_fictional":"Ishaan Verma","floors":3,"height_m":9.600000000000001,"parcel_area_m2":900,"footprint_m2":255}},{"type":"Feature","id":"BLD-0018","geometry":{"type":"Polygon","coordinates":[[[77.04894720641278,28.619623395958435],[77.04894720641278,28.619452716835188],[77.04914164255531,28.619452716835188],[77.04914164255531,28.619623395958435],[77.04894720641278,28.619623395958435]]]},"properties":{"synthetic":true,"ulpin_demo":"11007510000018","building_id":"BLD-0018","parcel_id":"PAR-REF-B1-18","owner_fictional":"Ananya Rao","floors":4,"height_m":12.8,"parcel_area_m2":900,"footprint_m2":361}},{"type":"Feature","id":"BLD-0019","geometry":{"type":"Polygon","coordinates":[[[77.04866549733899,28.61989665402087],[77.04866549733899,28.61973495800937],[77.04881899955679,28.61973495800937],[77.04881899955679,28.61989665402087],[77.04866549733899,28.61989665402087]]]},"properties":{"synthetic":true,"ulpin_demo":"11007510000019","building_id":"BLD-0019","parcel_id":"PAR-REF-B1-19","owner_fictional":"Neel Kapoor","floors":5,"height_m":16,"parcel_area_m2":900,"footprint_m2":270}},{"type":"Feature","id":"BLD-0020","geometry":{"type":"Polygon","coordinates":[[[77.04895195982623,28.619905367881287],[77.04895195982623,28.619725705646292],[77.04914639596875,28.619725705646292],[77.04914639596875,28.619905367881287],[77.04895195982623,28.619905367881287]]]},"properties":{"synthetic":true,"ulpin_demo":"11007510000020","building_id":"BLD-0020","parcel_id":"PAR-REF-B1-20","owner_fictional":"Aarav Mehta","floors":3,"height_m":9.600000000000001,"parcel_area_m2":900,"footprint_m2":380}},{"type":"Feature","id":"BLD-0021","geometry":{"type":"Polygon","coordinates":[[[77.04939832243699,28.619618366591087],[77.04939832243699,28.619474636803087],[77.04955182465477,28.619474636803087],[77.04955182465477,28.619618366591087],[77.04939832243699,28.619618366591087]]]},"properties":{"synthetic":true,"ulpin_demo":"11007510000021","building_id":"BLD-0021","parcel_id":"PAR-REF-B2-21","owner_fictional":"Tara Khanna","floors":3,"height_m":9.600000000000001,"parcel_area_m2":900,"footprint_m2":240}},{"type":"Feature","id":"BLD-0022","geometry":{"type":"Polygon","coordinates":[[[77.04970645054638,28.619619798627852],[77.04970645054638,28.619467085728104],[77.04987018624536,28.619467085728104],[77.04987018624536,28.619619798627852],[77.04970645054638,28.619619798627852]]]},"properties":{"synthetic":true,"ulpin_demo":"11007510000022","building_id":"BLD-0022","parcel_id":"PAR-REF-B2-22","owner_fictional":"Neel Kapoor","floors":3,"height_m":9.600000000000001,"parcel_area_m2":900,"footprint_m2":272}},{"type":"Feature","id":"BLD-0023","geometry":{"type":"Polygon","coordinates":[[[77.04938426725833,28.619886990372656],[77.04938426725833,28.619734277472908],[77.04956846991968,28.619734277472908],[77.04956846991968,28.619886990372656],[77.04938426725833,28.619886990372656]]]},"properties":{"synthetic":true,"ulpin_demo":"11007510000023","building_id":"BLD-0023","parcel_id":"PAR-REF-B2-23","owner_fictional":"Ishaan Verma","floors":5,"height_m":16,"parcel_area_m2":900,"footprint_m2":306}},{"type":"Feature","id":"BLD-0024","geometry":{"type":"Polygon","coordinates":[[[77.04970898629267,28.619891504559266],[77.04970898629267,28.61973879165952],[77.04985225502928,28.61973879165952],[77.04985225502928,28.619891504559266],[77.04970898629267,28.619891504559266]]]},"properties":{"synthetic":true,"ulpin_demo":"11007510000024","building_id":"BLD-0024","parcel_id":"PAR-REF-B2-24","owner_fictional":"Nisha Anand","floors":4,"height_m":12.8,"parcel_area_m2":900,"footprint_m2":238}},{"type":"Feature","id":"BLD-0413","geometry":{"type":"Polygon","coordinates":[[[77.05045027317217,28.61995508444125],[77.05045027317217,28.619793388429752],[77.05061400887115,28.619793388429752],[77.05061400887115,28.61995508444125],[77.05045027317217,28.61995508444125]]]},"properties":{"synthetic":true,"ulpin_demo":"11007500003527","building_id":"BLD-0413","parcel_id":"PAR-REF-D5-14","owner_fictional":"Aarav Mehta","floors":5,"height_m":16,"parcel_area_m2":506.25,"footprint_m2":288}},{"type":"Feature","id":"BLD-0026","geometry":{"type":"Polygon","coordinates":[[[77.05045027317217,28.61962720086238],[77.05045027317217,28.61949245418613],[77.05061400887115,28.61949245418613],[77.05061400887115,28.61962720086238],[77.05045027317217,28.61962720086238]]]},"properties":{"synthetic":true,"ulpin_demo":"11007510000026","building_id":"BLD-0026","parcel_id":"PAR-REF-B3-26","owner_fictional":"Aarav Mehta","floors":3,"height_m":9.600000000000001,"parcel_area_m2":812,"footprint_m2":240}},{"type":"Feature","id":"BLD-0027","geometry":{"type":"Polygon","coordinates":[[[77.05085951545071,28.619612833538525],[77.05085951545071,28.61946910375053],[77.05105395159325,28.61946910375053],[77.05105395159325,28.619612833538525],[77.05085951545071,28.619612833538525]]]},"properties":{"synthetic":true,"ulpin_demo":"11007510000027","building_id":"BLD-0027","parcel_id":"PAR-REF-B4-27","owner_fictional":"Ishaan Verma","floors":3,"height_m":9.600000000000001,"parcel_area_m2":900,"footprint_m2":304}},{"type":"Feature","id":"BLD-0028","geometry":{"type":"Polygon","coordinates":[[[77.05117772240403,28.619619681203908],[77.05117772240403,28.61946696830416],[77.051341458103,28.61946696830416],[77.051341458103,28.619619681203908],[77.05117772240403,28.619619681203908]]]},"properties":{"synthetic":true,"ulpin_demo":"11007510000028","building_id":"BLD-0028","parcel_id":"PAR-REF-B4-28","owner_fictional":"Neel Kapoor","floors":3,"height_m":9.600000000000001,"parcel_area_m2":900,"footprint_m2":272}},{"type":"Feature","id":"BLD-0029","geometry":{"type":"Polygon","coordinates":[[[77.05086914122273,28.619893799494978],[77.05086914122273,28.619732103483482],[77.05104311040289,28.619732103483482],[77.05104311040289,28.619893799494978],[77.05086914122273,28.619893799494978]]]},"properties":{"synthetic":true,"ulpin_demo":"11007510000029","building_id":"BLD-0029","parcel_id":"PAR-REF-B4-29","owner_fictional":"Aarav Mehta","floors":3,"height_m":9.600000000000001,"parcel_area_m2":900,"footprint_m2":306}},{"type":"Feature","id":"BLD-0030","geometry":{"type":"Polygon","coordinates":[[[77.05117173657683,28.619904251197827],[77.05117173657683,28.61972458896283],[77.05135593923818,28.61972458896283],[77.05135593923818,28.619904251197827],[77.05117173657683,28.619904251197827]]]},"properties":{"synthetic":true,"ulpin_demo":"11007510000030","building_id":"BLD-0030","parcel_id":"PAR-REF-B4-30","owner_fictional":"Tara Khanna","floors":5,"height_m":16,"parcel_area_m2":900,"footprint_m2":360}},{"type":"Feature","id":"BLD-0031","geometry":{"type":"Polygon","coordinates":[[[77.04865916770895,28.62026665764653],[77.04865916770895,28.62011394474678],[77.0488331368891,28.62011394474678],[77.0488331368891,28.62026665764653],[77.04865916770895,28.62026665764653]]]},"properties":{"synthetic":true,"ulpin_demo":"11007510000031","building_id":"BLD-0031","parcel_id":"PAR-REF-C1-31","owner_fictional":"Rohan Batra","floors":4,"height_m":12.8,"parcel_area_m2":900,"footprint_m2":289}},{"type":"Feature","id":"BLD-0032","geometry":{"type":"Polygon","coordinates":[[[77.04895915023141,28.6202569189345],[77.04895915023141,28.620122172258256],[77.04914335289277,28.620122172258256],[77.04914335289277,28.6202569189345],[77.04895915023141,28.6202569189345]]]},"properties":{"synthetic":true,"ulpin_demo":"11007510000032","building_id":"BLD-0032","parcel_id":"PAR-REF-C1-32","owner_fictional":"Meera Arora","floors":3,"height_m":9.600000000000001,"parcel_area_m2":900,"footprint_m2":270}},{"type":"Feature","id":"BLD-0033","geometry":{"type":"Polygon","coordinates":[[[77.0486509032319,28.62054249726619],[77.0486509032319,28.62038080125469],[77.04882487241206,28.62038080125469],[77.04882487241206,28.62054249726619],[77.0486509032319,28.62054249726619]]]},"properties":{"synthetic":true,"ulpin_demo":"11007510000033","building_id":"BLD-0033","parcel_id":"PAR-REF-C1-33","owner_fictional":"Arjun Sinha","floors":5,"height_m":16,"parcel_area_m2":900,"footprint_m2":306}},{"type":"Feature","id":"BLD-0034","geometry":{"type":"Polygon","coordinates":[[[77.04896452601425,28.620531508122294],[77.04896452601425,28.620387778334294],[77.04913849519441,28.620387778334294],[77.04913849519441,28.620531508122294],[77.04896452601425,28.620531508122294]]]},"properties":{"synthetic":true,"ulpin_demo":"11007510000034","building_id":"BLD-0034","parcel_id":"PAR-REF-C1-34","owner_fictional":"Ishaan Verma","floors":3,"height_m":9.600000000000001,"parcel_area_m2":900,"footprint_m2":272}},{"type":"Feature","id":"BLD-0035","geometry":{"type":"Polygon","coordinates":[[[77.04939060199642,28.62025581503328],[77.04939060199642,28.62011208524528],[77.0495543376954,28.62011208524528],[77.0495543376954,28.62025581503328],[77.04939060199642,28.62025581503328]]]},"properties":{"synthetic":true,"ulpin_demo":"11007510000035","building_id":"BLD-0035","parcel_id":"PAR-REF-C2-35","owner_fictional":"Tara Khanna","floors":5,"height_m":16,"parcel_area_m2":900,"footprint_m2":256}},{"type":"Feature","id":"BLD-0036","geometry":{"type":"Polygon","coordinates":[[[77.04969063981878,28.620258578931306],[77.04969063981878,28.620114849143306],[77.04987484248012,28.620114849143306],[77.04987484248012,28.620258578931306],[77.04969063981878,28.620258578931306]]]},"properties":{"synthetic":true,"ulpin_demo":"11007510000036","building_id":"BLD-0036","parcel_id":"PAR-REF-C2-36","owner_fictional":"Neel Kapoor","floors":3,"height_m":9.600000000000001,"parcel_area_m2":900,"footprint_m2":288}},{"type":"Feature","id":"BLD-0037","geometry":{"type":"Polygon","coordinates":[[[77.04939170393904,28.620521489730173],[77.04939170393904,28.620386743053924],[77.04955543963801,28.620386743053924],[77.04955543963801,28.620521489730173],[77.04939170393904,28.620521489730173]]]},"properties":{"synthetic":true,"ulpin_demo":"11007510000037","building_id":"BLD-0037","parcel_id":"PAR-REF-C2-37","owner_fictional":"Ananya Rao","floors":4,"height_m":12.8,"parcel_area_m2":900,"footprint_m2":240}},{"type":"Feature","id":"BLD-0038","geometry":{"type":"Polygon","coordinates":[[[77.04968925988825,28.620527670898948],[77.04968925988825,28.6203929242227],[77.0498734625496,28.6203929242227],[77.0498734625496,28.620527670898948],[77.04968925988825,28.620527670898948]]]},"properties":{"synthetic":true,"ulpin_demo":"11007510000038","building_id":"BLD-0038","parcel_id":"PAR-REF-C2-38","owner_fictional":"Kavya Sethi","floors":5,"height_m":16,"parcel_area_m2":900,"footprint_m2":270}},{"type":"Feature","id":"BLD-0039","geometry":{"type":"Polygon","coordinates":[[[77.05011950722385,28.62026566824553],[77.05011950722385,28.620103972234034],[77.0503037098852,28.620103972234034],[77.0503037098852,28.62026566824553],[77.05011950722385,28.62026566824553]]]},"properties":{"synthetic":true,"ulpin_demo":"11007510000039","building_id":"BLD-0039","parcel_id":"PAR-REF-C3-39","owner_fictional":"Rohan Batra","floors":4,"height_m":12.8,"parcel_area_m2":900,"footprint_m2":324}},{"type":"Feature","id":"BLD-0040","geometry":{"type":"Polygon","coordinates":[[[77.0504325754238,28.620270856581385],[77.0504325754238,28.620109160569886],[77.05060654460395,28.620109160569886],[77.05060654460395,28.620270856581385],[77.0504325754238,28.620270856581385]]]},"properties":{"synthetic":true,"ulpin_demo":"11007510000040","building_id":"BLD-0040","parcel_id":"PAR-REF-C3-40","owner_fictional":"Ishaan Verma","floors":4,"height_m":12.8,"parcel_area_m2":900,"footprint_m2":306}},{"type":"Feature","id":"BLD-0041","geometry":{"type":"Polygon","coordinates":[[[77.05011298128886,28.620532872400556],[77.05011298128886,28.620380159500808],[77.0503074174314,28.620380159500808],[77.0503074174314,28.620532872400556],[77.05011298128886,28.620532872400556]]]},"properties":{"synthetic":true,"ulpin_demo":"11007510000041","building_id":"BLD-0041","parcel_id":"PAR-REF-C3-41","owner_fictional":"Tara Khanna","floors":3,"height_m":9.600000000000001,"parcel_area_m2":900,"footprint_m2":323}},{"type":"Feature","id":"BLD-0042","geometry":{"type":"Polygon","coordinates":[[[77.0504320860774,28.620536321480316],[77.0504320860774,28.620374625468816],[77.05061628873874,28.620374625468816],[77.05061628873874,28.620536321480316],[77.0504320860774,28.620536321480316]]]},"properties":{"synthetic":true,"ulpin_demo":"11007510000042","building_id":"BLD-0042","parcel_id":"PAR-REF-C3-42","owner_fictional":"Neel Kapoor","floors":3,"height_m":9.600000000000001,"parcel_area_m2":900,"footprint_m2":324}},{"type":"Feature","id":"BLD-0043","geometry":{"type":"Polygon","coordinates":[[[77.05086867010618,28.620276697120932],[77.05086867010618,28.620097034885937],[77.05103240580516,28.620097034885937],[77.05103240580516,28.620276697120932],[77.05086867010618,28.620276697120932]]]},"properties":{"synthetic":true,"ulpin_demo":"11007510000043","building_id":"BLD-0043","parcel_id":"PAR-REF-C4-43","owner_fictional":"Diya Malhotra","floors":4,"height_m":12.8,"parcel_area_m2":900,"footprint_m2":320}},{"type":"Feature","id":"BLD-0044","geometry":{"type":"Polygon","coordinates":[[[77.05116370186124,28.620259216628025],[77.05116370186124,28.620115486840028],[77.0513479045226,28.620115486840028],[77.0513479045226,28.620259216628025],[77.05116370186124,28.620259216628025]]]},"properties":{"synthetic":true,"ulpin_demo":"11007510000044","building_id":"BLD-0044","parcel_id":"PAR-REF-C4-44","owner_fictional":"Neel Kapoor","floors":5,"height_m":16,"parcel_area_m2":900,"footprint_m2":288}},{"type":"Feature","id":"BLD-0045","geometry":{"type":"Polygon","coordinates":[[[77.05086340347869,28.620544158630818],[77.05086340347869,28.620364496395823],[77.05104760614003,28.620364496395823],[77.05104760614003,28.620544158630818],[77.05086340347869,28.620544158630818]]]},"properties":{"synthetic":true,"ulpin_demo":"11007510000045","building_id":"BLD-0045","parcel_id":"PAR-REF-C4-45","owner_fictional":"Ananya Rao","floors":4,"height_m":12.8,"parcel_area_m2":900,"footprint_m2":360}},{"type":"Feature","id":"BLD-0046","geometry":{"type":"Polygon","coordinates":[[[77.0511855086725,28.620531166833047],[77.0511855086725,28.6203784539333],[77.05132877740911,28.6203784539333],[77.05132877740911,28.620531166833047],[77.0511855086725,28.620531166833047]]]},"properties":{"synthetic":true,"ulpin_demo":"11007510000046","building_id":"BLD-0046","parcel_id":"PAR-REF-C4-46","owner_fictional":"Tara Khanna","floors":4,"height_m":12.8,"parcel_area_m2":900,"footprint_m2":238}},{"type":"Feature","id":"BLD-0047","geometry":{"type":"Polygon","coordinates":[[[77.04866838690741,28.620915508690928],[77.04866838690741,28.62075381267943],[77.048811655644,28.62075381267943],[77.048811655644,28.620915508690928],[77.04866838690741,28.620915508690928]]]},"properties":{"synthetic":true,"ulpin_demo":"11007510000047","building_id":"BLD-0047","parcel_id":"PAR-REF-D1-47","owner_fictional":"Vihaan Joshi","floors":4,"height_m":12.8,"parcel_area_m2":900,"footprint_m2":252}},{"type":"Feature","id":"BLD-0048","geometry":{"type":"Polygon","coordinates":[[[77.04897026267776,28.62092179942509],[77.04897026267776,28.620742137190092],[77.04912376489554,28.620742137190092],[77.04912376489554,28.62092179942509],[77.04897026267776,28.62092179942509]]]},"properties":{"synthetic":true,"ulpin_demo":"11007510000048","building_id":"BLD-0048","parcel_id":"PAR-REF-D1-48","owner_fictional":"Aarav Mehta","floors":5,"height_m":16,"parcel_area_m2":900,"footprint_m2":300}},{"type":"Feature","id":"BLD-0049","geometry":{"type":"Polygon","coordinates":[[[77.0486619606714,28.621181076281786],[77.0486619606714,28.62103734649379],[77.04881546288918,28.62103734649379],[77.04881546288918,28.621181076281786],[77.0486619606714,28.621181076281786]]]},"properties":{"synthetic":true,"ulpin_demo":"11007510000049","building_id":"BLD-0049","parcel_id":"PAR-REF-D1-49","owner_fictional":"Meera Arora","floors":3,"height_m":9.600000000000001,"parcel_area_m2":900,"footprint_m2":240}},{"type":"Feature","id":"BLD-0050","geometry":{"type":"Polygon","coordinates":[[[77.04896623345263,28.621173589794118],[77.04896623345263,28.621038843117873],[77.04911973567042,28.621038843117873],[77.04911973567042,28.621173589794118],[77.04896623345263,28.621173589794118]]]},"properties":{"synthetic":true,"ulpin_demo":"11007510000050","building_id":"BLD-0050","parcel_id":"PAR-REF-D1-50","owner_fictional":"Aarav Mehta","floors":3,"height_m":9.600000000000001,"parcel_area_m2":900,"footprint_m2":225}},{"type":"Feature","id":"BLD-0051","geometry":{"type":"Polygon","coordinates":[[[77.04939614264828,28.620920644829862],[77.04939614264828,28.620758948818363],[77.04954964486606,28.620758948818363],[77.04954964486606,28.620920644829862],[77.04939614264828,28.620920644829862]]]},"properties":{"synthetic":true,"ulpin_demo":"11007510000051","building_id":"BLD-0051","parcel_id":"PAR-REF-D2-51","owner_fictional":"Vihaan Joshi","floors":5,"height_m":16,"parcel_area_m2":900,"footprint_m2":270}},{"type":"Feature","id":"BLD-0052","geometry":{"type":"Polygon","coordinates":[[[77.04969268198901,28.620909181671973],[77.04969268198901,28.620765451883972],[77.04986665116918,28.620765451883972],[77.04986665116918,28.620909181671973],[77.04969268198901,28.620909181671973]]]},"properties":{"synthetic":true,"ulpin_demo":"11007510000052","building_id":"BLD-0052","parcel_id":"PAR-REF-D2-52","owner_fictional":"Vihaan Joshi","floors":3,"height_m":9.600000000000001,"parcel_area_m2":900,"footprint_m2":272}},{"type":"Feature","id":"BLD-0053","geometry":{"type":"Polygon","coordinates":[[[77.04940117100563,28.621189598911787],[77.04940117100563,28.62102790290029],[77.04954443974223,28.62102790290029],[77.04954443974223,28.621189598911787],[77.04940117100563,28.621189598911787]]]},"properties":{"synthetic":true,"ulpin_demo":"11007510000053","building_id":"BLD-0053","parcel_id":"PAR-REF-D2-53","owner_fictional":"Tara Khanna","floors":5,"height_m":16,"parcel_area_m2":900,"footprint_m2":252}},{"type":"Feature","id":"BLD-0054","geometry":{"type":"Polygon","coordinates":[[[77.04970184510852,28.621190513061464],[77.04970184510852,28.621028817049964],[77.04987581428868,28.621028817049964],[77.04987581428868,28.621190513061464],[77.04970184510852,28.621190513061464]]]},"properties":{"synthetic":true,"ulpin_demo":"11007510000054","building_id":"BLD-0054","parcel_id":"PAR-REF-D2-54","owner_fictional":"Meera Arora","floors":5,"height_m":16,"parcel_area_m2":900,"footprint_m2":306}},{"type":"Feature","id":"BLD-0055","geometry":{"type":"Polygon","coordinates":[[[77.05013545812533,28.620902086580617],[77.05013545812533,28.62076733990437],[77.05028896034312,28.62076733990437],[77.05028896034312,28.620902086580617],[77.05013545812533,28.620902086580617]]]},"properties":{"synthetic":true,"ulpin_demo":"11007510000055","building_id":"BLD-0055","parcel_id":"PAR-REF-D3-55","owner_fictional":"Ananya Rao","floors":5,"height_m":16,"parcel_area_m2":900,"footprint_m2":225}},{"type":"Feature","id":"BLD-0056","geometry":{"type":"Polygon","coordinates":[[[77.05044617363163,28.62091939023068],[77.05044617363163,28.62075769421918],[77.05058944236823,28.62075769421918],[77.05058944236823,28.62091939023068],[77.05044617363163,28.62091939023068]]]},"properties":{"synthetic":true,"ulpin_demo":"11007510000056","building_id":"BLD-0056","parcel_id":"PAR-REF-D3-56","owner_fictional":"Neel Kapoor","floors":5,"height_m":16,"parcel_area_m2":900,"footprint_m2":252}},{"type":"Feature","id":"BLD-0057","geometry":{"type":"Polygon","coordinates":[[[77.05012454618625,28.621194547171868],[77.05012454618625,28.62101488493687],[77.0503087488476,28.62101488493687],[77.0503087488476,28.621194547171868],[77.05012454618625,28.621194547171868]]]},"properties":{"synthetic":true,"ulpin_demo":"11007510000057","building_id":"BLD-0057","parcel_id":"PAR-REF-D3-57","owner_fictional":"Arjun Sinha","floors":4,"height_m":12.8,"parcel_area_m2":900,"footprint_m2":360}},{"type":"Feature","id":"BLD-0058","geometry":{"type":"Polygon","coordinates":[[[77.05043131899532,28.621190354133244],[77.05043131899532,28.621010691898245],[77.05060528817549,28.621010691898245],[77.05060528817549,28.621190354133244],[77.05043131899532,28.621190354133244]]]},"properties":{"synthetic":true,"ulpin_demo":"11007510000058","building_id":"BLD-0058","parcel_id":"PAR-REF-D3-58","owner_fictional":"Tara Khanna","floors":3,"height_m":9.600000000000001,"parcel_area_m2":900,"footprint_m2":340}},{"type":"Feature","id":"BLD-0059","geometry":{"type":"Polygon","coordinates":[[[77.05087305966815,28.62089917690378],[77.05087305966815,28.62076443022753],[77.05103679536712,28.62076443022753],[77.05103679536712,28.62089917690378],[77.05087305966815,28.62089917690378]]]},"properties":{"synthetic":true,"ulpin_demo":"11007510000059","building_id":"BLD-0059","parcel_id":"PAR-REF-D4-59","owner_fictional":"Vihaan Joshi","floors":4,"height_m":12.8,"parcel_area_m2":900,"footprint_m2":240}},{"type":"Feature","id":"BLD-0060","geometry":{"type":"Polygon","coordinates":[[[77.05116671193909,28.620919094093583],[77.05116671193909,28.620748414970336],[77.05134068111926,28.620748414970336],[77.05134068111926,28.620919094093583],[77.05116671193909,28.620919094093583]]]},"properties":{"synthetic":true,"ulpin_demo":"11007510000060","building_id":"BLD-0060","parcel_id":"PAR-REF-D4-60","owner_fictional":"Neel Kapoor","floors":4,"height_m":12.8,"parcel_area_m2":900,"footprint_m2":323}},{"type":"Feature","id":"BLD-0061","geometry":{"type":"Polygon","coordinates":[[[77.05088199809008,28.62119270015626],[77.05088199809008,28.621013037921262],[77.05102526682668,28.621013037921262],[77.05102526682668,28.62119270015626],[77.05088199809008,28.62119270015626]]]},"properties":{"synthetic":true,"ulpin_demo":"11007510000061","building_id":"BLD-0061","parcel_id":"PAR-REF-D4-61","owner_fictional":"Neel Kapoor","floors":3,"height_m":9.600000000000001,"parcel_area_m2":900,"footprint_m2":280}},{"type":"Feature","id":"BLD-0062","geometry":{"type":"Polygon","coordinates":[[[77.05117239544505,28.621190536792916],[77.05117239544505,28.62101087455792],[77.05134636462522,28.62101087455792],[77.05134636462522,28.621190536792916],[77.05117239544505,28.621190536792916]]]},"properties":{"synthetic":true,"ulpin_demo":"11007510000062","building_id":"BLD-0062","parcel_id":"PAR-REF-D4-62","owner_fictional":"Tara Khanna","floors":4,"height_m":12.8,"parcel_area_m2":900,"footprint_m2":340}}]}