{"type":"FeatureCollection","name":"SYNTHETIC_Lake_View_parcels","properties":{"synthetic":true,"disclaimer":"Reference-neighbourhood/2: authored synthetic local-metre geometry and fictional records. Approximate display near Delhi is not a surveyed location or issued property identity.","notOfficialULPIN":true,"geometryRole":"authored_parcel"},"features":[{"type":"Feature","id":"PAR-REF-A1-1","geometry":{"type":"Polygon","coordinates":[[[77.04858777959635,28.61902982393101],[77.04858777959635,28.618760330578514],[77.04889478403192,28.618760330578514],[77.04889478403192,28.61902982393101],[77.04858777959635,28.61902982393101]]]},"properties":{"synthetic":true,"ulpin_demo":"11007510000001","building_id":"BLD-0001","parcel_id":"PAR-REF-A1-1","owner_fictional":"Meera Arora","floors":3,"height_m":9.600000000000001,"parcel_area_m2":900,"footprint_m2":300}},{"type":"Feature","id":"PAR-REF-A1-2","geometry":{"type":"Polygon","coordinates":[[[77.04889478403192,28.61902982393101],[77.04889478403192,28.618760330578514],[77.0492017884675,28.618760330578514],[77.0492017884675,28.61902982393101],[77.04889478403192,28.61902982393101]]]},"properties":{"synthetic":true,"ulpin_demo":"11007510000002","building_id":"BLD-0002","parcel_id":"PAR-REF-A1-2","owner_fictional":"Ananya Rao","floors":3,"height_m":9.600000000000001,"parcel_area_m2":900,"footprint_m2":285}},{"type":"Feature","id":"PAR-REF-A1-3","geometry":{"type":"Polygon","coordinates":[[[77.04858777959635,28.61929931728351],[77.04858777959635,28.61902982393101],[77.04889478403192,28.61902982393101],[77.04889478403192,28.61929931728351],[77.04858777959635,28.61929931728351]]]},"properties":{"synthetic":true,"ulpin_demo":"11007510000003","building_id":"BLD-0003","parcel_id":"PAR-REF-A1-3","owner_fictional":"Kavya Sethi","floors":3,"height_m":9.600000000000001,"parcel_area_m2":900,"footprint_m2":288}},{"type":"Feature","id":"PAR-REF-A1-4","geometry":{"type":"Polygon","coordinates":[[[77.04889478403192,28.61929931728351],[77.04889478403192,28.61902982393101],[77.0492017884675,28.61902982393101],[77.0492017884675,28.61929931728351],[77.04889478403192,28.61929931728351]]]},"properties":{"synthetic":true,"ulpin_demo":"11007510000004","building_id":"BLD-0004","parcel_id":"PAR-REF-A1-4","owner_fictional":"Aarav Mehta","floors":4,"height_m":12.8,"parcel_area_m2":900,"footprint_m2":361}},{"type":"Feature","id":"PAR-REF-A2-5","geometry":{"type":"Polygon","coordinates":[[[77.04932459024172,28.61902982393101],[77.04932459024172,28.618760330578514],[77.04963159467731,28.618760330578514],[77.04963159467731,28.61902982393101],[77.04932459024172,28.61902982393101]]]},"properties":{"synthetic":true,"ulpin_demo":"11007510000005","building_id":"BLD-0005","parcel_id":"PAR-REF-A2-5","owner_fictional":"Diya Malhotra","floors":3,"height_m":9.600000000000001,"parcel_area_m2":900,"footprint_m2":252}},{"type":"Feature","id":"PAR-REF-A2-6","geometry":{"type":"Polygon","coordinates":[[[77.04963159467731,28.61902982393101],[77.04963159467731,28.618760330578514],[77.04993859911288,28.618760330578514],[77.04993859911288,28.61902982393101],[77.04963159467731,28.61902982393101]]]},"properties":{"synthetic":true,"ulpin_demo":"11007510000006","building_id":"BLD-0006","parcel_id":"PAR-REF-A2-6","owner_fictional":"Rohan Batra","floors":4,"height_m":12.8,"parcel_area_m2":900,"footprint_m2":224}},{"type":"Feature","id":"PAR-REF-A2-7","geometry":{"type":"Polygon","coordinates":[[[77.04932459024172,28.61929931728351],[77.04932459024172,28.61902982393101],[77.04963159467731,28.61902982393101],[77.04963159467731,28.61929931728351],[77.04932459024172,28.61929931728351]]]},"properties":{"synthetic":true,"ulpin_demo":"11007510000007","building_id":"BLD-0007","parcel_id":"PAR-REF-A2-7","owner_fictional":"Meera Arora","floors":5,"height_m":16,"parcel_area_m2":900,"footprint_m2":288}},{"type":"Feature","id":"PAR-REF-A2-8","geometry":{"type":"Polygon","coordinates":[[[77.04963159467731,28.61929931728351],[77.04963159467731,28.61902982393101],[77.04993859911288,28.61902982393101],[77.04993859911288,28.61929931728351],[77.04963159467731,28.61929931728351]]]},"properties":{"synthetic":true,"ulpin_demo":"11007510000008","building_id":"BLD-0008","parcel_id":"PAR-REF-A2-8","owner_fictional":"Diya Malhotra","floors":3,"height_m":9.600000000000001,"parcel_area_m2":900,"footprint_m2":300}},{"type":"Feature","id":"PAR-REF-A3-9","geometry":{"type":"Polygon","coordinates":[[[77.05006140088712,28.61902982393101],[77.05006140088712,28.618760330578514],[77.05036840532269,28.618760330578514],[77.05036840532269,28.61902982393101],[77.05006140088712,28.61902982393101]]]},"properties":{"synthetic":true,"ulpin_demo":"11007510000009","building_id":"BLD-0009","parcel_id":"PAR-REF-A3-9","owner_fictional":"Arjun Sinha","floors":5,"height_m":16,"parcel_area_m2":900,"footprint_m2":323}},{"type":"Feature","id":"PAR-REF-A3-10","geometry":{"type":"Polygon","coordinates":[[[77.05036840532269,28.61902982393101],[77.05036840532269,28.618760330578514],[77.05067540975827,28.618760330578514],[77.05067540975827,28.61902982393101],[77.05036840532269,28.61902982393101]]]},"properties":{"synthetic":true,"ulpin_demo":"11007510000010","building_id":"BLD-0010","parcel_id":"PAR-REF-A3-10","owner_fictional":"Vihaan Joshi","floors":4,"height_m":12.8,"parcel_area_m2":900,"footprint_m2":266}},{"type":"Feature","id":"PAR-REF-A3-11","geometry":{"type":"Polygon","coordinates":[[[77.05006140088712,28.61929931728351],[77.05006140088712,28.61902982393101],[77.05036840532269,28.61902982393101],[77.05036840532269,28.61929931728351],[77.05006140088712,28.61929931728351]]]},"properties":{"synthetic":true,"ulpin_demo":"11007510000011","building_id":"BLD-0011","parcel_id":"PAR-REF-A3-11","owner_fictional":"Ananya Rao","floors":4,"height_m":12.8,"parcel_area_m2":900,"footprint_m2":256}},{"type":"Feature","id":"PAR-REF-A3-12","geometry":{"type":"Polygon","coordinates":[[[77.05036840532269,28.61929931728351],[77.05036840532269,28.61902982393101],[77.05067540975827,28.61902982393101],[77.05067540975827,28.61929931728351],[77.05036840532269,28.61929931728351]]]},"properties":{"synthetic":true,"ulpin_demo":"11007510000012","building_id":"BLD-0012","parcel_id":"PAR-REF-A3-12","owner_fictional":"Aarav Mehta","floors":3,"height_m":9.600000000000001,"parcel_area_m2":900,"footprint_m2":323}},{"type":"Feature","id":"PAR-REF-A4-13","geometry":{"type":"Polygon","coordinates":[[[77.0507982115325,28.61902982393101],[77.0507982115325,28.618760330578514],[77.05110521596808,28.618760330578514],[77.05110521596808,28.61902982393101],[77.0507982115325,28.61902982393101]]]},"properties":{"synthetic":true,"ulpin_demo":"11007510000013","building_id":"BLD-0013","parcel_id":"PAR-REF-A4-13","owner_fictional":"Vihaan Joshi","floors":4,"height_m":12.8,"parcel_area_m2":900,"footprint_m2":270}},{"type":"Feature","id":"PAR-REF-A4-14","geometry":{"type":"Polygon","coordinates":[[[77.05110521596808,28.61902982393101],[77.05110521596808,28.618760330578514],[77.05141222040365,28.618760330578514],[77.05141222040365,28.61902982393101],[77.05110521596808,28.61902982393101]]]},"properties":{"synthetic":true,"ulpin_demo":"11007510000014","building_id":"BLD-0014","parcel_id":"PAR-REF-A4-14","owner_fictional":"Arjun Sinha","floors":4,"height_m":12.8,"parcel_area_m2":900,"footprint_m2":240}},{"type":"Feature","id":"PAR-REF-A4-15","geometry":{"type":"Polygon","coordinates":[[[77.0507982115325,28.61929931728351],[77.0507982115325,28.61902982393101],[77.05110521596808,28.61902982393101],[77.05110521596808,28.61929931728351],[77.0507982115325,28.61929931728351]]]},"properties":{"synthetic":true,"ulpin_demo":"11007510000015","building_id":"BLD-0015","parcel_id":"PAR-REF-A4-15","owner_fictional":"Ishaan Verma","floors":3,"height_m":9.600000000000001,"parcel_area_m2":900,"footprint_m2":272}},{"type":"Feature","id":"PAR-REF-A4-16","geometry":{"type":"Polygon","coordinates":[[[77.05110521596808,28.61929931728351],[77.05110521596808,28.61902982393101],[77.05141222040365,28.61902982393101],[77.05141222040365,28.61929931728351],[77.05110521596808,28.61929931728351]]]},"properties":{"synthetic":true,"ulpin_demo":"11007510000016","building_id":"BLD-0016","parcel_id":"PAR-REF-A4-16","owner_fictional":"Aarav Mehta","floors":4,"height_m":12.8,"parcel_area_m2":900,"footprint_m2":288}},{"type":"Feature","id":"PAR-REF-B1-17","geometry":{"type":"Polygon","coordinates":[[[77.04858777959635,28.619676607977006],[77.04858777959635,28.619407114624508],[77.04889478403192,28.619407114624508],[77.04889478403192,28.619676607977006],[77.04858777959635,28.619676607977006]]]},"properties":{"synthetic":true,"ulpin_demo":"11007510000017","building_id":"BLD-0017","parcel_id":"PAR-REF-B1-17","owner_fictional":"Ishaan Verma","floors":3,"height_m":9.600000000000001,"parcel_area_m2":900,"footprint_m2":255}},{"type":"Feature","id":"PAR-REF-B1-18","geometry":{"type":"Polygon","coordinates":[[[77.04889478403192,28.619676607977006],[77.04889478403192,28.619407114624508],[77.0492017884675,28.619407114624508],[77.0492017884675,28.619676607977006],[77.04889478403192,28.619676607977006]]]},"properties":{"synthetic":true,"ulpin_demo":"11007510000018","building_id":"BLD-0018","parcel_id":"PAR-REF-B1-18","owner_fictional":"Ananya Rao","floors":4,"height_m":12.8,"parcel_area_m2":900,"footprint_m2":361}},{"type":"Feature","id":"PAR-REF-B1-19","geometry":{"type":"Polygon","coordinates":[[[77.04858777959635,28.6199461013295],[77.04858777959635,28.619676607977006],[77.04889478403192,28.619676607977006],[77.04889478403192,28.6199461013295],[77.04858777959635,28.6199461013295]]]},"properties":{"synthetic":true,"ulpin_demo":"11007510000019","building_id":"BLD-0019","parcel_id":"PAR-REF-B1-19","owner_fictional":"Neel Kapoor","floors":5,"height_m":16,"parcel_area_m2":900,"footprint_m2":270}},{"type":"Feature","id":"PAR-REF-B1-20","geometry":{"type":"Polygon","coordinates":[[[77.04889478403192,28.6199461013295],[77.04889478403192,28.619676607977006],[77.0492017884675,28.619676607977006],[77.0492017884675,28.6199461013295],[77.04889478403192,28.6199461013295]]]},"properties":{"synthetic":true,"ulpin_demo":"11007510000020","building_id":"BLD-0020","parcel_id":"PAR-REF-B1-20","owner_fictional":"Aarav Mehta","floors":3,"height_m":9.600000000000001,"parcel_area_m2":900,"footprint_m2":380}},{"type":"Feature","id":"PAR-REF-B2-21","geometry":{"type":"Polygon","coordinates":[[[77.04932459024172,28.619676607977006],[77.04932459024172,28.619407114624508],[77.04963159467731,28.619407114624508],[77.04963159467731,28.619676607977006],[77.04932459024172,28.619676607977006]]]},"properties":{"synthetic":true,"ulpin_demo":"11007510000021","building_id":"BLD-0021","parcel_id":"PAR-REF-B2-21","owner_fictional":"Tara Khanna","floors":3,"height_m":9.600000000000001,"parcel_area_m2":900,"footprint_m2":240}},{"type":"Feature","id":"PAR-REF-B2-22","geometry":{"type":"Polygon","coordinates":[[[77.04963159467731,28.619676607977006],[77.04963159467731,28.619407114624508],[77.04993859911288,28.619407114624508],[77.04993859911288,28.619676607977006],[77.04963159467731,28.619676607977006]]]},"properties":{"synthetic":true,"ulpin_demo":"11007510000022","building_id":"BLD-0022","parcel_id":"PAR-REF-B2-22","owner_fictional":"Neel Kapoor","floors":3,"height_m":9.600000000000001,"parcel_area_m2":900,"footprint_m2":272}},{"type":"Feature","id":"PAR-REF-B2-23","geometry":{"type":"Polygon","coordinates":[[[77.04932459024172,28.6199461013295],[77.04932459024172,28.619676607977006],[77.04963159467731,28.619676607977006],[77.04963159467731,28.6199461013295],[77.04932459024172,28.6199461013295]]]},"properties":{"synthetic":true,"ulpin_demo":"11007510000023","building_id":"BLD-0023","parcel_id":"PAR-REF-B2-23","owner_fictional":"Ishaan Verma","floors":5,"height_m":16,"parcel_area_m2":900,"footprint_m2":306}},{"type":"Feature","id":"PAR-REF-B2-24","geometry":{"type":"Polygon","coordinates":[[[77.04963159467731,28.6199461013295],[77.04963159467731,28.619676607977006],[77.04993859911288,28.619676607977006],[77.04993859911288,28.6199461013295],[77.04963159467731,28.6199461013295]]]},"properties":{"synthetic":true,"ulpin_demo":"11007510000024","building_id":"BLD-0024","parcel_id":"PAR-REF-B2-24","owner_fictional":"Nisha Anand","floors":4,"height_m":12.8,"parcel_area_m2":900,"footprint_m2":238}},{"type":"Feature","id":"PAR-REF-D5-14","geometry":{"type":"Polygon","coordinates":[[[77.05041701435832,28.619937118217752],[77.05041701435832,28.619734998203377],[77.05064726768501,28.619734998203377],[77.05064726768501,28.619937118217752],[77.05041701435832,28.619937118217752]]]},"properties":{"synthetic":true,"ulpin_demo":"11007500003527","building_id":"BLD-0413","parcel_id":"PAR-REF-D5-14","owner_fictional":"Aarav Mehta","floors":5,"height_m":16,"parcel_area_m2":506.25,"footprint_m2":288}},{"type":"Feature","id":"PAR-REF-B3-26","geometry":{"type":"Polygon","coordinates":[[[77.05038887228507,28.619690082644627],[77.05038887228507,28.61942957240388],[77.05067540975827,28.61942957240388],[77.05067540975827,28.619690082644627],[77.05038887228507,28.619690082644627]]]},"properties":{"synthetic":true,"ulpin_demo":"11007510000026","building_id":"BLD-0026","parcel_id":"PAR-REF-B3-26","owner_fictional":"Aarav Mehta","floors":3,"height_m":9.600000000000001,"parcel_area_m2":812,"footprint_m2":240}},{"type":"Feature","id":"PAR-REF-B4-27","geometry":{"type":"Polygon","coordinates":[[[77.0507982115325,28.619676607977006],[77.0507982115325,28.619407114624508],[77.05110521596808,28.619407114624508],[77.05110521596808,28.619676607977006],[77.0507982115325,28.619676607977006]]]},"properties":{"synthetic":true,"ulpin_demo":"11007510000027","building_id":"BLD-0027","parcel_id":"PAR-REF-B4-27","owner_fictional":"Ishaan Verma","floors":3,"height_m":9.600000000000001,"parcel_area_m2":900,"footprint_m2":304}},{"type":"Feature","id":"PAR-REF-B4-28","geometry":{"type":"Polygon","coordinates":[[[77.05110521596808,28.619676607977006],[77.05110521596808,28.619407114624508],[77.05141222040365,28.619407114624508],[77.05141222040365,28.619676607977006],[77.05110521596808,28.619676607977006]]]},"properties":{"synthetic":true,"ulpin_demo":"11007510000028","building_id":"BLD-0028","parcel_id":"PAR-REF-B4-28","owner_fictional":"Neel Kapoor","floors":3,"height_m":9.600000000000001,"parcel_area_m2":900,"footprint_m2":272}},{"type":"Feature","id":"PAR-REF-B4-29","geometry":{"type":"Polygon","coordinates":[[[77.0507982115325,28.6199461013295],[77.0507982115325,28.619676607977006],[77.05110521596808,28.619676607977006],[77.05110521596808,28.6199461013295],[77.0507982115325,28.6199461013295]]]},"properties":{"synthetic":true,"ulpin_demo":"11007510000029","building_id":"BLD-0029","parcel_id":"PAR-REF-B4-29","owner_fictional":"Aarav Mehta","floors":3,"height_m":9.600000000000001,"parcel_area_m2":900,"footprint_m2":306}},{"type":"Feature","id":"PAR-REF-B4-30","geometry":{"type":"Polygon","coordinates":[[[77.05110521596808,28.6199461013295],[77.05110521596808,28.619676607977006],[77.05141222040365,28.619676607977006],[77.05141222040365,28.6199461013295],[77.05110521596808,28.6199461013295]]]},"properties":{"synthetic":true,"ulpin_demo":"11007510000030","building_id":"BLD-0030","parcel_id":"PAR-REF-B4-30","owner_fictional":"Tara Khanna","floors":5,"height_m":16,"parcel_area_m2":900,"footprint_m2":360}},{"type":"Feature","id":"PAR-REF-C1-31","geometry":{"type":"Polygon","coordinates":[[[77.04858777959635,28.620323392022996],[77.04858777959635,28.620053898670502],[77.04889478403192,28.620053898670502],[77.04889478403192,28.620323392022996],[77.04858777959635,28.620323392022996]]]},"properties":{"synthetic":true,"ulpin_demo":"11007510000031","building_id":"BLD-0031","parcel_id":"PAR-REF-C1-31","owner_fictional":"Rohan Batra","floors":4,"height_m":12.8,"parcel_area_m2":900,"footprint_m2":289}},{"type":"Feature","id":"PAR-REF-C1-32","geometry":{"type":"Polygon","coordinates":[[[77.04889478403192,28.620323392022996],[77.04889478403192,28.620053898670502],[77.0492017884675,28.620053898670502],[77.0492017884675,28.620323392022996],[77.04889478403192,28.620323392022996]]]},"properties":{"synthetic":true,"ulpin_demo":"11007510000032","building_id":"BLD-0032","parcel_id":"PAR-REF-C1-32","owner_fictional":"Meera Arora","floors":3,"height_m":9.600000000000001,"parcel_area_m2":900,"footprint_m2":270}},{"type":"Feature","id":"PAR-REF-C1-33","geometry":{"type":"Polygon","coordinates":[[[77.04858777959635,28.620592885375494],[77.04858777959635,28.620323392022996],[77.04889478403192,28.620323392022996],[77.04889478403192,28.620592885375494],[77.04858777959635,28.620592885375494]]]},"properties":{"synthetic":true,"ulpin_demo":"11007510000033","building_id":"BLD-0033","parcel_id":"PAR-REF-C1-33","owner_fictional":"Arjun Sinha","floors":5,"height_m":16,"parcel_area_m2":900,"footprint_m2":306}},{"type":"Feature","id":"PAR-REF-C1-34","geometry":{"type":"Polygon","coordinates":[[[77.04889478403192,28.620592885375494],[77.04889478403192,28.620323392022996],[77.0492017884675,28.620323392022996],[77.0492017884675,28.620592885375494],[77.04889478403192,28.620592885375494]]]},"properties":{"synthetic":true,"ulpin_demo":"11007510000034","building_id":"BLD-0034","parcel_id":"PAR-REF-C1-34","owner_fictional":"Ishaan Verma","floors":3,"height_m":9.600000000000001,"parcel_area_m2":900,"footprint_m2":272}},{"type":"Feature","id":"PAR-REF-C2-35","geometry":{"type":"Polygon","coordinates":[[[77.04932459024172,28.620323392022996],[77.04932459024172,28.620053898670502],[77.04963159467731,28.620053898670502],[77.04963159467731,28.620323392022996],[77.04932459024172,28.620323392022996]]]},"properties":{"synthetic":true,"ulpin_demo":"11007510000035","building_id":"BLD-0035","parcel_id":"PAR-REF-C2-35","owner_fictional":"Tara Khanna","floors":5,"height_m":16,"parcel_area_m2":900,"footprint_m2":256}},{"type":"Feature","id":"PAR-REF-C2-36","geometry":{"type":"Polygon","coordinates":[[[77.04963159467731,28.620323392022996],[77.04963159467731,28.620053898670502],[77.04993859911288,28.620053898670502],[77.04993859911288,28.620323392022996],[77.04963159467731,28.620323392022996]]]},"properties":{"synthetic":true,"ulpin_demo":"11007510000036","building_id":"BLD-0036","parcel_id":"PAR-REF-C2-36","owner_fictional":"Neel Kapoor","floors":3,"height_m":9.600000000000001,"parcel_area_m2":900,"footprint_m2":288}},{"type":"Feature","id":"PAR-REF-C2-37","geometry":{"type":"Polygon","coordinates":[[[77.04932459024172,28.620592885375494],[77.04932459024172,28.620323392022996],[77.04963159467731,28.620323392022996],[77.04963159467731,28.620592885375494],[77.04932459024172,28.620592885375494]]]},"properties":{"synthetic":true,"ulpin_demo":"11007510000037","building_id":"BLD-0037","parcel_id":"PAR-REF-C2-37","owner_fictional":"Ananya Rao","floors":4,"height_m":12.8,"parcel_area_m2":900,"footprint_m2":240}},{"type":"Feature","id":"PAR-REF-C2-38","geometry":{"type":"Polygon","coordinates":[[[77.04963159467731,28.620592885375494],[77.04963159467731,28.620323392022996],[77.04993859911288,28.620323392022996],[77.04993859911288,28.620592885375494],[77.04963159467731,28.620592885375494]]]},"properties":{"synthetic":true,"ulpin_demo":"11007510000038","building_id":"BLD-0038","parcel_id":"PAR-REF-C2-38","owner_fictional":"Kavya Sethi","floors":5,"height_m":16,"parcel_area_m2":900,"footprint_m2":270}},{"type":"Feature","id":"PAR-REF-C3-39","geometry":{"type":"Polygon","coordinates":[[[77.05006140088712,28.620323392022996],[77.05006140088712,28.620053898670502],[77.05036840532269,28.620053898670502],[77.05036840532269,28.620323392022996],[77.05006140088712,28.620323392022996]]]},"properties":{"synthetic":true,"ulpin_demo":"11007510000039","building_id":"BLD-0039","parcel_id":"PAR-REF-C3-39","owner_fictional":"Rohan Batra","floors":4,"height_m":12.8,"parcel_area_m2":900,"footprint_m2":324}},{"type":"Feature","id":"PAR-REF-C3-40","geometry":{"type":"Polygon","coordinates":[[[77.05036840532269,28.620323392022996],[77.05036840532269,28.620053898670502],[77.05067540975827,28.620053898670502],[77.05067540975827,28.620323392022996],[77.05036840532269,28.620323392022996]]]},"properties":{"synthetic":true,"ulpin_demo":"11007510000040","building_id":"BLD-0040","parcel_id":"PAR-REF-C3-40","owner_fictional":"Ishaan Verma","floors":4,"height_m":12.8,"parcel_area_m2":900,"footprint_m2":306}},{"type":"Feature","id":"PAR-REF-C3-41","geometry":{"type":"Polygon","coordinates":[[[77.05006140088712,28.620592885375494],[77.05006140088712,28.620323392022996],[77.05036840532269,28.620323392022996],[77.05036840532269,28.620592885375494],[77.05006140088712,28.620592885375494]]]},"properties":{"synthetic":true,"ulpin_demo":"11007510000041","building_id":"BLD-0041","parcel_id":"PAR-REF-C3-41","owner_fictional":"Tara Khanna","floors":3,"height_m":9.600000000000001,"parcel_area_m2":900,"footprint_m2":323}},{"type":"Feature","id":"PAR-REF-C3-42","geometry":{"type":"Polygon","coordinates":[[[77.05036840532269,28.620592885375494],[77.05036840532269,28.620323392022996],[77.05067540975827,28.620323392022996],[77.05067540975827,28.620592885375494],[77.05036840532269,28.620592885375494]]]},"properties":{"synthetic":true,"ulpin_demo":"11007510000042","building_id":"BLD-0042","parcel_id":"PAR-REF-C3-42","owner_fictional":"Neel Kapoor","floors":3,"height_m":9.600000000000001,"parcel_area_m2":900,"footprint_m2":324}},{"type":"Feature","id":"PAR-REF-C4-43","geometry":{"type":"Polygon","coordinates":[[[77.0507982115325,28.620323392022996],[77.0507982115325,28.620053898670502],[77.05110521596808,28.620053898670502],[77.05110521596808,28.620323392022996],[77.0507982115325,28.620323392022996]]]},"properties":{"synthetic":true,"ulpin_demo":"11007510000043","building_id":"BLD-0043","parcel_id":"PAR-REF-C4-43","owner_fictional":"Diya Malhotra","floors":4,"height_m":12.8,"parcel_area_m2":900,"footprint_m2":320}},{"type":"Feature","id":"PAR-REF-C4-44","geometry":{"type":"Polygon","coordinates":[[[77.05110521596808,28.620323392022996],[77.05110521596808,28.620053898670502],[77.05141222040365,28.620053898670502],[77.05141222040365,28.620323392022996],[77.05110521596808,28.620323392022996]]]},"properties":{"synthetic":true,"ulpin_demo":"11007510000044","building_id":"BLD-0044","parcel_id":"PAR-REF-C4-44","owner_fictional":"Neel Kapoor","floors":5,"height_m":16,"parcel_area_m2":900,"footprint_m2":288}},{"type":"Feature","id":"PAR-REF-C4-45","geometry":{"type":"Polygon","coordinates":[[[77.0507982115325,28.620592885375494],[77.0507982115325,28.620323392022996],[77.05110521596808,28.620323392022996],[77.05110521596808,28.620592885375494],[77.0507982115325,28.620592885375494]]]},"properties":{"synthetic":true,"ulpin_demo":"11007510000045","building_id":"BLD-0045","parcel_id":"PAR-REF-C4-45","owner_fictional":"Ananya Rao","floors":4,"height_m":12.8,"parcel_area_m2":900,"footprint_m2":360}},{"type":"Feature","id":"PAR-REF-C4-46","geometry":{"type":"Polygon","coordinates":[[[77.05110521596808,28.620592885375494],[77.05110521596808,28.620323392022996],[77.05141222040365,28.620323392022996],[77.05141222040365,28.620592885375494],[77.05110521596808,28.620592885375494]]]},"properties":{"synthetic":true,"ulpin_demo":"11007510000046","building_id":"BLD-0046","parcel_id":"PAR-REF-C4-46","owner_fictional":"Tara Khanna","floors":4,"height_m":12.8,"parcel_area_m2":900,"footprint_m2":238}},{"type":"Feature","id":"PAR-REF-D1-47","geometry":{"type":"Polygon","coordinates":[[[77.04858777959635,28.62097017606899],[77.04858777959635,28.620700682716492],[77.04889478403192,28.620700682716492],[77.04889478403192,28.62097017606899],[77.04858777959635,28.62097017606899]]]},"properties":{"synthetic":true,"ulpin_demo":"11007510000047","building_id":"BLD-0047","parcel_id":"PAR-REF-D1-47","owner_fictional":"Vihaan Joshi","floors":4,"height_m":12.8,"parcel_area_m2":900,"footprint_m2":252}},{"type":"Feature","id":"PAR-REF-D1-48","geometry":{"type":"Polygon","coordinates":[[[77.04889478403192,28.62097017606899],[77.04889478403192,28.620700682716492],[77.0492017884675,28.620700682716492],[77.0492017884675,28.62097017606899],[77.04889478403192,28.62097017606899]]]},"properties":{"synthetic":true,"ulpin_demo":"11007510000048","building_id":"BLD-0048","parcel_id":"PAR-REF-D1-48","owner_fictional":"Aarav Mehta","floors":5,"height_m":16,"parcel_area_m2":900,"footprint_m2":300}},{"type":"Feature","id":"PAR-REF-D1-49","geometry":{"type":"Polygon","coordinates":[[[77.04858777959635,28.621239669421488],[77.04858777959635,28.62097017606899],[77.04889478403192,28.62097017606899],[77.04889478403192,28.621239669421488],[77.04858777959635,28.621239669421488]]]},"properties":{"synthetic":true,"ulpin_demo":"11007510000049","building_id":"BLD-0049","parcel_id":"PAR-REF-D1-49","owner_fictional":"Meera Arora","floors":3,"height_m":9.600000000000001,"parcel_area_m2":900,"footprint_m2":240}},{"type":"Feature","id":"PAR-REF-D1-50","geometry":{"type":"Polygon","coordinates":[[[77.04889478403192,28.621239669421488],[77.04889478403192,28.62097017606899],[77.0492017884675,28.62097017606899],[77.0492017884675,28.621239669421488],[77.04889478403192,28.621239669421488]]]},"properties":{"synthetic":true,"ulpin_demo":"11007510000050","building_id":"BLD-0050","parcel_id":"PAR-REF-D1-50","owner_fictional":"Aarav Mehta","floors":3,"height_m":9.600000000000001,"parcel_area_m2":900,"footprint_m2":225}},{"type":"Feature","id":"PAR-REF-D2-51","geometry":{"type":"Polygon","coordinates":[[[77.04932459024172,28.62097017606899],[77.04932459024172,28.620700682716492],[77.04963159467731,28.620700682716492],[77.04963159467731,28.62097017606899],[77.04932459024172,28.62097017606899]]]},"properties":{"synthetic":true,"ulpin_demo":"11007510000051","building_id":"BLD-0051","parcel_id":"PAR-REF-D2-51","owner_fictional":"Vihaan Joshi","floors":5,"height_m":16,"parcel_area_m2":900,"footprint_m2":270}},{"type":"Feature","id":"PAR-REF-D2-52","geometry":{"type":"Polygon","coordinates":[[[77.04963159467731,28.62097017606899],[77.04963159467731,28.620700682716492],[77.04993859911288,28.620700682716492],[77.04993859911288,28.62097017606899],[77.04963159467731,28.62097017606899]]]},"properties":{"synthetic":true,"ulpin_demo":"11007510000052","building_id":"BLD-0052","parcel_id":"PAR-REF-D2-52","owner_fictional":"Vihaan Joshi","floors":3,"height_m":9.600000000000001,"parcel_area_m2":900,"footprint_m2":272}},{"type":"Feature","id":"PAR-REF-D2-53","geometry":{"type":"Polygon","coordinates":[[[77.04932459024172,28.621239669421488],[77.04932459024172,28.62097017606899],[77.04963159467731,28.62097017606899],[77.04963159467731,28.621239669421488],[77.04932459024172,28.621239669421488]]]},"properties":{"synthetic":true,"ulpin_demo":"11007510000053","building_id":"BLD-0053","parcel_id":"PAR-REF-D2-53","owner_fictional":"Tara Khanna","floors":5,"height_m":16,"parcel_area_m2":900,"footprint_m2":252}},{"type":"Feature","id":"PAR-REF-D2-54","geometry":{"type":"Polygon","coordinates":[[[77.04963159467731,28.621239669421488],[77.04963159467731,28.62097017606899],[77.04993859911288,28.62097017606899],[77.04993859911288,28.621239669421488],[77.04963159467731,28.621239669421488]]]},"properties":{"synthetic":true,"ulpin_demo":"11007510000054","building_id":"BLD-0054","parcel_id":"PAR-REF-D2-54","owner_fictional":"Meera Arora","floors":5,"height_m":16,"parcel_area_m2":900,"footprint_m2":306}},{"type":"Feature","id":"PAR-REF-D3-55","geometry":{"type":"Polygon","coordinates":[[[77.05006140088712,28.62097017606899],[77.05006140088712,28.620700682716492],[77.05036840532269,28.620700682716492],[77.05036840532269,28.62097017606899],[77.05006140088712,28.62097017606899]]]},"properties":{"synthetic":true,"ulpin_demo":"11007510000055","building_id":"BLD-0055","parcel_id":"PAR-REF-D3-55","owner_fictional":"Ananya Rao","floors":5,"height_m":16,"parcel_area_m2":900,"footprint_m2":225}},{"type":"Feature","id":"PAR-REF-D3-56","geometry":{"type":"Polygon","coordinates":[[[77.05036840532269,28.62097017606899],[77.05036840532269,28.620700682716492],[77.05067540975827,28.620700682716492],[77.05067540975827,28.62097017606899],[77.05036840532269,28.62097017606899]]]},"properties":{"synthetic":true,"ulpin_demo":"11007510000056","building_id":"BLD-0056","parcel_id":"PAR-REF-D3-56","owner_fictional":"Neel Kapoor","floors":5,"height_m":16,"parcel_area_m2":900,"footprint_m2":252}},{"type":"Feature","id":"PAR-REF-D3-57","geometry":{"type":"Polygon","coordinates":[[[77.05006140088712,28.621239669421488],[77.05006140088712,28.62097017606899],[77.05036840532269,28.62097017606899],[77.05036840532269,28.621239669421488],[77.05006140088712,28.621239669421488]]]},"properties":{"synthetic":true,"ulpin_demo":"11007510000057","building_id":"BLD-0057","parcel_id":"PAR-REF-D3-57","owner_fictional":"Arjun Sinha","floors":4,"height_m":12.8,"parcel_area_m2":900,"footprint_m2":360}},{"type":"Feature","id":"PAR-REF-D3-58","geometry":{"type":"Polygon","coordinates":[[[77.05036840532269,28.621239669421488],[77.05036840532269,28.62097017606899],[77.05067540975827,28.62097017606899],[77.05067540975827,28.621239669421488],[77.05036840532269,28.621239669421488]]]},"properties":{"synthetic":true,"ulpin_demo":"11007510000058","building_id":"BLD-0058","parcel_id":"PAR-REF-D3-58","owner_fictional":"Tara Khanna","floors":3,"height_m":9.600000000000001,"parcel_area_m2":900,"footprint_m2":340}},{"type":"Feature","id":"PAR-REF-D4-59","geometry":{"type":"Polygon","coordinates":[[[77.0507982115325,28.62097017606899],[77.0507982115325,28.620700682716492],[77.05110521596808,28.620700682716492],[77.05110521596808,28.62097017606899],[77.0507982115325,28.62097017606899]]]},"properties":{"synthetic":true,"ulpin_demo":"11007510000059","building_id":"BLD-0059","parcel_id":"PAR-REF-D4-59","owner_fictional":"Vihaan Joshi","floors":4,"height_m":12.8,"parcel_area_m2":900,"footprint_m2":240}},{"type":"Feature","id":"PAR-REF-D4-60","geometry":{"type":"Polygon","coordinates":[[[77.05110521596808,28.62097017606899],[77.05110521596808,28.620700682716492],[77.05141222040365,28.620700682716492],[77.05141222040365,28.62097017606899],[77.05110521596808,28.62097017606899]]]},"properties":{"synthetic":true,"ulpin_demo":"11007510000060","building_id":"BLD-0060","parcel_id":"PAR-REF-D4-60","owner_fictional":"Neel Kapoor","floors":4,"height_m":12.8,"parcel_area_m2":900,"footprint_m2":323}},{"type":"Feature","id":"PAR-REF-D4-61","geometry":{"type":"Polygon","coordinates":[[[77.0507982115325,28.621239669421488],[77.0507982115325,28.62097017606899],[77.05110521596808,28.62097017606899],[77.05110521596808,28.621239669421488],[77.0507982115325,28.621239669421488]]]},"properties":{"synthetic":true,"ulpin_demo":"11007510000061","building_id":"BLD-0061","parcel_id":"PAR-REF-D4-61","owner_fictional":"Neel Kapoor","floors":3,"height_m":9.600000000000001,"parcel_area_m2":900,"footprint_m2":280}},{"type":"Feature","id":"PAR-REF-D4-62","geometry":{"type":"Polygon","coordinates":[[[77.05110521596808,28.621239669421488],[77.05110521596808,28.62097017606899],[77.05141222040365,28.62097017606899],[77.05141222040365,28.621239669421488],[77.05110521596808,28.621239669421488]]]},"properties":{"synthetic":true,"ulpin_demo":"11007510000062","building_id":"BLD-0062","parcel_id":"PAR-REF-D4-62","owner_fictional":"Tara Khanna","floors":4,"height_m":12.8,"parcel_area_m2":900,"footprint_m2":340}}]}