{
  "type": "FeatureCollection",
  "crs": {
    "type": "name",
    "properties": {
      "name": "LOCAL-NEEM-REFERENCE-M"
    }
  },
  "features": [
    {
      "type": "Feature",
      "id": "PARK01",
      "properties": {
        "use": "pocket_public_area",
        "open_area_id": "PARK01",
        "name": "Pocket public court",
        "classification": "synthetic",
        "source_revision": "source-showcase-1",
        "geometry_status": "authored_synthetic",
        "geometry_note": "Author-provided fictional geometry; not AI extraction or survey evidence.",
        "geometry_id": "G-PARK01-v1",
        "geometry_revision": 1,
        "base_elevation_m": 0,
        "height_m": 0,
        "vertical_reference": "DEMO-BM-01 fictional zero datum; not national MSL"
      },
      "geometry": {
        "type": "Polygon",
        "coordinates": [
          [
            [
              64,
              38
            ],
            [
              72,
              38
            ],
            [
              72,
              54
            ],
            [
              64,
              54
            ],
            [
              64,
              38
            ]
          ]
        ]
      }
    }
  ]
}
