{
  "type": "FeatureCollection",
  "crs": {
    "type": "name",
    "properties": {
      "name": "LOCAL-NEEM-REFERENCE-M"
    }
  },
  "features": [
    {
      "type": "Feature",
      "id": "B01-FB-C",
      "properties": {
        "level": -1,
        "floorId": "B01-FB",
        "buildingId": "B01",
        "use": "parking",
        "bedrooms": null,
        "unit_id": "B01-FB-C",
        "name": "Basement parking",
        "classification": "synthetic",
        "source_revision": "source-showcase-1",
        "geometry_status": "authored_synthetic",
        "geometry_note": "Author-provided fictional geometry; not AI extraction or survey evidence.",
        "geometry_id": "G-B01-FB-C-v1",
        "geometry_revision": 1,
        "base_elevation_m": -3.1,
        "height_m": 2.9,
        "vertical_reference": "DEMO-BM-01 fictional zero datum; not national MSL",
        "floor_id": "B01-FB",
        "internal_3d_id": "DEMO-3D-DENSE-B01:-1:UNIT:B01-FB-C"
      },
      "geometry": {
        "type": "Polygon",
        "coordinates": [
          [
            [
              40.3,
              37.28333333
            ],
            [
              55.7,
              37.28333333
            ],
            [
              55.7,
              53.71666667
            ],
            [
              50.3,
              53.71666667
            ],
            [
              50.3,
              51.82777778
            ],
            [
              40.3,
              51.82777778
            ],
            [
              40.3,
              37.28333333
            ]
          ]
        ]
      }
    },
    {
      "type": "Feature",
      "id": "B01-F0-U1",
      "properties": {
        "level": 0,
        "floorId": "B01-F0",
        "buildingId": "B01",
        "use": "residential",
        "bedrooms": 2,
        "unit_id": "B01-F0-U1",
        "name": "Apartment 101",
        "classification": "synthetic",
        "source_revision": "source-showcase-1",
        "geometry_status": "authored_synthetic",
        "geometry_note": "Author-provided fictional geometry; not AI extraction or survey evidence.",
        "geometry_id": "G-B01-F0-U1-v1",
        "geometry_revision": 1,
        "base_elevation_m": 0.0,
        "height_m": 2.9,
        "vertical_reference": "DEMO-BM-01 fictional zero datum; not national MSL",
        "floor_id": "B01-F0",
        "internal_3d_id": "DEMO-3D-DENSE-B01:0:UNIT:B01-F0-U1"
      },
      "geometry": {
        "type": "Polygon",
        "coordinates": [
          [
            [
              40.3,
              37.28333333
            ],
            [
              47.4,
              37.28333333
            ],
            [
              47.4,
              51.82777778
            ],
            [
              40.3,
              51.82777778
            ],
            [
              40.3,
              37.28333333
            ]
          ]
        ]
      }
    },
    {
      "type": "Feature",
      "id": "B01-F0-U2",
      "properties": {
        "level": 0,
        "floorId": "B01-F0",
        "buildingId": "B01",
        "use": "residential",
        "bedrooms": 2,
        "unit_id": "B01-F0-U2",
        "name": "Apartment 102",
        "classification": "synthetic",
        "source_revision": "source-showcase-1",
        "geometry_status": "authored_synthetic",
        "geometry_note": "Author-provided fictional geometry; not AI extraction or survey evidence.",
        "geometry_id": "G-B01-F0-U2-v1",
        "geometry_revision": 1,
        "base_elevation_m": 0.0,
        "height_m": 2.9,
        "vertical_reference": "DEMO-BM-01 fictional zero datum; not national MSL",
        "floor_id": "B01-F0",
        "internal_3d_id": "DEMO-3D-DENSE-B01:0:UNIT:B01-F0-U2"
      },
      "geometry": {
        "type": "Polygon",
        "coordinates": [
          [
            [
              48.6,
              37.28333333
            ],
            [
              55.7,
              37.28333333
            ],
            [
              55.7,
              53.71666667
            ],
            [
              50.3,
              53.71666667
            ],
            [
              50.3,
              51.82777778
            ],
            [
              48.6,
              51.82777778
            ],
            [
              48.6,
              37.28333333
            ]
          ]
        ]
      }
    },
    {
      "type": "Feature",
      "id": "B01-F0-C",
      "properties": {
        "level": 0,
        "floorId": "B01-F0",
        "buildingId": "B01",
        "use": "common",
        "bedrooms": null,
        "unit_id": "B01-F0-C",
        "name": "Shared circulation",
        "classification": "synthetic",
        "source_revision": "source-showcase-1",
        "geometry_status": "authored_synthetic",
        "geometry_note": "Author-provided fictional geometry; not AI extraction or survey evidence.",
        "geometry_id": "G-B01-F0-C-v1",
        "geometry_revision": 1,
        "base_elevation_m": 0.0,
        "height_m": 2.9,
        "vertical_reference": "DEMO-BM-01 fictional zero datum; not national MSL",
        "floor_id": "B01-F0",
        "internal_3d_id": "DEMO-3D-DENSE-B01:0:UNIT:B01-F0-C"
      },
      "geometry": {
        "type": "Polygon",
        "coordinates": [
          [
            [
              47.5,
              37.28333333
            ],
            [
              48.5,
              37.28333333
            ],
            [
              48.5,
              51.82777778
            ],
            [
              47.5,
              51.82777778
            ],
            [
              47.5,
              37.28333333
            ]
          ]
        ]
      }
    },
    {
      "type": "Feature",
      "id": "B01-F1-U1",
      "properties": {
        "level": 1,
        "floorId": "B01-F1",
        "buildingId": "B01",
        "use": "residential",
        "bedrooms": 2,
        "unit_id": "B01-F1-U1",
        "name": "Apartment 201",
        "classification": "synthetic",
        "source_revision": "source-showcase-1",
        "geometry_status": "authored_synthetic",
        "geometry_note": "Author-provided fictional geometry; not AI extraction or survey evidence.",
        "geometry_id": "G-B01-F1-U1-v1",
        "geometry_revision": 1,
        "base_elevation_m": 3.1,
        "height_m": 2.9,
        "vertical_reference": "DEMO-BM-01 fictional zero datum; not national MSL",
        "floor_id": "B01-F1",
        "internal_3d_id": "DEMO-3D-DENSE-B01:1:UNIT:B01-F1-U1"
      },
      "geometry": {
        "type": "Polygon",
        "coordinates": [
          [
            [
              40.3,
              37.28333333
            ],
            [
              47.4,
              37.28333333
            ],
            [
              47.4,
              51.82777778
            ],
            [
              40.3,
              51.82777778
            ],
            [
              40.3,
              37.28333333
            ]
          ]
        ]
      }
    },
    {
      "type": "Feature",
      "id": "B01-F1-U2",
      "properties": {
        "level": 1,
        "floorId": "B01-F1",
        "buildingId": "B01",
        "use": "residential",
        "bedrooms": 2,
        "unit_id": "B01-F1-U2",
        "name": "Apartment 202",
        "classification": "synthetic",
        "source_revision": "source-showcase-1",
        "geometry_status": "authored_synthetic",
        "geometry_note": "Author-provided fictional geometry; not AI extraction or survey evidence.",
        "geometry_id": "G-B01-F1-U2-v1",
        "geometry_revision": 1,
        "base_elevation_m": 3.1,
        "height_m": 2.9,
        "vertical_reference": "DEMO-BM-01 fictional zero datum; not national MSL",
        "floor_id": "B01-F1",
        "internal_3d_id": "DEMO-3D-DENSE-B01:1:UNIT:B01-F1-U2"
      },
      "geometry": {
        "type": "Polygon",
        "coordinates": [
          [
            [
              48.6,
              37.28333333
            ],
            [
              55.7,
              37.28333333
            ],
            [
              55.7,
              53.71666667
            ],
            [
              50.3,
              53.71666667
            ],
            [
              50.3,
              51.82777778
            ],
            [
              48.6,
              51.82777778
            ],
            [
              48.6,
              37.28333333
            ]
          ]
        ]
      }
    },
    {
      "type": "Feature",
      "id": "B01-F1-C",
      "properties": {
        "level": 1,
        "floorId": "B01-F1",
        "buildingId": "B01",
        "use": "common",
        "bedrooms": null,
        "unit_id": "B01-F1-C",
        "name": "Shared circulation",
        "classification": "synthetic",
        "source_revision": "source-showcase-1",
        "geometry_status": "authored_synthetic",
        "geometry_note": "Author-provided fictional geometry; not AI extraction or survey evidence.",
        "geometry_id": "G-B01-F1-C-v1",
        "geometry_revision": 1,
        "base_elevation_m": 3.1,
        "height_m": 2.9,
        "vertical_reference": "DEMO-BM-01 fictional zero datum; not national MSL",
        "floor_id": "B01-F1",
        "internal_3d_id": "DEMO-3D-DENSE-B01:1:UNIT:B01-F1-C"
      },
      "geometry": {
        "type": "Polygon",
        "coordinates": [
          [
            [
              47.5,
              37.28333333
            ],
            [
              48.5,
              37.28333333
            ],
            [
              48.5,
              51.82777778
            ],
            [
              47.5,
              51.82777778
            ],
            [
              47.5,
              37.28333333
            ]
          ]
        ]
      }
    },
    {
      "type": "Feature",
      "id": "B01-F2-U1",
      "properties": {
        "level": 2,
        "floorId": "B01-F2",
        "buildingId": "B01",
        "use": "residential",
        "bedrooms": 2,
        "unit_id": "B01-F2-U1",
        "name": "Apartment 301",
        "classification": "synthetic",
        "source_revision": "source-showcase-1",
        "geometry_status": "authored_synthetic",
        "geometry_note": "Author-provided fictional geometry; not AI extraction or survey evidence.",
        "geometry_id": "G-B01-F2-U1-v1",
        "geometry_revision": 1,
        "base_elevation_m": 6.2,
        "height_m": 2.9,
        "vertical_reference": "DEMO-BM-01 fictional zero datum; not national MSL",
        "floor_id": "B01-F2",
        "internal_3d_id": "DEMO-3D-DENSE-B01:2:UNIT:B01-F2-U1"
      },
      "geometry": {
        "type": "Polygon",
        "coordinates": [
          [
            [
              40.3,
              37.28333333
            ],
            [
              47.4,
              37.28333333
            ],
            [
              47.4,
              51.82777778
            ],
            [
              40.3,
              51.82777778
            ],
            [
              40.3,
              37.28333333
            ]
          ]
        ]
      }
    },
    {
      "type": "Feature",
      "id": "B01-F2-U2",
      "properties": {
        "level": 2,
        "floorId": "B01-F2",
        "buildingId": "B01",
        "use": "residential",
        "bedrooms": 2,
        "unit_id": "B01-F2-U2",
        "name": "Apartment 302",
        "classification": "synthetic",
        "source_revision": "source-showcase-1",
        "geometry_status": "authored_synthetic",
        "geometry_note": "Author-provided fictional geometry; not AI extraction or survey evidence.",
        "geometry_id": "G-B01-F2-U2-v1",
        "geometry_revision": 1,
        "base_elevation_m": 6.2,
        "height_m": 2.9,
        "vertical_reference": "DEMO-BM-01 fictional zero datum; not national MSL",
        "floor_id": "B01-F2",
        "internal_3d_id": "DEMO-3D-DENSE-B01:2:UNIT:B01-F2-U2"
      },
      "geometry": {
        "type": "Polygon",
        "coordinates": [
          [
            [
              48.6,
              37.28333333
            ],
            [
              55.7,
              37.28333333
            ],
            [
              55.7,
              53.71666667
            ],
            [
              50.3,
              53.71666667
            ],
            [
              50.3,
              51.82777778
            ],
            [
              48.6,
              51.82777778
            ],
            [
              48.6,
              37.28333333
            ]
          ]
        ]
      }
    },
    {
      "type": "Feature",
      "id": "B01-F2-C",
      "properties": {
        "level": 2,
        "floorId": "B01-F2",
        "buildingId": "B01",
        "use": "common",
        "bedrooms": null,
        "unit_id": "B01-F2-C",
        "name": "Shared circulation",
        "classification": "synthetic",
        "source_revision": "source-showcase-1",
        "geometry_status": "authored_synthetic",
        "geometry_note": "Author-provided fictional geometry; not AI extraction or survey evidence.",
        "geometry_id": "G-B01-F2-C-v1",
        "geometry_revision": 1,
        "base_elevation_m": 6.2,
        "height_m": 2.9,
        "vertical_reference": "DEMO-BM-01 fictional zero datum; not national MSL",
        "floor_id": "B01-F2",
        "internal_3d_id": "DEMO-3D-DENSE-B01:2:UNIT:B01-F2-C"
      },
      "geometry": {
        "type": "Polygon",
        "coordinates": [
          [
            [
              47.5,
              37.28333333
            ],
            [
              48.5,
              37.28333333
            ],
            [
              48.5,
              51.82777778
            ],
            [
              47.5,
              51.82777778
            ],
            [
              47.5,
              37.28333333
            ]
          ]
        ]
      }
    },
    {
      "type": "Feature",
      "id": "B01-F3-U1",
      "properties": {
        "level": 3,
        "floorId": "B01-F3",
        "buildingId": "B01",
        "use": "residential",
        "bedrooms": 2,
        "unit_id": "B01-F3-U1",
        "name": "Apartment 401",
        "classification": "synthetic",
        "source_revision": "source-showcase-1",
        "geometry_status": "authored_synthetic",
        "geometry_note": "Author-provided fictional geometry; not AI extraction or survey evidence.",
        "geometry_id": "G-B01-F3-U1-v1",
        "geometry_revision": 1,
        "base_elevation_m": 9.3,
        "height_m": 2.9,
        "vertical_reference": "DEMO-BM-01 fictional zero datum; not national MSL",
        "floor_id": "B01-F3",
        "internal_3d_id": "DEMO-3D-DENSE-B01:3:UNIT:B01-F3-U1"
      },
      "geometry": {
        "type": "Polygon",
        "coordinates": [
          [
            [
              40.3,
              37.28333333
            ],
            [
              47.4,
              37.28333333
            ],
            [
              47.4,
              51.82777778
            ],
            [
              40.3,
              51.82777778
            ],
            [
              40.3,
              37.28333333
            ]
          ]
        ]
      }
    },
    {
      "type": "Feature",
      "id": "B01-F3-U2",
      "properties": {
        "level": 3,
        "floorId": "B01-F3",
        "buildingId": "B01",
        "use": "residential",
        "bedrooms": 2,
        "unit_id": "B01-F3-U2",
        "name": "Apartment 402",
        "classification": "synthetic",
        "source_revision": "source-showcase-1",
        "geometry_status": "authored_synthetic",
        "geometry_note": "Author-provided fictional geometry; not AI extraction or survey evidence.",
        "geometry_id": "G-B01-F3-U2-v1",
        "geometry_revision": 1,
        "base_elevation_m": 9.3,
        "height_m": 2.9,
        "vertical_reference": "DEMO-BM-01 fictional zero datum; not national MSL",
        "floor_id": "B01-F3",
        "internal_3d_id": "DEMO-3D-DENSE-B01:3:UNIT:B01-F3-U2"
      },
      "geometry": {
        "type": "Polygon",
        "coordinates": [
          [
            [
              48.6,
              37.28333333
            ],
            [
              55.7,
              37.28333333
            ],
            [
              55.7,
              53.71666667
            ],
            [
              50.3,
              53.71666667
            ],
            [
              50.3,
              51.82777778
            ],
            [
              48.6,
              51.82777778
            ],
            [
              48.6,
              37.28333333
            ]
          ]
        ]
      }
    },
    {
      "type": "Feature",
      "id": "B01-F3-C",
      "properties": {
        "level": 3,
        "floorId": "B01-F3",
        "buildingId": "B01",
        "use": "common",
        "bedrooms": null,
        "unit_id": "B01-F3-C",
        "name": "Shared circulation",
        "classification": "synthetic",
        "source_revision": "source-showcase-1",
        "geometry_status": "authored_synthetic",
        "geometry_note": "Author-provided fictional geometry; not AI extraction or survey evidence.",
        "geometry_id": "G-B01-F3-C-v1",
        "geometry_revision": 1,
        "base_elevation_m": 9.3,
        "height_m": 2.9,
        "vertical_reference": "DEMO-BM-01 fictional zero datum; not national MSL",
        "floor_id": "B01-F3",
        "internal_3d_id": "DEMO-3D-DENSE-B01:3:UNIT:B01-F3-C"
      },
      "geometry": {
        "type": "Polygon",
        "coordinates": [
          [
            [
              47.5,
              37.28333333
            ],
            [
              48.5,
              37.28333333
            ],
            [
              48.5,
              51.82777778
            ],
            [
              47.5,
              51.82777778
            ],
            [
              47.5,
              37.28333333
            ]
          ]
        ]
      }
    },
    {
      "type": "Feature",
      "id": "B01-F4-U1",
      "properties": {
        "level": 4,
        "floorId": "B01-F4",
        "buildingId": "B01",
        "use": "residential",
        "bedrooms": 2,
        "unit_id": "B01-F4-U1",
        "name": "Apartment 501",
        "classification": "synthetic",
        "source_revision": "source-showcase-1",
        "geometry_status": "authored_synthetic",
        "geometry_note": "Author-provided fictional geometry; not AI extraction or survey evidence.",
        "geometry_id": "G-B01-F4-U1-v1",
        "geometry_revision": 1,
        "base_elevation_m": 12.4,
        "height_m": 2.9,
        "vertical_reference": "DEMO-BM-01 fictional zero datum; not national MSL",
        "floor_id": "B01-F4",
        "internal_3d_id": "DEMO-3D-DENSE-B01:4:UNIT:B01-F4-U1"
      },
      "geometry": {
        "type": "Polygon",
        "coordinates": [
          [
            [
              40.3,
              37.28333333
            ],
            [
              47.4,
              37.28333333
            ],
            [
              47.4,
              51.82777778
            ],
            [
              40.3,
              51.82777778
            ],
            [
              40.3,
              37.28333333
            ]
          ]
        ]
      }
    },
    {
      "type": "Feature",
      "id": "B01-F4-U2",
      "properties": {
        "level": 4,
        "floorId": "B01-F4",
        "buildingId": "B01",
        "use": "residential",
        "bedrooms": 2,
        "unit_id": "B01-F4-U2",
        "name": "Apartment 502",
        "classification": "synthetic",
        "source_revision": "source-showcase-1",
        "geometry_status": "authored_synthetic",
        "geometry_note": "Author-provided fictional geometry; not AI extraction or survey evidence.",
        "geometry_id": "G-B01-F4-U2-v1",
        "geometry_revision": 1,
        "base_elevation_m": 12.4,
        "height_m": 2.9,
        "vertical_reference": "DEMO-BM-01 fictional zero datum; not national MSL",
        "floor_id": "B01-F4",
        "internal_3d_id": "DEMO-3D-DENSE-B01:4:UNIT:B01-F4-U2"
      },
      "geometry": {
        "type": "Polygon",
        "coordinates": [
          [
            [
              48.6,
              37.28333333
            ],
            [
              55.7,
              37.28333333
            ],
            [
              55.7,
              53.71666667
            ],
            [
              50.3,
              53.71666667
            ],
            [
              50.3,
              51.82777778
            ],
            [
              48.6,
              51.82777778
            ],
            [
              48.6,
              37.28333333
            ]
          ]
        ]
      }
    },
    {
      "type": "Feature",
      "id": "B01-F4-C",
      "properties": {
        "level": 4,
        "floorId": "B01-F4",
        "buildingId": "B01",
        "use": "common",
        "bedrooms": null,
        "unit_id": "B01-F4-C",
        "name": "Shared circulation",
        "classification": "synthetic",
        "source_revision": "source-showcase-1",
        "geometry_status": "authored_synthetic",
        "geometry_note": "Author-provided fictional geometry; not AI extraction or survey evidence.",
        "geometry_id": "G-B01-F4-C-v1",
        "geometry_revision": 1,
        "base_elevation_m": 12.4,
        "height_m": 2.9,
        "vertical_reference": "DEMO-BM-01 fictional zero datum; not national MSL",
        "floor_id": "B01-F4",
        "internal_3d_id": "DEMO-3D-DENSE-B01:4:UNIT:B01-F4-C"
      },
      "geometry": {
        "type": "Polygon",
        "coordinates": [
          [
            [
              47.5,
              37.28333333
            ],
            [
              48.5,
              37.28333333
            ],
            [
              48.5,
              51.82777778
            ],
            [
              47.5,
              51.82777778
            ],
            [
              47.5,
              37.28333333
            ]
          ]
        ]
      }
    }
  ]
}
