{
  "features": [
    {
      "geometry": {
        "coordinates": [
          [
            [
              77.1,
              28.5
            ],
            [
              77.1015,
              28.5
            ],
            [
              77.1015,
              28.502
            ],
            [
              77.1,
              28.502
            ],
            [
              77.1,
              28.5
            ]
          ]
        ],
        "type": "Polygon"
      },
      "properties": {
        "site_id": "SITE-SYN-A"
      },
      "type": "Feature"
    },
    {
      "geometry": {
        "coordinates": [
          [
            [
              77.1015,
              28.5
            ],
            [
              77.103,
              28.5
            ],
            [
              77.103,
              28.502
            ],
            [
              77.1015,
              28.502
            ],
            [
              77.1015,
              28.5
            ]
          ]
        ],
        "type": "Polygon"
      },
      "properties": {
        "site_id": "SITE-SYN-B"
      },
      "type": "Feature"
    },
    {
      "geometry": {
        "coordinates": [
          [
            77.1005,
            28.501
          ],
          [
            77.1025,
            28.501
          ]
        ],
        "type": "LineString"
      },
      "properties": {
        "id": "METRO-SYN-1",
        "representation": "physical_semantic"
      },
      "type": "Feature"
    }
  ],
  "type": "FeatureCollection"
}
