{
  "type": "FeatureCollection",
  "crs": {
    "type": "name",
    "properties": {
      "name": "LOCAL-LAKE-VIEW-DEMO-M"
    }
  },
  "features": [
    {
      "type": "Feature",
      "id": "R01",
      "properties": {
        "road_class": "local_street",
        "road_id": "R01",
        "name": "Lake View Road",
        "classification": "synthetic",
        "source_revision": "source-showcase-1",
        "geometry_status": "authored_synthetic",
        "geometry_note": "Author-provided fictional geometry; not AI extraction or survey evidence.",
        "geometry_id": "R01-shape-v1",
        "geometry_revision": 1,
        "base_elevation_m": 0,
        "height_m": 0,
        "vertical_reference": "DEMO-BM-01 fictional zero datum; not national MSL"
      },
      "geometry": {
        "type": "Polygon",
        "coordinates": [
          [
            [
              -26,
              96
            ],
            [
              191,
              96
            ],
            [
              191,
              106
            ],
            [
              -26,
              106
            ],
            [
              -26,
              96
            ]
          ]
        ]
      }
    },
    {
      "type": "Feature",
      "id": "R02",
      "properties": {
        "road_class": "local_street",
        "road_id": "R02",
        "name": "Park Lane",
        "classification": "synthetic",
        "source_revision": "source-showcase-1",
        "geometry_status": "authored_synthetic",
        "geometry_note": "Author-provided fictional geometry; not AI extraction or survey evidence.",
        "geometry_id": "R02-shape-v1",
        "geometry_revision": 1,
        "base_elevation_m": 0,
        "height_m": 0,
        "vertical_reference": "DEMO-BM-01 fictional zero datum; not national MSL"
      },
      "geometry": {
        "type": "Polygon",
        "coordinates": [
          [
            [
              94,
              -26
            ],
            [
              103,
              -26
            ],
            [
              103,
              204
            ],
            [
              94,
              204
            ],
            [
              94,
              -26
            ]
          ]
        ]
      }
    },
    {
      "type": "Feature",
      "id": "R03",
      "properties": {
        "road_class": "local_street",
        "road_id": "R03",
        "name": "5th Main Road",
        "classification": "synthetic",
        "source_revision": "source-showcase-1",
        "geometry_status": "authored_synthetic",
        "geometry_note": "Author-provided fictional geometry; not AI extraction or survey evidence.",
        "geometry_id": "R03-shape-v1",
        "geometry_revision": 1,
        "base_elevation_m": 0,
        "height_m": 0,
        "vertical_reference": "DEMO-BM-01 fictional zero datum; not national MSL"
      },
      "geometry": {
        "type": "Polygon",
        "coordinates": [
          [
            [
              -26,
              17
            ],
            [
              191,
              17
            ],
            [
              191,
              27
            ],
            [
              -26,
              27
            ],
            [
              -26,
              17
            ]
          ]
        ]
      }
    },
    {
      "type": "Feature",
      "id": "R04",
      "properties": {
        "road_class": "local_street",
        "road_id": "R04",
        "name": "Lake View Lane",
        "classification": "synthetic",
        "source_revision": "source-showcase-1",
        "geometry_status": "authored_synthetic",
        "geometry_note": "Author-provided fictional geometry; not AI extraction or survey evidence.",
        "geometry_id": "R04-shape-v1",
        "geometry_revision": 1,
        "base_elevation_m": 0,
        "height_m": 0,
        "vertical_reference": "DEMO-BM-01 fictional zero datum; not national MSL"
      },
      "geometry": {
        "type": "Polygon",
        "coordinates": [
          [
            [
              47,
              56
            ],
            [
              191,
              56
            ],
            [
              191,
              64
            ],
            [
              47,
              64
            ],
            [
              47,
              56
            ]
          ]
        ]
      }
    },
    {
      "type": "Feature",
      "id": "R05",
      "properties": {
        "road_class": "local_street",
        "road_id": "R05",
        "name": "Garden Lane",
        "classification": "synthetic",
        "source_revision": "source-showcase-1",
        "geometry_status": "authored_synthetic",
        "geometry_note": "Author-provided fictional geometry; not AI extraction or survey evidence.",
        "geometry_id": "R05-shape-v1",
        "geometry_revision": 1,
        "base_elevation_m": 0,
        "height_m": 0,
        "vertical_reference": "DEMO-BM-01 fictional zero datum; not national MSL"
      },
      "geometry": {
        "type": "Polygon",
        "coordinates": [
          [
            [
              -26,
              137
            ],
            [
              191,
              137
            ],
            [
              191,
              145
            ],
            [
              -26,
              145
            ],
            [
              -26,
              137
            ]
          ]
        ]
      }
    }
  ]
}
